,city,state,state_name,males,females,lat,lng
0,Abbeville,LA,Louisiana ,3,0,29.9746502,-92.1342921
1,Algiers,LA,Louisiana ,2,0,29.9510514,-90.0810887765191
2,Ascension Parish,LA,Louisiana ,1,0,30.20465845,-90.88963010654159
3,Baker,LA,Louisiana ,1,0,30.5882429,-91.168163
4,Baton Rouge,LA,Louisiana ,46,8,30.4507462,-91.154551
5,Bayou Vista,LA,Louisiana ,1,1,30.2813059,-89.8175651
6,Bossier City,LA,Louisiana ,3,2,32.5064115,-93.65183813047341
7,Bossier City ,LA,Louisiana ,1,0,32.5064115,-93.65183813047341
8,Caddo Parish,LA,Louisiana ,1,0,32.60755,-93.90238917826521
9,Calcasieu Parish,LA,Louisiana ,1,0,30.26537195,-93.3691697243836
10,Carencro,LA,Louisiana ,2,0,30.317144,-92.0490096
11,Chalmette,LA,Louisiana ,1,0,29.9427037,-89.9634017
12,Charenton,LA,Louisiana ,2,0,29.8815936,-91.5251127
13,Covington,LA,Louisiana ,4,1,30.4754702,-90.1009108
14,Creston,LA,Louisiana ,1,0,31.9759941,-93.049884
15,DeRidder,LA,Louisiana ,1,0,30.8463055,-93.2890528
16,Denham Springs,LA,Louisiana ,2,0,30.4868564,-90.9562125
17,Donaldsonville,LA,Louisiana ,2,0,30.1010324,-90.9928774
18,Duson,LA,Louisiana ,1,0,30.2357577,-92.1854035
19,East Baton Rouge,LA,Louisiana ,1,0,30.4143987,-91.1774318
20,Ebarb,LA,Louisiana ,1,0,31.635777,-93.648603
21,Edgard,LA,Louisiana ,1,0,30.0432578,-90.5600869
22,Ferriday,LA,Louisiana ,1,0,31.6301664,-91.5545649
23,Garyville,LA,Louisiana ,1,0,30.056035,-90.6192554
24,Geismar,LA,Louisiana ,1,0,30.2043633,-91.0226013
25,Gentilly,LA,Louisiana ,4,0,30.0156248,-90.0518356
26,Gonzales,LA,Louisiana ,1,0,30.2385294,-90.9200987
27,Harahan,LA,Louisiana ,1,0,29.9404826,-90.2031313
28,Harvey,LA,Louisiana ,14,0,29.9035387,-90.0772944
29,Houma,LA,Louisiana ,9,1,29.5957696,-90.7195348
30,Jamestown,LA,Louisiana ,1,0,32.3440452,-93.2118341
31,Jeanerette,LA,Louisiana ,1,0,29.9110378,-91.6634484
32,Jena,LA,Louisiana ,1,0,31.6832271,-92.1337448
33,Kenner,LA,Louisiana ,7,0,29.9940924,-90.2417434
34,Krotz Springs,LA,Louisiana ,1,0,30.5368592,-91.7528931
35,LaFayette,LA,Louisiana ,3,1,30.2240897,-92.0198427
36,LaPlace,LA,Louisiana ,5,1,30.0665907,-90.4800848
37,Lafayette Parish,LA,Louisiana ,1,1,30.208284,-92.11207429099359
38,Lafourche Parish,LA,Louisiana ,1,0,29.50317955,-90.36353872460859
39,Lake Charles,LA,Louisiana ,5,0,30.2265949,-93.2173759
40,Larose,LA,Louisiana ,1,1,29.572438,-90.3817483
41,Livingston Parish,LA,Louisiana ,1,0,30.412795,-90.7410590657223
42,Loranger,LA,Louisiana ,1,1,30.6357439,-90.3981441
43,Luling,LA,Louisiana ,1,0,29.9321498,-90.3664695
44,Mansfield,LA,Louisiana ,2,1,32.0376629,-93.7001819
45,Marrero,LA,Louisiana ,9,1,29.8993723,-90.1003506
46,Metairie,LA,Louisiana ,6,3,30.00135175,-90.1767313475544
47,Monroe,LA,Louisiana ,5,0,32.5093109,-92.1193012
48,Morgan City,LA,Louisiana ,1,0,29.6993748,-91.20677
49,Nairn,LA,Louisiana ,1,0,29.4279955,-89.6108947
50,New Orleans,LA,Louisiana ,146,17,29.9499323,-90.0701156
51,New Orleans ,LA,Louisiana ,1,0,29.9499323,-90.0701156
52,Port Allen,LA,Louisiana ,2,0,30.4521351,-91.2101081
53,Prairieville,LA,Louisiana ,2,0,30.3029721,-90.9720451
54,Ragley,LA,Louisiana ,1,0,30.512699,-93.2323813
55,Reserve,LA,Louisiana ,5,0,30.0538131,-90.5517534
56,River Ridge,LA,Louisiana ,3,0,29.9602043,-90.2156316
57,Ruston,LA,Louisiana ,1,0,32.5269104,-92.6463257
58,Shreveport,LA,Louisiana ,13,0,32.5221828,-93.7651944
59,Slidell,LA,Louisiana ,6,0,30.2751945,-89.7811745
60,Sorrento,LA,Louisiana ,1,0,30.1843642,-90.8592632
61,St. Bernard,LA,Louisiana ,1,0,29.8779823,-89.5969002
62,St. Joseph,LA,Louisiana ,2,0,31.9184926,-91.2334451
63,St. Rose,LA,Louisiana ,3,0,29.9468716,-90.3231349
64,St. Tammany Parish,LA,Louisiana ,1,0,30.4256963,-89.96205483993108
65,Terrebonne,LA,Louisiana ,1,0,29.4257758,-90.5674867
66,Terrytown,LA,Louisiana ,1,0,29.910205,-90.0325709
67,Thibodaux,LA,Louisiana ,2,0,29.7957633,-90.822871
68,Varnado,LA,Louisiana ,2,0,30.8937963,-89.8295203
69,Ville Platte,LA,Louisiana ,1,0,30.6879749,-92.2715157
70,Violet,LA,Louisiana ,1,0,29.8957605,-89.8978439
71,Waggaman,LA,Louisiana ,1,0,29.9185388,-90.2109093
72,West Monroe,LA,Louisiana ,1,1,32.5184775,-92.1476353
73,Winnfield,LA,Louisiana ,1,0,31.9254413,-92.6395932
74,Winnsboro,LA,Louisiana ,1,0,32.1632079,-91.720681
75,Bridge City,LA,Louisiana ,0,1,29.9332605,-90.1700748
76,Franklinton,LA,Louisiana ,0,1,30.8471283,-90.153141
77,Longville,LA,Louisiana ,0,1,30.6051979,-93.2318269
78,Many,LA,Louisiana ,0,1,31.5687848,-93.4840645
79,New Iberia,LA,Louisiana ,0,1,30.0035365,-91.8187285
80,Ponchatoula,LA,Louisiana ,0,1,30.4388041,-90.4414762
81,Slaughter,LA,Louisiana ,0,1,30.7174063,-91.1414958
82,St Joseph,LA,Louisiana ,0,1,31.9184926,-91.2334451
83,Abbeville County,SC,South Carolina ,1,0,34.2492945,-82.4732576974835
84,Anderson County,SC,South Carolina ,1,1,34.5153635,-82.6527126435937
85,Beaufort,SC,South Carolina ,3,0,32.3850708,-80.6923169
86,Beech Island,SC,South Carolina ,1,0,33.4273614,-81.8909473
87,Belton,SC,South Carolina ,2,1,34.5228881,-82.4942948
88,Bennettsville,SC,South Carolina ,3,0,34.6173803,-79.6847814
89,Bishopville,SC,South Carolina ,1,0,34.2182107,-80.2484056
90,Blackville,SC,South Carolina ,1,0,33.3579297,-81.2706606
91,Burton,SC,South Carolina ,1,0,32.4357843,-80.7242883
92,Charleston County,SC,South Carolina ,1,2,32.97595765,-79.5608142364772
93,Chester County,SC,South Carolina ,1,0,34.6830445,-81.1656734367261
94,Colleton County,SC,South Carolina ,2,0,32.7863418,-80.6535523313695
95,Columbia,SC,South Carolina ,26,8,34.0872775,-80.98114973525502
96,Conway ,SC,South Carolina ,1,0,33.8360035,-79.0478143
97,Cottageville,SC,South Carolina ,1,0,32.936838,-80.480935
98,Dacusville,SC,South Carolina ,1,1,34.9353949,-82.5587384
99,Darlington,SC,South Carolina ,1,0,34.2998762,-79.8761741
100,Donalds,SC,South Carolina ,2,0,34.3770591,-82.3473448
101,Dorchester County,SC,South Carolina ,1,1,33.07602025,-80.4273289918359
102,Edgefield County,SC,South Carolina ,1,0,33.7543985,-81.9496810525656
103,Florence,SC,South Carolina ,5,1,33.7846102,-79.4488454
104,Fort Hill,SC,South Carolina ,2,0,34.407373,-80.6475769
105,Fountain Inn,SC,South Carolina ,1,2,34.6890095,-82.1956679
106,Friendship,SC,South Carolina ,1,0,34.4984463,-82.3809556
107,Gaffney,SC,South Carolina ,2,1,35.0717945,-81.6498195
108,Goose Creek,SC,South Carolina ,2,1,33.0126515,-80.0327595151383
109,Graniteville,SC,South Carolina ,2,0,33.5637483,-81.8078887
110,Greeleyville,SC,South Carolina ,1,0,33.5809988,-79.9889654
111,Greenville,SC,South Carolina ,23,5,34.8512316,-82.3985105
112,Greenville County,SC,South Carolina ,1,1,34.8500365,-82.3485514374409
113,Greenwood County,SC,South Carolina ,6,3,34.182129,-82.07935190959691
114,Hanahan,SC,South Carolina ,1,0,32.9138914,-80.0088359
115,Hilton Head,SC,South Carolina ,1,1,32.193817,-80.7381637
116,Honea Path,SC,South Carolina ,1,0,34.4465018,-82.3915122
117,Irmo,SC,South Carolina ,1,0,34.0859829,-81.1831513
118,Jonesville,SC,South Carolina ,1,2,32.7362873,-80.8159402
119,Kershaw,SC,South Carolina ,2,0,34.5518201,-80.5836836
120,Kiawah Island,SC,South Carolina ,1,1,32.6082373,-80.0848166
121,Latta,SC,South Carolina ,1,0,34.3371047,-79.4311616
122,Lexington County,SC,South Carolina ,1,0,33.9250165,-81.28323148921699
123,Loris,SC,South Carolina ,1,0,34.0562812,-78.8903044
124,Moncks Corner,SC,South Carolina ,3,0,33.1960027,-80.0131374
125,Mount Pleasant,SC,South Carolina ,1,0,32.831845,-79.8858415819073
126,Mt. Pleasant,SC,South Carolina ,1,0,32.7940651,-79.8625851
127,Myrtle Beach,SC,South Carolina ,1,0,33.6955167,-78.8817622
128,North Charleston,SC,South Carolina ,10,1,32.939636,-80.0982102221675
129,Orangeberg,SC,South Carolina ,1,0,33.4273582,-80.2807457
130,Orangeburg,SC,South Carolina ,2,0,33.4273582,-80.2807457
131,Pineville,SC,South Carolina ,5,1,33.4282228,-80.0292462
132,Ravenel,SC,South Carolina ,1,0,32.7632321,-80.2500986
133,Richland County,SC,South Carolina ,5,2,33.8071004,-80.6372094
134,Ridgeland,SC,South Carolina ,1,0,32.4807435,-80.980386
135,Ridgeville,SC,South Carolina ,1,0,33.095723,-80.3153738
136,Rock Hill,SC,South Carolina ,4,1,34.9248667,-81.0250784
137,Saluda,SC,South Carolina ,1,0,34.074864,-81.4841699
138,Saluda County,SC,South Carolina ,1,1,34.0005725,-81.74923910080359
139,Seneca,SC,South Carolina ,1,1,34.6865321,-82.9527288
140,Socastee,SC,South Carolina ,1,1,33.683504,-78.9983676
141,Spartanburg,SC,South Carolina ,4,0,34.9498007,-81.9320157
142,Spartanburg County,SC,South Carolina ,1,0,34.888851,-81.9803047128018
143,St George,SC,South Carolina ,2,1,33.1859958,-80.5756534
144,Sumter,SC,South Carolina ,4,1,33.9679376,-79.9413592
145,Turbeville,SC,South Carolina ,1,0,33.8907158,-80.0184063
146,Walterboro,SC,South Carolina ,2,0,32.9051704,-80.6667688
147,Wellford,SC,South Carolina ,1,0,34.9509521,-82.1059416
148,West Columbia,SC,South Carolina ,1,1,33.984518,-81.09820720802921
149,Williamston,SC,South Carolina ,1,0,34.6184471,-82.4779053
150,Woodruff,SC,South Carolina ,1,0,34.7395701,-82.0370466
151,Andrews,SC,South Carolina ,0,1,33.451278,-79.5608971
152,Hartsville,SC,South Carolina ,0,1,34.3740431,-80.0734005
153,Hodges,SC,South Carolina ,0,1,34.2875885,-82.2479312935603
154,Horry County,SC,South Carolina ,0,1,33.93569585,-78.97702634154571
155,Iva,SC,South Carolina ,0,2,34.3064967,-82.663743
156,Johns Island,SC,South Carolina ,0,1,32.7024009,-80.0481488
157,Little River,SC,South Carolina ,0,1,33.8732279,-78.6141798
158,Santee,SC,South Carolina ,0,1,33.4751634,-80.4864764
159,St. George,SC,South Carolina ,0,1,33.1859958,-80.5756534
160,Summerville,SC,South Carolina ,0,1,32.9960965,-80.2021633056339
161,Taylors,SC,South Carolina ,0,1,34.9203946,-82.2962269
162,Travelers Rest,SC,South Carolina ,0,1,34.9676167,-82.4434548
163,Wagener,SC,South Carolina ,0,1,33.6523712,-81.3612142
164,Aberdeen,SD,South Dakota ,5,0,45.4646985,-98.4864829
165,Fort Thompson,SD,South Dakota ,1,0,44.068601,-99.4378846
166,Huron,SD,South Dakota ,3,0,44.3633173,-98.2142572
167,Lake Andes,SD,South Dakota ,1,0,43.1563822,-98.5414703
168,Lead,SD,South Dakota ,2,0,44.3522065,-103.7651984
169,Onida,SD,South Dakota ,1,0,44.7080379,-100.059845
170,Pierre,SD,South Dakota ,1,0,44.3683156,-100.3509665
171,Rapid City,SD,South Dakota ,2,0,44.0805434,-103.2310149
172,Sioux Falls,SD,South Dakota ,2,0,43.5499749,-96.700327
173,Vermillion,SD,South Dakota ,1,0,42.7794417,-96.9292104
174,Wagner,SD,South Dakota ,1,0,43.0797156,-98.2931342
175,Whitney,SD,South Dakota ,1,0,43.8366201,-103.1884552
176,Mitchell,SD,South Dakota ,0,1,43.7092877,-98.0298399
177,Abilene,TX,Texas ,1,0,32.4838865,-99.71564956803292
178,Alamo,TX,Texas ,1,0,26.1822255,-98.11502874909901
179,Alice,TX,Texas ,1,1,27.7596485,-98.0707618913295
180,Alto,TX,Texas ,1,0,31.6504546,-95.0727175
181,Alton,TX,Texas ,3,1,26.2773795,-98.28839274944201
182,Alvin,TX,Texas ,2,0,29.28472515,-95.1125557457345
183,Amarillo,TX,Texas ,8,0,35.2072185,-101.8338246
184,Anahuac,TX,Texas ,1,0,29.7651595,-94.6781374957217
185,Arlington,TX,Texas ,15,7,32.701843,-97.13997597541972
186,Arp,TX,Texas ,1,0,32.2254332,-95.0577207
187,Atascocita,TX,Texas ,1,0,29.9988306,-95.1765978
188,Atascosa,TX,Texas ,1,0,28.7924803,-98.139629
189,Austin,TX,Texas ,14,3,30.2718065,-97.80359592244258
190,Azle,TX,Texas ,1,0,32.896898,-97.5495391
191,Balch Springs,TX,Texas ,1,0,32.7194665,-96.61020688490721
192,Bandera,TX,Texas ,1,0,29.7233825,-99.07396713048571
193,Bandera County,TX,Texas ,1,0,29.7300155,-99.2095738002076
194,Bardwell,TX,Texas ,2,1,32.2690354,-96.6961027
195,Bastrop,TX,Texas ,2,0,30.0854964,-97.0851637
196,Baytown,TX,Texas ,4,0,29.684649,-94.9309393855974
197,Beaumont,TX,Texas ,6,2,30.0860459,-94.1018461
198,Beeville,TX,Texas ,2,0,28.40995,-97.7480006849458
199,Bellaire,TX,Texas ,2,0,29.7076452,-95.4600669383105
200,Benbrook,TX,Texas ,1,0,32.696598,-97.445054
201,Bexar County,TX,Texas ,4,1,29.4372179,-98.47251137923809
202,Bon Wier,TX,Texas ,1,0,30.740222,-93.6422252
203,Brenham,TX,Texas ,1,0,30.1590475,-96.3954497120726
204,Brownfield,TX,Texas ,1,1,33.173755,-102.269261890315
205,Bryan,TX,Texas ,2,0,30.6743643,-96.3699632
206,Burleson,TX,Texas ,1,0,30.4764878,-96.6353488
207,Carrollton,TX,Texas ,2,2,32.9537349,-96.8902816
208,Cedar Hill,TX,Texas ,3,1,32.5871635,-96.9621115125276
209,Center,TX,Texas ,1,0,31.793327,-94.17756845102079
210,Cibolo,TX,Texas ,1,0,29.561618,-98.2269553
211,Cleburne,TX,Texas ,1,0,32.357629,-97.40859189283329
212,Colleyville,TX,Texas ,1,0,32.8919275,-97.1555057525678
213,Comal County,TX,Texas ,1,0,29.8180854,-98.2889577956694
214,Conroe,TX,Texas ,4,0,30.393222,-95.6401663824086
215,Copperas Cove,TX,Texas ,1,0,31.124062,-97.9030785
216,Corpus Christi,TX,Texas ,7,1,27.823713,-97.41739794352941
217,Corsicana,TX,Texas ,1,1,32.0756495,-96.49526755427709
218,Crosby,TX,Texas ,1,0,33.4089784,-101.1483729
219,Crowley,TX,Texas ,2,0,32.5767335,-97.3585231380221
220,Cypress,TX,Texas ,5,2,29.9691116,-95.6971686
221,Dale,TX,Texas ,1,0,29.9274436,-97.5644418
222,Dallas,TX,Texas ,91,14,32.7801052,-96.8000082
223,DeSoto,TX,Texas ,1,3,29.390781,-98.526798
224,Deadwood,TX,Texas ,1,0,32.1398851,-94.1418587
225,Del Valle,TX,Texas ,1,0,30.2107669,-97.6547243
226,Denison,TX,Texas ,1,0,33.706201,-96.5844466439732
227,Denton,TX,Texas ,3,3,33.2375905,-97.1306609813245
228,Denton County,TX,Texas ,1,0,33.0265105,-96.8635139
229,Donna,TX,Texas ,3,0,26.1702082,-98.0522376
230,Dove Creek,TX,Texas ,1,0,30.5056054,-97.6717672
231,Duncanville,TX,Texas ,1,1,32.647691,-96.9170435699782
232,Eden,TX,Texas ,2,0,31.2161476,-99.8454772
233,Edinburg,TX,Texas ,1,0,26.2527695,-98.19367824779209
234,El Paso,TX,Texas ,11,2,31.81113155,-106.501349289734
235,Elgin,TX,Texas ,3,0,30.35517,-97.39176157067058
236,Euless,TX,Texas ,2,0,32.84610745,-97.06673834300649
237,Fairfield,TX,Texas ,7,2,31.7164755,-96.172884780441
238,Fannett,TX,Texas ,1,0,29.9260395,-94.2504458
239,Flower Mound,TX,Texas ,2,0,33.036426,-97.1165370693961
240,Forney,TX,Texas ,1,1,32.74630795,-96.4516126964338
241,Fort Bend County,TX,Texas ,3,0,29.5253232,-95.74496432204559
242,Fort Hood,TX,Texas ,3,0,31.13,-97.78
243,Fort Worth,TX,Texas ,41,7,32.693397,-97.4706709166667
244,Galveston,TX,Texas ,1,0,29.2332775,-94.8601599769047
245,Garland,TX,Texas ,5,1,32.912624,-96.6388833
246,Glen Rose,TX,Texas ,2,0,32.243494,-97.74953982023659
247,Godley,TX,Texas ,1,0,32.449029,-97.5266886
248,Gonzales County,TX,Texas ,1,0,29.447222,-97.50258531238269
249,Granbury,TX,Texas ,3,0,32.433278,-97.759011
250,Grand Prairie,TX,Texas ,7,3,32.65764395,-97.0285689717472
251,Haltom City,TX,Texas ,1,0,32.8202545,-97.2705573099683
252,Hardin County,TX,Texas ,1,0,30.3142215,-94.38791439660558
253,Harlingen,TX,Texas ,1,0,26.1906306,-97.6961026
254,Harper,TX,Texas ,1,0,30.2999195,-99.2442144
255,Harris County,TX,Texas ,22,3,29.8152236,-94.9176032
256,Hays County ,TX,Texas ,1,0,30.0548461,-98.02402563516091
257,Hearne,TX,Texas ,1,0,30.87819,-96.5956469060742
258,Hebbronville,TX,Texas ,1,0,27.3068397,-98.6780811
259,Hereford,TX,Texas ,1,0,34.8150622,-102.3977036
260,Hidalgo County,TX,Texas ,1,0,26.410046,-98.18764702708651
261,Highland Village,TX,Texas ,1,0,33.09461,-97.0577207699745
262,Highlands,TX,Texas ,2,0,29.818836,-95.0560404
263,Hitchcock,TX,Texas ,1,1,29.261449,-95.0175285670541
264,Honey Grove,TX,Texas ,1,1,33.5834377,-95.9099681
265,Houston,TX,Texas ,204,32,29.9519265,-95.54091698405242
266,Hubbard,TX,Texas ,1,0,31.8484935,-96.797215
267,Hudson Bend,TX,Texas ,1,0,30.4171444,-97.9291787
268,Ingleside,TX,Texas ,1,0,27.8666025,-97.2067479147068
269,Irving,TX,Texas ,2,2,32.862876,-96.9791392558391
270,Katy,TX,Texas ,2,2,29.7929303,-95.8296651465649
271,Kaufman,TX,Texas ,1,0,32.565973,-96.3067015913235
272,Keller,TX,Texas ,1,1,32.9357105,-97.22896927141491
273,Kerrville,TX,Texas ,1,0,30.0474332,-99.1403189
274,Killeen,TX,Texas ,9,3,31.1171194,-97.7277959
275,Kountze,TX,Texas ,1,0,30.37432,-94.31679797679001
276,Lancaster,TX,Texas ,11,4,32.598302,-96.77512111282441
277,Laredo,TX,Texas ,3,0,27.506407,-99.5075421
278,Las Yescas,TX,Texas ,1,0,26.2228516,-97.5058182
279,League City,TX,Texas ,1,0,29.5074538,-95.0949303
280,Leander,TX,Texas ,1,1,30.57814,-97.8425888879418
281,Lewisville,TX,Texas ,3,0,33.042576,-96.9662897276534
282,Little Elm,TX,Texas ,1,1,33.1626194,-96.9375051
283,Live Oak,TX,Texas ,3,1,28.170008,-97.8471215
284,Longview,TX,Texas ,3,1,32.5065765,-94.75150988513019
285,Lopezville,TX,Texas ,1,0,26.2382939,-98.1595151
286,Lubbock,TX,Texas ,9,1,33.5778631,-101.8551665
287,Maypearl,TX,Texas ,2,0,32.3132003,-97.0116691
288,McAllen,TX,Texas ,1,0,26.2260035,-98.2373177181604
289,McCamey,TX,Texas ,1,0,31.135591,-102.2244427
290,McGregor,TX,Texas ,1,0,31.4388265,-97.4067399791469
291,McKinney,TX,Texas ,1,0,33.1976496,-96.6154471
292,Mercedes,TX,Texas ,2,0,26.1497977,-97.9136112
293,Mesquite,TX,Texas ,3,3,32.7666103,-96.599472
294,Midland,TX,Texas ,1,1,31.83688,-102.0103767
295,Midland County,TX,Texas ,1,0,31.86918585,-102.031586918774
296,Mission,TX,Texas ,1,0,26.1985485,-98.31028620466171
297,Montgomery County,TX,Texas ,5,2,30.1791039,-95.1623323
298,Morgan's Point,TX,Texas ,1,1,29.6793945,-94.9899276
299,Mount Enterprise,TX,Texas ,1,0,31.9179473,-94.6810439
300,Nacogdoches County,TX,Texas ,2,0,31.536146,-94.59451605196631
301,Natalia,TX,Texas ,1,0,29.189684,-98.8625269
302,New Boston,TX,Texas ,1,0,33.460448,-94.4201115730663
303,New Braunfels,TX,Texas ,2,0,29.7029248,-98.12469
304,North Austin,TX,Texas ,1,0,30.36815625,-97.7066873868812
305,North Richland Hills,TX,Texas ,1,0,32.8601325,-97.21205489622321
306,Oak Cliff,TX,Texas ,6,0,29.7104586,-98.1460417
307,Oak Point,TX,Texas ,1,0,33.17777,-96.9888556964332
308,Odessa,TX,Texas ,3,1,31.8457149,-102.367687
309,Palmhurst,TX,Texas ,1,0,26.2584053,-98.3180712
310,Palmview,TX,Texas ,4,1,26.2283965,-98.36749676775179
311,Pampa,TX,Texas ,1,0,35.547907,-100.967731112225
312,Paris,TX,Texas ,6,0,33.6751155,-95.5502662477703
313,Parker County,TX,Texas ,1,0,32.777937,-97.80382533102991
314,Pearland,TX,Texas ,4,2,29.547838,-95.3838393834951
315,Pearsall,TX,Texas ,1,1,28.8921939,-99.095033
316,Plano,TX,Texas ,2,1,33.0136764,-96.6925096
317,Pleasant Grove,TX,Texas ,5,0,32.0212766,-94.9554951
318,Port Arthur,TX,Texas ,4,3,29.8988258,-93.9287815
319,Porter Heights,TX,Texas ,1,1,30.1579383,-95.3203117
320,Quitman,TX,Texas ,2,1,32.793739,-95.44645739603891
321,Rice,TX,Texas ,4,1,32.2437586,-96.4985967
322,Richardson,TX,Texas ,1,1,32.9481789,-96.7297206
323,Robinson,TX,Texas ,1,1,31.4676687,-97.1147226
324,Rockwall,TX,Texas ,1,3,32.8967899,-96.2982136
325,Rusk,TX,Texas ,1,0,31.8762825,-94.5339953
326,San Angelo,TX,Texas ,1,1,31.432144,-100.454467551013
327,San Antonio,TX,Texas ,64,12,29.4246002,-98.4951405
328,San Leon,TX,Texas ,1,0,29.4832863,-94.9221465
329,Sands Springs,TX,Texas ,1,0,29.976767,-95.182283
330,Seminole,TX,Texas ,1,1,32.7247135,-102.650385348958
331,Snook,TX,Texas ,1,0,30.488816,-96.4644102
332,Snyder,TX,Texas ,1,0,32.712745,-100.91286976556299
333,Southlake,TX,Texas ,1,0,32.962582,-97.15113515099091
334,Spring,TX,Texas ,4,1,30.0798826,-95.4172549
335,Stone Oak,TX,Texas ,1,0,29.6437381,-98.4952228
336,Tarrant County,TX,Texas ,1,0,32.6316957,-97.0737574
337,Taylor Lake Village,TX,Texas ,1,0,29.5774867,-95.05744773949779
338,Temple,TX,Texas ,3,0,31.098207,-97.3427847
339,Terrell,TX,Texas ,3,3,29.9351964,-101.8203006
340,Texarkana,TX,Texas ,4,3,33.441418,-94.0738243416923
341,Texas City,TX,Texas ,2,0,29.4336705,-94.91931924842692
342,The Woodlands,TX,Texas ,1,0,30.1733046,-95.5047303
343,Three Rivers,TX,Texas ,3,0,28.4602717,-98.1825071
344,Tidwell,TX,Texas ,2,0,33.2095584,-96.1013617
345,Tyler,TX,Texas ,4,2,32.330625,-95.30742082134441
346,Universal City,TX,Texas ,1,0,29.5480071,-98.2911235
347,Vidor,TX,Texas ,1,0,30.138118,-93.9843424111247
348,Waco,TX,Texas ,5,2,31.549333,-97.1466695
349,Wall,TX,Texas ,2,0,31.3740524,-100.3075869
350,Waxahachie,TX,Texas ,2,1,32.40549,-96.83891771821699
351,Waxahachie ,TX,Texas ,1,0,32.388547,-96.9288416859837
352,Weatherford,TX,Texas ,3,0,32.7647075,-97.68189195542548
353,Weslaco,TX,Texas ,2,0,26.15592,-97.9804635472487
354,Wharton,TX,Texas ,1,0,29.255248,-95.8998532
355,Wichita Falls,TX,Texas ,5,0,33.9161075,-98.5067371043467
356,Wolfforth,TX,Texas ,2,0,33.5059189,-102.0090575
357,Bloomburg,TX,Texas ,0,1,33.1379088,-94.0574061
358,Brownwood,TX,Texas ,0,1,31.7337655,-98.98583484920059
359,Concho County,TX,Texas ,0,1,31.3336505,-99.8596769413311
360,Elmendorf,TX,Texas ,0,1,29.2581166,-98.301671989788
361,Gilmer,TX,Texas ,0,1,32.729852,-94.952109572207
362,Grape Creek,TX,Texas ,0,1,31.5793231,-100.5475979
363,Joshua,TX,Texas ,0,1,32.4615291,-97.3880732
364,Kilgore,TX,Texas ,0,1,32.39331,-94.86476473465571
365,Nederland,TX,Texas ,0,1,29.9827965,-94.001875861322
366,Panther Creek,TX,Texas ,0,1,30.1658518,-95.4923714
367,Round Rock,TX,Texas ,0,2,30.572587,-97.6483833986758
368,West Bexar County,TX,Texas ,0,1,29.4200763,-98.5721016
369,Willacy County,TX,Texas ,0,1,26.45598445,-97.58654844151009
370,Absarokee,MT,Montana ,1,0,45.5204982,-109.4429444
371,Anaconda,MT,Montana ,1,0,46.1285369,-112.9422641
372,Belgrade,MT,Montana ,1,0,45.7732787,-111.1845352
373,Billings,MT,Montana ,11,1,45.7874957,-108.49607
374,Bozeman,MT,Montana ,1,0,45.6799842,-111.0446748
375,Butte,MT,Montana ,1,0,45.9838436,-112.5007277
376,Evergreen,MT,Montana ,1,0,48.2258788,-114.2762514
377,Great Falls,MT,Montana ,1,0,47.506188,-111.231405298865
378,Havre,MT,Montana ,1,0,48.549999,-109.6840887
379,Helena,MT,Montana ,2,0,46.5927122,-112.036109
380,Missoula,MT,Montana ,2,0,46.8795445,-113.921434505587
381,St. Regis,MT,Montana ,1,0,47.2993743,-115.1026388
382,Townsend,MT,Montana ,1,0,46.3190976,-111.5208023
383,Whitefish,MT,Montana ,3,0,48.4099506,-114.3342212
384,Acampo,CA,California ,3,0,38.1746398,-121.2785588
385,Adelanto,CA,California ,2,1,34.579452,-117.336473432733
386,Alameda,CA,California ,1,0,37.7652065,-122.2416355
387,Alameda County,CA,California ,2,0,37.67988045,-121.90767370056999
388,Alhambra,CA,California ,2,0,34.0855425,-118.13441945506099
389,Altadena,CA,California ,1,0,34.1938705,-118.136502410495
390,Anaheim,CA,California ,4,0,33.8347516,-117.911732
391,Angeles National Forest,CA,California ,1,0,34.141436,-117.798525
392,Antioch,CA,California ,11,3,37.9755365,-121.793642692233
393,Apple Valley,CA,California ,2,0,34.537838,-117.219160542915
394,Arcata,CA,California ,1,1,40.8665166,-124.0828396
395,Arleta,CA,California ,1,0,34.2675168,-118.4516963
396,Arlington Heights,CA,California ,1,0,40.055725,-120.8902318
397,Aromas,CA,California ,2,0,36.8763115,-121.643022142846
398,Arroyo Grande,CA,California ,3,0,35.1241377,-120.580416690972
399,Artesia,CA,California ,2,0,33.8611649,-118.0782044
400,Auburn,CA,California ,5,0,38.89575015,-121.071632729018
401,Azusa,CA,California ,2,0,34.1338751,-117.9056046
402,Bakersfield,CA,California ,18,2,35.223234,-118.95361663035801
403,Baldwin Park,CA,California ,2,0,34.0811095,-117.964517855105
404,Ballico,CA,California ,1,0,37.4543809,-120.7060337
405,Banning,CA,California ,2,0,33.96869745,-116.933657179283
406,Barstow,CA,California ,2,0,34.8957684,-117.0172077
407,Bayview,CA,California ,2,0,40.7726266,-124.1839502
408,Bel-Air,CA,California ,1,0,34.07094015,-118.446702633043
409,Bell Gardens,CA,California ,1,0,33.96561315,-118.152893298018
410,Bellflower,CA,California ,1,0,33.8825705,-118.1167679
411,Berkeley,CA,California ,7,0,37.8707755,-122.30185252021201
412,Bonita,CA,California ,1,0,32.6648235,-117.01586891226101
413,Boyle Heights,CA,California ,1,0,34.0331656,-118.2048648
414,Brawley,CA,California ,1,0,33.0185295,-115.51593622179001
415,Brea,CA,California ,1,0,33.9181945,-117.8994423
416,Burlingame,CA,California ,1,0,37.58788275,-122.36274165918199
417,Burson,CA,California ,1,0,38.1838079,-120.8904938
418,Cabazon,CA,California ,1,0,33.90848725,-116.779315447575
419,Calexico,CA,California ,1,0,32.6858415,-115.491576158431
420,California,CA,California ,1,0,37.786376,-122.2902807
421,California City,CA,California ,1,1,35.1457415,-117.957901319624
422,Camino,CA,California ,1,0,38.7382366,-120.6749302
423,Campbell,CA,California ,2,1,37.28077545,-121.94971703802
424,Capitola,CA,California ,1,0,36.97481995,-121.956979349893
425,Carson,CA,California ,3,0,33.8394267,-118.247031555986
426,Castro Valley,CA,California ,1,0,37.7158075,-122.090312052943
427,Ceres,CA,California ,1,0,37.5972605,-120.94785635634001
428,Chico,CA,California ,1,1,39.7578465,-121.825710737511
429,Chino Hills,CA,California ,2,0,33.9926803,-117.760056
430,Citrus Heights,CA,California ,3,0,38.6931659,-121.293648092323
431,Clearlake,CA,California ,1,0,38.9573975,-122.626309056056
432,Coachella,CA,California ,1,0,33.6795519,-116.176338
433,Coarsegold,CA,California ,1,0,37.2621687,-119.7009834
434,Colton,CA,California ,1,0,34.05710205,-117.323778193832
435,Commerce,CA,California ,1,0,33.99507245,-118.144500755116
436,Compton,CA,California ,15,1,33.9136248,-118.2468201
437,Corona,CA,California ,3,3,33.8594315,-117.551191741327
438,Covelo,CA,California ,1,0,39.802415,-123.247792937936
439,Crescent City,CA,California ,1,0,41.852958,-124.149809424351
440,Cudahy,CA,California ,1,0,33.9626205,-118.181598022271
441,Culver City,CA,California ,1,0,34.0211224,-118.3964665
442,Del Ray,CA,California ,1,0,33.9852896,-118.4253554
443,Del Rey,CA,California ,1,0,36.655975,-119.599864735914
444,Delano,CA,California ,4,0,35.750376,-119.324115526073
445,Delhi,CA,California ,2,0,37.4339725,-120.77684000602899
446,Desert Hot Springs,CA,California ,3,1,33.9614721,-116.55390228287202
447,Dinuba,CA,California ,1,0,36.5432837,-119.3870656
448,Dos Palos,CA,California ,2,0,36.985468,-120.63113900795
449,Downey,CA,California ,4,0,33.9400143,-118.1325688
450,Duarte,CA,California ,1,0,34.1394513,-117.9772873
451,Earlimart,CA,California ,1,0,35.8841206,-119.2723328
452,East Palo Alto,CA,California ,6,0,37.4688273,-122.1410751
453,East San Jose,CA,California ,2,0,37.2519581,-121.82038690009199
454,El Cajon,CA,California ,1,0,32.7947731,-116.9625269
455,El Dorado County,CA,California ,1,0,38.851018,-119.9339696
456,El Monte,CA,California ,1,2,34.0711695,-118.03785403819599
457,El Rio,CA,California ,1,0,34.244036,-119.156870462756
458,El Sereno,CA,California ,1,0,34.0811213,-118.1778495
459,El Sobrante,CA,California ,1,0,37.9774476,-122.2949894
460,Elk Grove,CA,California ,1,0,38.4087993,-121.3716178
461,Emeryville,CA,California ,1,0,37.838553,-122.302828817922
462,Encinitas,CA,California ,2,0,33.0369867,-117.2919818
463,Encino,CA,California ,1,0,34.1588478,-118.500478
464,Escondido,CA,California ,3,0,33.1216751,-117.0814849
465,Exeter,CA,California ,1,0,36.2960613,-119.1420517
466,Exposition Park,CA,California ,1,0,34.0150132,-118.2864635
467,Fairmead,CA,California ,1,0,37.0763341,-120.1929487
468,Farmersville,CA,California ,1,0,36.2977283,-119.2067767
469,Ferndale,CA,California ,1,1,40.580644,-124.262242561122
470,Fillmore,CA,California ,1,0,34.3985613,-118.9125093
471,Fontana,CA,California ,4,3,34.1088175,-117.459930142996
472,Foothill Farms,CA,California ,2,2,38.6836185,-121.34710066369301
473,Frazier Park,CA,California ,1,0,34.81156435,-118.95776319513399
474,Fremont,CA,California ,3,0,37.5482697,-121.9885719
475,French Valley,CA,California ,2,0,33.5994102,-117.1091717
476,Fresno,CA,California ,27,4,36.7322115,-119.69970961134001
477,Fresno County,CA,California ,1,0,36.7463883,-119.67352054122699
478,Fullerton,CA,California ,1,0,33.8725893,-117.9229191
479,Galt,CA,California ,3,0,38.300719,-121.330943415758
480,Garden Grove,CA,California ,3,1,33.7746292,-117.9463717
481,Gardena,CA,California ,1,0,33.8883302,-118.3070892
482,Gavilan Hills,CA,California ,1,0,33.784463,-117.3692084
483,Gilroy,CA,California ,1,0,37.0092712,-121.589923029106
484,Glassell Park,CA,California ,2,0,34.1161201,-118.2289627
485,Glendale,CA,California ,10,3,34.1423455,-118.2483671
486,Guerneville,CA,California ,2,0,38.5115445,-122.987034159778
487,Hacienda Heights,CA,California ,1,2,34.0022074,-117.97839946992599
488,Hawthorne,CA,California ,2,0,33.9140135,-118.344055566788
489,Hayward,CA,California ,8,0,37.6688205,-122.0807964
490,Hemet,CA,California ,4,3,33.722095,-117.00651901451401
491,Hilmar,CA,California ,1,0,37.4085479,-120.8502035
492,Humboldt County,CA,California ,1,0,40.7335541,-123.879211498361
493,Hunter's Point,CA,California ,1,0,37.727029,-122.3589769
494,Huntington Beach,CA,California ,4,0,33.6920535,-117.999249145138
495,Huntington Park,CA,California ,1,0,33.9816812,-118.2250725
496,Imperial,CA,California ,3,0,32.7892118,-114.5559618
497,Indio,CA,California ,2,0,33.74385575,-116.197037830001
498,Inglewood,CA,California ,8,3,33.9616801,-118.3531311
499,Ingot,CA,California ,2,0,40.7276534,-122.0791666
500,Irvine,CA,California ,1,1,33.6862707,-117.8258199
501,Ivanhoe,CA,California ,1,0,36.385024,-119.220297914299
502,Jurupa Valley,CA,California ,3,0,33.9798472,-117.4515754
503,Kelseyville,CA,California ,1,0,38.9779531,-122.8394375
504,Kerman,CA,California ,1,0,36.7221815,-120.06246080492001
505,Kern County,CA,California ,1,0,35.2934231,-118.720389325669
506,King City,CA,California ,4,1,36.226628,-121.15856737655001
507,La Crescenta,CA,California ,1,0,34.2239835,-118.2403974
508,La Mesa,CA,California ,1,0,32.7678288,-117.0230839
509,La Miranda,CA,California ,1,0,40.2345864,-123.8236457
510,La Puente,CA,California ,2,0,34.0331365,-117.95219057523501
511,La Verne,CA,California ,1,0,34.1008426,-117.7678355
512,Laguna Hills,CA,California ,1,0,33.65719445,-117.349398959129
513,Laguna Niguel,CA,California ,1,0,33.5225261,-117.7075526
514,Lake Elsinore,CA,California ,1,1,33.6680772,-117.3272615
515,Lake Merritt,CA,California ,2,0,37.8045934,-122.25626697537399
516,Lawndale,CA,California ,1,0,33.88711,-118.3531481
517,Le Grand,CA,California ,1,0,37.217724,-120.257260197963
518,Le Mesa,CA,California ,1,0,32.7678288,-117.0230839
519,Littlerock,CA,California ,1,0,34.52139,-117.98739187439199
520,Livermore,CA,California ,1,0,37.731528,-121.731063
521,Livingston,CA,California ,1,0,37.3868826,-120.7235329
522,Long Beach,CA,California ,31,4,33.7774658,-118.1884871
523,Los Angeles,CA,California ,286,17,34.0501713,-118.2419714
524,Los Angeles ,CA,California ,1,0,34.0536781,-118.2427025
525,Los Angeles County,CA,California ,1,0,34.24140515,-118.145520591821
526,Los Banos,CA,California ,3,0,37.0655625,-120.841982360549
527,Los Feliz,CA,California ,1,0,34.1043459,-118.2914281
528,Lynwood,CA,California ,3,0,33.925251,-118.20351423892599
529,Madera,CA,California ,5,0,36.942141,-120.171452075392
530,Madera County,CA,California ,1,0,37.2705719,-119.63570949574101
531,Magalia,CA,California ,2,0,39.8121058,-121.5783059
532,Marin City,CA,California ,1,0,37.868538,-122.5091404
533,Marina Del Rey,CA,California ,1,0,33.9753235,-118.445647631934
534,McFarland,CA,California ,2,0,35.677856,-119.22931289991502
535,Menifee,CA,California ,2,2,33.6864432,-117.1770437
536,Merced,CA,California ,2,0,37.3029568,-120.4843269
537,Merced County,CA,California ,1,0,37.1869636,-120.60942637015499
538,Milpitas,CA,California ,1,0,37.43143895,-121.88526595373399
539,Modesto,CA,California ,12,2,37.636724,-120.90148524417
540,Monrovia,CA,California ,1,0,34.201558,-118.1734475
541,Monterey,CA,California ,2,0,36.5845085,-121.86681901043801
542,Moreno Valley,CA,California ,5,1,33.921961,-117.200107316579
543,Mount Hope,CA,California ,1,0,32.7142185,-117.1075309
544,Murphys,CA,California ,2,1,38.148332,-120.4505355
545,Napa,CA,California ,1,0,38.32377705,-122.3355205746
546,National City,CA,California ,1,0,32.6781085,-117.0991967
547,Newport Beach,CA,California ,1,1,33.6170092,-117.9294401
548,Norco,CA,California ,1,0,33.9277225,-117.55562230361099
549,Oak View,CA,California ,1,0,34.397523,-119.30022889575001
550,Oakland,CA,California ,71,14,37.8043808,-122.2708166
551,Oceanside,CA,California ,3,2,33.1958696,-117.3794834
552,Ontario,CA,California ,4,0,34.0633443,-117.6508876
553,Orange,CA,California ,9,1,33.7878549,-117.8530908
554,Orange Cove,CA,California ,1,0,36.606639,-119.33436230299601
555,Orangevale,CA,California ,2,0,38.6841725,-121.218464482522
556,Orosi,CA,California ,1,1,36.5473593,-119.28924846950198
557,Oroville,CA,California ,3,1,39.4900785,-121.564487694774
558,Oxnard,CA,California ,7,3,34.1975048,-119.1770516
559,Pacific Palisades,CA,California ,2,0,34.0480643,-118.5264706
560,Palermo,CA,California ,2,0,39.435057,-121.53525892371201
561,Palm Desert,CA,California ,1,1,33.7404645,-116.36910557863199
562,Palmdale,CA,California ,5,1,34.585428,-118.124321485448
563,Palmetto,CA,California ,1,0,33.7453584,-117.7771984
564,Palo Alto,CA,California ,1,0,37.442156,-122.1634472
565,Paramount,CA,California ,2,0,33.8992926,-118.16494983911501
566,Pasadena,CA,California ,6,0,34.18455365,-118.17355987325399
567,Paso Robles,CA,California ,1,0,35.6267654,-120.6912456
568,Perris,CA,California ,5,0,33.7919875,-117.22433591306499
569,Pico Rivera,CA,California ,1,0,33.9830688,-118.096735
570,Pittsburg,CA,California ,3,1,38.021408,-121.885031239909
571,Pixley,CA,California ,2,0,35.9685649,-119.2917785
572,Placentia,CA,California ,1,0,33.8722371,-117.8703363
573,Placerville,CA,California ,1,0,38.730703,-120.796312705405
574,Planada,CA,California ,3,0,37.2884235,-120.324810120105
575,Pomona,CA,California ,27,2,34.0552886,-117.7522793
576,Port Hueneme,CA,California ,1,0,34.159363,-119.20256088376699
577,Porterville,CA,California ,6,1,36.0625905,-118.982960627645
578,Portola,CA,California ,1,0,39.8194815,-120.467319215198
579,Rancho Cordova,CA,California ,2,0,38.5676485,-121.223249320424
580,Rancho Cucamonga,CA,California ,1,0,34.1242304,-117.565564610376
581,Red Bluff,CA,California ,2,0,40.182967,-122.241172753813
582,Redding,CA,California ,2,0,40.5018995,-122.385954041643
583,Redlands,CA,California ,1,0,34.072662,-117.093417
584,Redondo Beach,CA,California ,3,0,33.8491816,-118.3884078
585,Reseda,CA,California ,1,0,34.2389212,-118.5293248
586,Rialto,CA,California ,3,0,34.1064001,-117.3703235
587,Ridgecrest,CA,California ,1,1,35.6225064,-117.6699414
588,Rio Linda,CA,California ,1,0,38.687172,-121.459356635708
589,Rocklin,CA,California ,1,0,38.7907339,-121.2357828
590,Rodeo,CA,California ,2,0,38.028345,-122.23742410596901
591,Rolando,CA,California ,1,0,33.081472,-117.040067
592,Rosemead,CA,California ,1,1,34.0676169,-118.0879763
593,Rosemont,CA,California ,1,1,38.5475445,-121.35650671371599
594,Sacramento,CA,California ,37,4,38.5815719,-121.4943996
595,Salinas,CA,California ,26,2,36.6604725,-121.684426752882
596,San Bernardino,CA,California ,32,0,34.1083449,-117.2897652
597,San Bruno,CA,California ,1,0,37.6230195,-122.42898208687201
598,San Diego,CA,California ,24,5,32.7469869,-117.21177
599,San Francisco,CA,California ,32,3,37.7789601,-122.419199
600,San Jacinto,CA,California ,5,0,33.794793,-117.006396015464
601,San Jose,CA,California ,24,4,37.3438502,-121.8831349
602,San Leandro,CA,California ,3,0,37.704815,-122.167537362919
603,San Lorenzo,CA,California ,3,1,37.673615,-122.131930042425
604,San Marcos,CA,California ,2,1,33.1433723,-117.1661449
605,San Mateo,CA,California ,1,0,37.5446217,-122.3091165
606,San Pablo,CA,California ,1,0,37.9650335,-122.34696712438101
607,San Pedro,CA,California ,1,0,33.7358518,-118.2922934
608,San Ysidro,CA,California ,1,0,32.5520013,-117.0430813
609,Sanger,CA,California ,1,0,36.708006,-119.5559652
610,Santa Ana,CA,California ,8,2,33.7490525,-117.8620053
611,Santa Barbara,CA,California ,2,0,34.3999755,-119.70302254930701
612,Santa Clarita,CA,California ,1,1,34.3916641,-118.542586
613,Santa Cruz,CA,California ,4,1,36.97588665,-122.033772667443
614,Santa Fe Springs,CA,California ,1,0,33.9472359,-118.0853451
615,Santa Maria,CA,California ,1,0,34.9323829,-120.45379356539301
616,Santa Monica,CA,California ,6,2,34.008617,-118.49475403379499
617,Santa Paula,CA,California ,2,2,34.3554985,-119.064954691622
618,Santa Rosa,CA,California ,4,0,38.367814,-122.76598019449
619,Saratoga,CA,California ,1,0,37.2661735,-122.02578163707399
620,Seaside,CA,California ,1,0,36.62581365,-121.817032663508
621,Seven Oaks,CA,California ,1,0,34.1863979,-116.914197
622,Shingletown,CA,California ,1,3,40.502371,-121.873318455686
623,Simi Valley,CA,California ,4,3,34.2657598,-118.73134641753599
624,Skyline,CA,California ,1,0,32.74169715,-116.95241405981001
625,Sonoma,CA,California ,1,0,37.8761542,-122.238687263807
626,South El Monte,CA,California ,1,0,34.0488705,-118.045758102388
627,South Gate,CA,California ,3,0,33.93820895,-118.18781501539301
628,South Lake Tahoe,CA,California ,2,0,38.92880455,-119.987831498967
629,Stanton,CA,California ,2,1,33.7947696,-117.99507215753
630,Stockton,CA,California ,20,2,37.9577016,-121.2907796
631,Suisun City,CA,California ,2,0,38.2475585,-122.007411375716
632,Sunnyvale,CA,California ,3,0,37.3688301,-122.0363496
633,Temecula,CA,California ,2,1,33.49358875,-117.11743150652201
634,Templeton,CA,California ,1,0,35.5606196,-120.700717473692
635,Thornton,CA,California ,2,0,38.2260268,-121.4246733
636,Thousand Palms,CA,California ,1,0,33.7517195,-116.2731592
637,Tollhouse,CA,California ,1,0,37.018838,-119.3992957
638,Tulare,CA,California ,5,0,35.6521754,-118.3224811
639,Tulare County,CA,California ,2,0,36.26992445,-118.7962660625
640,Turlock,CA,California ,4,0,37.501842,-120.845998000566
641,Tustin,CA,California ,1,0,33.7458511,-117.826166
642,Twentynine Palms,CA,California ,1,0,34.16476,-116.036562499
643,Union City,CA,California ,6,1,37.5907215,-122.017324013925
644,Vacaville,CA,California ,2,0,38.34234285,-121.90154500471
645,Valinda,CA,California ,1,0,34.0384525,-117.933557519603
646,Vallejo,CA,California ,20,5,38.114559,-122.231476112523
647,Valley Center,CA,California ,2,2,33.2183701,-117.0341967
648,Van Nuys,CA,California ,2,0,34.1865032,-118.4489363
649,Ventura,CA,California ,5,0,34.270273,-119.242605355028
650,Ventura County,CA,California ,2,0,34.240837,-118.6369332
651,Victorville,CA,California ,7,0,34.5406414,-117.341067557552
652,Visalia,CA,California ,9,1,36.3302284,-119.2920585
653,Vista,CA,California ,1,0,33.2000368,-117.2425355
654,Walnut Creek,CA,California ,1,0,37.894375,-122.03643881063499
655,Wasco,CA,California ,2,0,35.5941238,-119.3409457
656,Watsonville,CA,California ,3,0,36.88707915,-121.78540016467501
657,Watts,CA,California ,1,0,33.9405674,-118.2428485
658,Weed,CA,California ,1,0,41.41327,-122.387635996861
659,West Oakland,CA,California ,1,0,37.80485795,-122.295167674084
660,Westmont,CA,California ,2,0,33.945206,-118.298403217178
661,Whittier,CA,California ,8,1,34.0270245,-118.055008936061
662,Willowbrook,CA,California ,3,0,33.9169602,-118.2550726
663,Windsor,CA,California ,1,0,38.532455,-122.76033958544501
664,Winnetka,CA,California ,1,0,34.2133375,-118.5720309
665,Woodlake,CA,California ,1,0,36.4110775,-119.093757762045
666,Yorba Linda,CA,California ,1,0,33.890981,-117.773014058691
667,Yuba City,CA,California ,2,0,39.1404477,-121.6169108
668,Yuba County,CA,California ,1,0,39.27887435,-121.438477528395
669,Yucaipa,CA,California ,2,0,34.0407185,-117.051676166367
670,Yucca Valley,CA,California ,1,0,34.13471065,-116.413682243759
671,Chino,CA,California ,0,1,34.0133561,-117.690075
672,French Camp,CA,California ,0,1,37.8764182,-121.271755995002
673,Hanford,CA,California ,0,1,36.2940205,-119.676475172905
674,Joshua Tree,CA,California ,0,1,34.126735,-116.32106299401698
675,Ladera Ranch,CA,California ,0,1,33.5712292,-117.635624
676,Laguna Nigel,CA,California ,0,1,38.83024945,-121.091482240731
677,Mad River,CA,California ,0,1,40.4139261,-123.4730396
678,Montebello,CA,California ,0,1,34.009457,-118.1053467
679,Northridge,CA,California ,0,1,34.2285918,-118.5369316
680,Paradise,CA,California ,0,1,39.763452,-121.60678915304399
681,Redwood City,CA,California ,0,1,37.4852152,-122.2363548
682,San Gabriel,CA,California ,0,1,34.0938138,-118.09757569586701
683,San Onofre,CA,California ,0,1,33.3803575,-117.5736037
684,Tarzana,CA,California ,0,1,34.1494848,-118.5506158
685,Temple City,CA,California ,0,1,34.1031775,-118.052829032497
686,Vernon,CA,California ,0,1,33.999658,-118.204658805656
687,Winters,CA,California ,0,1,38.5249065,-121.9708017
688,Acosta,PA,Pennsylvania ,1,0,40.1103542,-79.0689168
689,Adams,PA,Pennsylvania ,1,0,39.8708972,-77.2395963
690,Allegheny Township,PA,Pennsylvania ,1,0,40.4356765,-80.0041917933408
691,Allentown,PA,Pennsylvania ,9,1,40.6022032,-75.4716219
692,Altoona,PA,Pennsylvania ,3,0,40.518681,-78.394736
693,Ambridge,PA,Pennsylvania ,1,0,40.5892339,-80.22506
694,Archbald,PA,Pennsylvania ,1,0,41.4948038,-75.5368521
695,Ashville,PA,Pennsylvania ,2,2,40.5600684,-78.5486289
696,Avella,PA,Pennsylvania ,1,0,40.2750705,-80.4606226
697,Barree,PA,Pennsylvania ,2,0,40.5853461,-78.1005628
698,Beaver County,PA,Pennsylvania ,1,1,40.6680585,-80.3341342359723
699,Beaver Falls,PA,Pennsylvania ,1,0,40.7520097,-80.3192295
700,Beltzhoover,PA,Pennsylvania ,1,0,40.4197915,-80.0019974
701,Bethel Park,PA,Pennsylvania ,1,0,40.3275697,-80.0394977
702,Bethlehem,PA,Pennsylvania ,3,2,40.6178915,-75.3786521
703,Blair County,PA,Pennsylvania ,3,1,40.4870748,-78.3682329
704,Braddock,PA,Pennsylvania ,1,0,40.4034024,-79.8683824
705,Bucks County,PA,Pennsylvania ,1,1,40.3285875,-75.1299237574973
706,Caln,PA,Pennsylvania ,1,0,39.9909398,-75.7802235
707,Carlisle,PA,Pennsylvania ,1,0,40.201824,-77.1893888
708,Carrick,PA,Pennsylvania ,1,0,40.3964583,-79.9903303
709,Catasauqua,PA,Pennsylvania ,1,0,40.6548191,-75.4746273
710,Chambersburg,PA,Pennsylvania ,2,1,39.9405903,-77.6598624
711,Chanceford,PA,Pennsylvania ,1,1,39.9725187,-76.7483657
712,Cheltenham,PA,Pennsylvania ,1,0,40.0609445,-75.0940625
713,Clairton,PA,Pennsylvania ,1,0,40.292292,-79.881715
714,Clymer,PA,Pennsylvania ,1,0,40.6681213,-79.0116985
715,Conewago,PA,Pennsylvania ,1,0,40.1581491,-76.660246
716,Danielsville,PA,Pennsylvania ,1,1,40.7945388,-75.5271292
717,Darby,PA,Pennsylvania ,1,0,39.9184461,-75.2590721
718,Duquesne,PA,Pennsylvania ,2,0,40.3814581,-79.8597708
719,East Berlin,PA,Pennsylvania ,1,1,39.937597,-76.9785892
720,East Fallowfield,PA,Pennsylvania ,1,0,40.4111493,-80.0230862
721,East Hills,PA,Pennsylvania ,1,0,40.6584314,-75.3432351
722,East Huntingdon,PA,Pennsylvania ,1,0,40.1444301,-79.582819
723,East Liberty,PA,Pennsylvania ,1,0,40.4620685,-79.9239522
724,Easton,PA,Pennsylvania ,3,1,40.6916081,-75.2099866
725,Ellwood City,PA,Pennsylvania ,1,0,40.8617303,-80.2864515
726,Erie,PA,Pennsylvania ,3,0,42.129461,-80.085239
727,Fairless Hills,PA,Pennsylvania ,1,0,40.1795537,-74.8551644
728,Fairmount,PA,Pennsylvania ,1,0,39.9522975,-75.190211
729,Fayette,PA,Pennsylvania ,2,0,39.921022,-79.6663803
730,Forty Fort,PA,Pennsylvania ,1,1,41.2789699,-75.8782519
731,Forward,PA,Pennsylvania ,1,0,40.1314667,-78.8647451
732,Frankford,PA,Pennsylvania ,1,0,40.0281674,-75.084896
733,Freeland,PA,Pennsylvania ,1,1,41.0167508,-75.8971431
734,Garfield,PA,Pennsylvania ,1,0,40.46868,-79.9386628
735,Grantville,PA,Pennsylvania ,1,1,40.377867,-76.6463566
736,Hampden,PA,Pennsylvania ,1,0,40.215999,-76.997987
737,Hanover,PA,Pennsylvania ,1,0,39.8063247,-76.9842735
738,Harrisburg,PA,Pennsylvania ,18,2,40.2663107,-76.8861122
739,Harrisburgh,PA,Pennsylvania ,1,0,40.2737002,-76.8844179
740,Hazelwood,PA,Pennsylvania ,1,1,40.4131664,-79.9391633
741,Hazleton,PA,Pennsylvania ,2,0,40.9646867,-75.9852789
742,Hempfield,PA,Pennsylvania ,2,1,40.0548193,-76.4388523
743,Highspire,PA,Pennsylvania ,1,0,40.2111133,-76.7902453
744,Hilltown,PA,Pennsylvania ,1,0,40.3421681,-75.255433
745,Homer City,PA,Pennsylvania ,1,0,40.5434007,-79.1622566
746,Homestead,PA,Pennsylvania ,3,0,40.4059025,-79.9119948
747,Horton,PA,Pennsylvania ,2,1,41.6050664,-77.8413829
748,Hunting Park,PA,Pennsylvania ,1,0,40.016501,-75.1437876
749,Huntingdon,PA,Pennsylvania ,4,3,40.4847959,-78.0102813
750,Jim Thorpe,PA,Pennsylvania ,1,0,40.8759235,-75.7324127
751,Johnstown,PA,Pennsylvania ,3,0,40.3267407,-78.9219698
752,Kennedy,PA,Pennsylvania ,1,0,41.680071,-77.4283124
753,Kensington,PA,Pennsylvania ,3,0,39.9859458,-75.1318429
754,Kingsessing,PA,Pennsylvania ,1,0,39.9522975,-75.190211
755,Lamar,PA,Pennsylvania ,2,0,41.0161767,-77.5311034
756,Larimer,PA,Pennsylvania ,2,0,40.4625688,-79.9083841
757,Latrobe,PA,Pennsylvania ,1,0,40.3211808,-79.3794811
758,Lehman,PA,Pennsylvania ,2,0,41.3170249,-76.0224235
759,Liberty Twp,PA,Pennsylvania ,1,0,41.0652675,-77.62306752628609
760,Lititz,PA,Pennsylvania ,1,0,40.1571272,-76.3071674
761,Lower Paxton,PA,Pennsylvania ,1,0,40.3187547,-76.7862453
762,Lower Pottsgrove,PA,Pennsylvania ,1,0,40.2509313,-75.5929597
763,Mahanoy City,PA,Pennsylvania ,1,1,40.8125881,-76.1416034
764,Manheim,PA,Pennsylvania ,1,0,40.1637359,-76.3952429
765,Manheim Township ,PA,Pennsylvania ,1,0,40.1637359,-76.3952429
766,Mattawana,PA,Pennsylvania ,1,1,40.4961865,-77.7294372
767,McKeesport,PA,Pennsylvania ,4,1,40.3478472,-79.864215
768,Mckeesport,PA,Pennsylvania ,1,0,40.3478472,-79.864215
769,Mercer County,PA,Pennsylvania ,1,0,41.3334542,-80.3014412
770,Middle Paxton,PA,Pennsylvania ,1,0,40.3046694,-76.8182032
771,Milford Twp,PA,Pennsylvania ,1,0,41.322316,-74.8023882
772,Monroeville,PA,Pennsylvania ,2,0,40.4211798,-79.7881025
773,Moosic,PA,Pennsylvania ,1,0,41.353413,-75.7382478
774,Morrisville,PA,Pennsylvania ,1,0,40.2114978,-74.7879399
775,Mount Oliver,PA,Pennsylvania ,1,1,40.4121097,-79.9856239828881
776,Munhall,PA,Pennsylvania ,2,1,40.3922914,-79.9000499
777,Murrysville,PA,Pennsylvania ,1,1,40.4284015,-79.697545
778,Nether Providence,PA,Pennsylvania ,1,1,39.878245,-75.376656
779,New Ringgold,PA,Pennsylvania ,1,0,40.6859241,-75.9990972
780,Norristown,PA,Pennsylvania ,3,0,40.121497,-75.3399048
781,North Philadelphia,PA,Pennsylvania ,2,0,39.9969817,-75.1550837
782,North Union,PA,Pennsylvania ,1,0,43.0686883,-77.7968023
783,North Versailles,PA,Pennsylvania ,1,1,40.3797913,-79.8094916
784,Olney,PA,Pennsylvania ,3,0,40.0412227,-75.1237863
785,Overbrook,PA,Pennsylvania ,1,0,40.3842203,-79.9961442
786,Parkside,PA,Pennsylvania ,1,0,39.864279,-75.3785252
787,Penn Hills,PA,Pennsylvania ,4,0,40.4729398,-79.8176723
788,Philadelphia,PA,Pennsylvania ,189,11,39.952335,-75.163789
789,Philipsburg,PA,Pennsylvania ,1,1,40.0617403,-79.881158
790,Pittsburgh,PA,Pennsylvania ,24,6,40.4416941,-79.9900861
791,Port Vue,PA,Pennsylvania ,2,0,40.3359028,-79.8697707
792,Pottstown,PA,Pennsylvania ,2,0,40.2453741,-75.6496302
793,Pottsville,PA,Pennsylvania ,1,0,40.6859385,-76.1949411
794,Rankin,PA,Pennsylvania ,1,1,40.412569,-79.8792161
795,Reading,PA,Pennsylvania ,7,0,40.3364587,-75.9288612
796,Ross Township,PA,Pennsylvania ,3,0,40.520623,-80.00502430385642
797,Rouzerville,PA,Pennsylvania ,1,1,39.7367609,-77.5349906
798,Saltsburg,PA,Pennsylvania ,1,0,40.4864553,-79.4514299
799,Scranton,PA,Pennsylvania ,1,0,41.408969,-75.6624122
800,Sewickley,PA,Pennsylvania ,1,0,40.5364566,-80.1845031
801,Shaler,PA,Pennsylvania ,1,1,40.161289,-80.486165
802,Sharon,PA,Pennsylvania ,1,0,41.2331116,-80.4934035
803,Sheraden,PA,Pennsylvania ,1,0,40.4595132,-80.0772776
804,Shippensburg,PA,Pennsylvania ,1,0,40.0562262,-77.5139074
805,Somerset County,PA,Pennsylvania ,1,1,40.0035466,-79.04253900158992
806,South Abington,PA,Pennsylvania ,1,1,40.1206656,-75.1179512
807,South Huntingdon,PA,Pennsylvania ,1,0,39.997146,-78.241966
808,South Londonderry,PA,Pennsylvania ,1,0,40.2403764,-76.5372625
809,South Strabane,PA,Pennsylvania ,1,0,40.1384049,-80.163391
810,Springettsbury,PA,Pennsylvania ,1,0,39.9949864,-76.675922
811,St Thomas,PA,Pennsylvania ,1,0,39.9175908,-77.7977726
812,Summit,PA,Pennsylvania ,1,2,39.968421,-78.0227807
813,Swissvale,PA,Pennsylvania ,1,0,40.4236801,-79.8828275
814,Tacony,PA,Pennsylvania ,1,0,40.0312228,-75.0443386
815,Texas,PA,Pennsylvania ,1,0,41.5350719,-77.2527545
816,Torrance,PA,Pennsylvania ,3,0,40.4172913,-79.2228123
817,Uniontown,PA,Pennsylvania ,3,0,39.900076,-79.7164326
818,Upper Chichester,PA,Pennsylvania ,1,0,39.8571,-75.4592
819,Upper Darby,PA,Pennsylvania ,2,1,39.9284459,-75.2737955
820,Warwick,PA,Pennsylvania ,5,2,40.1623168,-76.3069013
821,Wernersville,PA,Pennsylvania ,1,0,40.3300924,-76.0804972
822,West Chester,PA,Pennsylvania ,2,1,39.960185,-75.6054709977898
823,West Manheim Township,PA,Pennsylvania ,1,0,40.1637359,-76.3952429
824,West York,PA,Pennsylvania ,1,0,39.9525985,-76.7513566
825,Westfield,PA,Pennsylvania ,4,1,41.9192368,-77.5388744
826,Wilkes-Barre,PA,Pennsylvania ,10,2,41.2464824,-75.8817316
827,Williamsport,PA,Pennsylvania ,5,0,41.2493292,-77.0027671
828,Williamstown,PA,Pennsylvania ,1,0,40.5800868,-76.617742
829,York,PA,Pennsylvania ,11,1,39.962398,-76.727392
830,York City,PA,Pennsylvania ,3,0,39.9543252,-76.7100642
831,Aliquippa,PA,Pennsylvania ,0,1,40.618174,-80.2510131448239
832,Coatesville,PA,Pennsylvania ,0,1,39.9831616,-75.8238355
833,Connellsville,PA,Pennsylvania ,0,1,40.0178522,-79.5894828
834,Feasterville,PA,Pennsylvania ,0,1,40.1514665,-74.98867493406071
835,Holly Hill,PA,Pennsylvania ,0,1,40.1626096,-74.838775
836,Lower Macungie,PA,Pennsylvania ,0,1,40.543813,-75.5319152
837,Lower Paxton Township ,PA,Pennsylvania ,0,1,40.3187547,-76.7862453
838,Muhlenberg,PA,Pennsylvania ,0,1,40.3831486,-75.9388201
839,Oil City,PA,Pennsylvania ,0,1,41.4339484,-79.7064413
840,Phillipsburg,PA,Pennsylvania ,0,1,40.6933994,-80.2820062
841,Simpson,PA,Pennsylvania ,0,1,41.8367297,-78.5880801
842,Tidioute,PA,Pennsylvania ,0,1,41.6850604,-79.4031034
843,Warminster,PA,Pennsylvania ,0,1,40.2067751,-75.0996159
844,Acworth,GA,Georgia ,2,1,34.0659329,-84.6768796
845,Adairsville,GA,Georgia ,1,1,34.3687021,-84.9341093
846,Aiken County,GA,Georgia ,1,0,33.6005783,-81.6035062
847,Alpharetta,GA,Georgia ,2,0,34.0709576,-84.2747329
848,Atlanta,GA,Georgia ,60,6,33.7490987,-84.3901849
849,Augusta,GA,Georgia ,14,3,33.4709714,-81.9748429
850,Austell,GA,Georgia ,2,1,33.8126059,-84.6343783
851,Baker County,GA,Georgia ,1,0,31.2638035,-84.49868355963181
852,Baxley,GA,Georgia ,1,0,31.7782514,-82.3484618
853,Bibb County,GA,Georgia ,1,0,32.8071935,-83.68659779666302
854,Blairsville,GA,Georgia ,1,2,34.8761989,-83.9582412
855,Bonaire,GA,Georgia ,1,0,32.5437575,-83.5960162
856,Brunswick,GA,Georgia ,3,0,31.1499528,-81.4914894
857,Cairo,GA,Georgia ,3,1,30.8774132,-84.2012897
858,Calhoun,GA,Georgia ,1,0,31.5040637,-84.4534229
859,Carnesville,GA,Georgia ,1,0,34.3698266,-83.235155
860,Cartersville,GA,Georgia ,2,0,34.180855,-84.7529170994188
861,Cascade,GA,Georgia ,2,0,34.906322,-85.205915
862,Catoosa County,GA,Georgia ,1,0,34.8776399,-85.1445279220676
863,Cedartown,GA,Georgia ,1,0,34.018554,-85.25593920522498
864,Cherokee County,GA,Georgia ,3,0,34.2428725,-84.4561937549523
865,Chickamauga,GA,Georgia ,1,0,34.871188,-85.2907896
866,Clarkesville,GA,Georgia ,1,0,34.6125971,-83.5248933
867,Claxton,GA,Georgia ,1,0,32.1615815,-81.9040047
868,Clayton County,GA,Georgia ,9,2,33.4362245,-84.3142675
869,Cobb,GA,Georgia ,1,1,33.9373948,-84.5732006
870,Cobb County,GA,Georgia ,2,1,33.915655,-84.581456285374
871,Cobb County ,GA,Georgia ,1,0,33.915655,-84.581456285374
872,Conley,GA,Georgia ,1,0,33.6358095,-84.3294395574209
873,Coweta County,GA,Georgia ,1,0,33.351366,-84.77989880271902
874,Crawford County,GA,Georgia ,1,0,32.695324,-83.9684883309027
875,Dacula,GA,Georgia ,1,1,33.9887165,-83.8979573
876,Dalton,GA,Georgia ,1,0,34.723883,-84.86855458466461
877,DeKalb County,GA,Georgia ,8,2,33.79274945,-84.22015371673109
878,Decatur,GA,Georgia ,10,0,33.7737582,-84.296069
879,Dekalb County,GA,Georgia ,3,0,33.79274945,-84.22015371673109
880,Donalsonville,GA,Georgia ,1,1,31.0404625,-84.8790911
881,East Point,GA,Georgia ,4,2,33.6795531,-84.4393724
882,Elbert County,GA,Georgia ,1,0,34.1106692,-82.6953123
883,Emerson,GA,Georgia ,1,0,30.7760298,-83.631827
884,Fitzgerald,GA,Georgia ,1,1,31.7149082,-83.2526545
885,Flowery Branch,GA,Georgia ,1,0,34.1851017,-83.9251809
886,Forest Park,GA,Georgia ,1,0,33.6220542,-84.3690918
887,Forsyth,GA,Georgia ,2,0,34.2484331,-83.9748056
888,Fulton County,GA,Georgia ,6,1,33.844221,-84.40353194571182
889,Gainesville,GA,Georgia ,6,2,34.2435175,-83.82786602191399
890,Glenwood,GA,Georgia ,2,0,33.9292825,-83.4026591
891,Griffin,GA,Georgia ,3,0,33.2467807,-84.2640904
892,Grovetown,GA,Georgia ,1,0,33.4504157,-82.1981764
893,Gwinnett,GA,Georgia ,3,1,33.9190653,-84.0167423
894,Gwinnett County,GA,Georgia ,4,1,33.95775315,-84.0424256042861
895,Hahira,GA,Georgia ,1,0,30.9913064,-83.3726575
896,Hapeville,GA,Georgia ,2,0,33.660109,-84.4102046
897,Hawkinsville,GA,Georgia ,1,1,32.2837731,-83.4721177
898,Henry County,GA,Georgia ,2,0,33.472561,-84.11966891492479
899,Homerville,GA,Georgia ,1,0,31.0365983,-82.7470849
900,Houston County,GA,Georgia ,2,0,32.487669,-83.6449357626543
901,Jefferson,GA,Georgia ,4,1,32.9140428,-82.3089137
902,Jones County,GA,Georgia ,1,0,33.013691,-83.55754716841298
903,Jonesboro,GA,Georgia ,4,0,33.5215013,-84.3538128
904,Lagrange,GA,Georgia ,1,0,33.036685,-85.0328815195532
905,Lanier County,GA,Georgia ,1,0,31.017897,-83.07873124642498
906,Laurens County,GA,Georgia ,1,1,32.431744,-82.9230607971245
907,Lilburn,GA,Georgia ,2,0,33.8901036,-84.1429719
908,Lithonia,GA,Georgia ,3,0,33.7123305,-84.1051939
909,Macon,GA,Georgia ,8,2,32.8406946,-83.6324022
910,Marietta,GA,Georgia ,5,5,33.952602,-84.5499327
911,McDonough,GA,Georgia ,2,0,33.4473361,-84.1468616
912,Milledgeville,GA,Georgia ,2,1,33.0801429,-83.2320991
913,Milton,GA,Georgia ,2,1,34.1321631,-84.300666
914,Moultrie,GA,Georgia ,3,0,31.1811523,-83.7878809
915,Norcross,GA,Georgia ,4,0,33.9412127,-84.2135309
916,Paulding County,GA,Georgia ,1,0,33.928394,-84.8866316388338
917,Pickens County,GA,Georgia ,1,0,34.4685,-84.48652908407401
918,Pike County,GA,Georgia ,3,3,33.0885545,-84.38285753596391
919,Pooler,GA,Georgia ,1,0,32.114441,-81.2197075172913
920,Richmond County,GA,Georgia ,3,0,33.277089,-81.8944597
921,Richmond Hill,GA,Georgia ,1,1,31.9382652,-81.3034433
922,Rincon,GA,Georgia ,1,0,32.2960289,-81.2353905
923,Ringgold,GA,Georgia ,1,0,34.91591,-85.1091173
924,Riverdale,GA,Georgia ,3,1,33.5726113,-84.4132594
925,Roberta,GA,Georgia ,1,0,32.7219973,-84.0130926
926,Rockdale County,GA,Georgia ,1,0,33.6564028,-84.01174753394301
927,Rockmart,GA,Georgia ,1,0,34.0026005,-85.0416133
928,Sandy Springs,GA,Georgia ,3,2,33.878567,-84.44331813636359
929,Sardis,GA,Georgia ,4,0,32.975157,-81.757613
930,Savannah,GA,Georgia ,16,3,32.017073,-81.2906160076233
931,Smyrna,GA,Georgia ,4,1,33.8839926,-84.5143761
932,Snellville,GA,Georgia ,1,0,33.857328,-84.0199108
933,St Marys,GA,Georgia ,3,0,30.7480875,-81.5210867270753
934,Statesboro,GA,Georgia ,1,0,32.420648,-81.775859
935,Stockbridge,GA,Georgia ,2,0,33.5442781,-84.2338093
936,Stone Mountain,GA,Georgia ,1,0,33.8081083,-84.1701957
937,Taylor County,GA,Georgia ,1,0,32.559534,-84.2450614621884
938,Thunderbolt,GA,Georgia ,1,1,32.0335445,-81.0498342
939,Tifton,GA,Georgia ,2,0,31.471498,-83.48387498085661
940,Toccoa,GA,Georgia ,1,3,34.5773206,-83.3323851
941,Valdosta,GA,Georgia ,1,0,30.8327022,-83.2784851
942,Villa Rica,GA,Georgia ,2,0,33.732052,-84.9191081
943,Walker County,GA,Georgia ,1,0,34.7857337,-85.32667628776571
944,Warner Robins,GA,Georgia ,6,0,32.57958945,-83.66805713140579
945,Waycross,GA,Georgia ,3,0,31.2135511,-82.3540178
946,Winder,GA,Georgia ,1,0,33.991042,-83.7183730117372
947,Woodbury,GA,Georgia ,1,1,32.9837394,-84.5827031
948,Woodstock,GA,Georgia ,3,1,34.1014873,-84.5193754
949,Ashburn,GA,Georgia ,0,2,31.7060134,-83.653224
950,Dawson,GA,Georgia ,0,1,34.4142624,-84.019254
951,East Atlanta,GA,Georgia ,0,1,33.753401,-84.3895025
952,Hinesville,GA,Georgia ,0,1,31.846877,-81.5959453
953,Lawrenceville,GA,Georgia ,0,1,33.9562149,-83.9879625
954,Newnan,GA,Georgia ,0,1,33.3806716,-84.7996573
955,Adams County,CO,Colorado ,3,2,39.8714085,-104.2701374
956,Alamosa,CO,Colorado ,2,0,37.467443,-105.86829610206
957,Aspen,CO,Colorado ,1,1,39.1984225,-106.840617433827
958,Aurora,CO,Colorado ,12,3,39.565936,-104.744371275362
959,Boulder,CO,Colorado ,3,0,40.0149856,-105.2705456
960,Cedaredge,CO,Colorado ,1,0,38.9016487,-107.926454
961,Colorado Springs,CO,Colorado ,22,4,38.8338816,-104.8213634
962,Crawford,CO,Colorado ,2,0,38.7038767,-107.6089466
963,Denver,CO,Colorado ,20,8,39.7391536,-104.9847034
964,Douglas County,CO,Colorado ,2,1,39.34801765,-104.917086672243
965,Durango,CO,Colorado ,1,0,37.2376805,-107.82228026819901
966,Edgewater,CO,Colorado ,1,0,39.754808,-105.066078
967,El Paso County,CO,Colorado ,1,1,38.8243655,-104.560228754984
968,Fountain,CO,Colorado ,1,0,38.72483515,-104.64514200604
969,Fruita,CO,Colorado ,1,0,39.1588697,-108.7289883
970,Ft Collins,CO,Colorado ,1,0,40.6159185,-105.07041114130399
971,Glenwood Springs,CO,Colorado ,1,0,39.53203,-107.32454076280099
972,Golden,CO,Colorado ,2,0,39.743396,-105.21480660775299
973,Grand Junction,CO,Colorado ,3,0,39.059542,-108.587185434739
974,Greenwood Village,CO,Colorado ,1,1,39.60959,-104.929576
975,Lakewood,CO,Colorado ,7,0,39.6310755,-105.11005819844699
976,Larimer County,CO,Colorado ,1,0,40.6286398,-105.446270317866
977,Littleton,CO,Colorado ,1,1,39.5413825,-105.10345981140499
978,Longmont,CO,Colorado ,4,4,40.1529745,-105.057968824598
979,Monte Vista,CO,Colorado ,1,0,37.5799013,-106.1485185
980,Montrose,CO,Colorado ,1,1,38.5128765,-107.923390697403
981,Monument,CO,Colorado ,1,0,39.04932405,-104.851419571497
982,Peyton,CO,Colorado ,1,2,39.0288809,-104.4830238
983,Pueblo,CO,Colorado ,3,0,38.2014515,-104.579887070135
984,Rye,CO,Colorado ,1,2,37.9236194,-104.9302662
985,Salada,CO,Colorado ,1,0,27.1699051,-98.09226310099541
986,Salida,CO,Colorado ,1,0,38.5227255,-106.018125024685
987,Security Widefield,CO,Colorado ,1,0,38.7064693,-104.708523867496
988,Security-Widefield,CO,Colorado ,1,0,38.7490101,-104.711951452246
989,Steamboat Springs,CO,Colorado ,1,0,40.484171,-106.82920806287001
990,Strasburg,CO,Colorado ,1,0,39.73121,-104.349278729191
991,Sugar City,CO,Colorado ,1,0,38.2319494,-103.6630011
992,Trinidad,CO,Colorado ,1,1,37.1798955,-104.48151479009
993,Westminster,CO,Colorado ,3,2,39.8936685,-105.072111818405
994,Woodland Park,CO,Colorado ,1,0,38.9938808,-105.0569301
995,Black Forest,CO,Colorado ,0,2,39.0140025,-104.7011409
996,Centennial,CO,Colorado ,0,1,39.567622,-104.978108652017
997,Cortez,CO,Colorado ,0,1,37.349559,-108.57116647834499
998,Eagle County,CO,Colorado ,0,1,39.63719,-106.64516704926599
999,Federal Heights,CO,Colorado ,0,1,39.86754425,-105.02002153860599
1000,Olney Springs,CO,Colorado ,0,1,38.1661162,-103.9446792
1001,Advance,MO,Missouri ,1,0,37.1044958,-89.9106494
1002,Affton,MO,Missouri ,1,0,38.5506084,-90.3331719
1003,Arnold,MO,Missouri ,1,0,38.4328317,-90.3776187
1004,Asbury,MO,Missouri ,1,1,37.2744997,-94.6055102
1005,Ashland,MO,Missouri ,1,0,38.7744802,-92.2571304
1006,Ballwin,MO,Missouri ,1,0,38.5950182,-90.5469133
1007,Bellefontaine Neighbors,MO,Missouri ,2,0,38.7403281,-90.2265001
1008,Branson,MO,Missouri ,1,2,36.6436797,-93.2185183
1009,Breckenridge,MO,Missouri ,1,0,39.7622337,-93.8043822
1010,Cape Girardeau,MO,Missouri ,6,1,37.3058839,-89.5181476
1011,Clay County,MO,Missouri ,3,2,39.3187409,-94.4046405
1012,Climax Springs,MO,Missouri ,1,1,38.1041971,-93.0501945
1013,Craig,MO,Missouri ,1,0,40.1947194,-95.3710903
1014,Dexter,MO,Missouri ,1,0,36.7958866,-89.9578688
1015,Edgar Springs,MO,Missouri ,1,0,37.7044863,-91.8665452
1016,Edina,MO,Missouri ,1,0,40.1675386,-92.1726821
1017,Eureka,MO,Missouri ,3,1,38.5025537,-90.6279044
1018,Fairdealing,MO,Missouri ,2,0,36.6628345,-90.616783
1019,Fairview Heights,MO,Missouri ,1,0,37.3886096,-79.138499
1020,Ferguson,MO,Missouri ,1,0,38.7442175,-90.3053915
1021,Festus,MO,Missouri ,1,0,38.2207112,-90.3959504
1022,Florissant,MO,Missouri ,2,0,38.789217,-90.322614
1023,Franklin County,MO,Missouri ,4,0,38.457697,-91.05245379057249
1024,French Village,MO,Missouri ,1,0,37.9725528,-90.3898452
1025,Gladstone,MO,Missouri ,1,0,39.2038918,-94.554677
1026,Glasgow Village,MO,Missouri ,1,0,38.753661,-90.1984434
1027,Hopkins,MO,Missouri ,1,0,40.5508222,-94.8194151
1028,Hyde Park,MO,Missouri ,1,0,38.66163075,-90.20198291625009
1029,Jefferson City,MO,Missouri ,2,0,38.5767026,-92.1735165
1030,Jennings,MO,Missouri ,2,1,38.719184,-90.2611199
1031,Joplin,MO,Missouri ,3,0,37.0710595,-94.46060608635591
1032,Kansas City,MO,Missouri ,109,14,39.0844687,-94.5630298
1033,Kinloch,MO,Missouri ,1,0,38.7406065,-90.3253922
1034,Kirkwood,MO,Missouri ,1,0,38.5833862,-90.406785
1035,Mineral Point,MO,Missouri ,1,0,37.9447722,-90.7242964
1036,Nixa,MO,Missouri ,1,0,37.0433863,-93.294353
1037,Noble,MO,Missouri ,2,0,36.7475599,-92.5698875
1038,Park Hills,MO,Missouri ,2,0,37.854218,-90.5181804
1039,Perryville,MO,Missouri ,1,1,37.7242202,-89.8612196
1040,Riverside,MO,Missouri ,10,0,38.2867212,-90.3801199
1041,Senath,MO,Missouri ,1,0,36.1342336,-90.1598183
1042,St Louis,MO,Missouri ,50,10,38.6272733,-90.1978889
1043,St Louis County,MO,Missouri ,1,0,46.818539,-92.094288
1044,St. Charles,MO,Missouri ,1,0,38.783194,-90.4823681
1045,St. Louis,MO,Missouri ,58,8,38.6272733,-90.1978889
1046,St. Louis County,MO,Missouri ,1,0,38.6388021,-90.5188674903196
1047,St.Louis,MO,Missouri ,1,0,38.6272733,-90.1978889
1048,Steelville,MO,Missouri ,1,0,37.9680999,-91.354868
1049,University City,MO,Missouri ,2,0,38.6558849,-90.3092813
1050,Versailles,MO,Missouri ,1,1,38.4314141,-92.8410274
1051,Warrensburg,MO,Missouri ,1,0,38.7627893,-93.7360498
1052,Webster Groves,MO,Missouri ,1,0,38.5864705,-90.35577873292709
1053,Wentzville,MO,Missouri ,1,1,38.81144,-90.8529107
1054,West Plains,MO,Missouri ,1,0,36.7281154,-91.8523711
1055,Willow Springs,MO,Missouri ,1,0,36.9922768,-91.9698742
1056,Cape Girardeau County,MO,Missouri ,0,1,37.3657435,-89.6451070254435
1057,Eolia,MO,Missouri ,0,1,39.2358794,-91.0081918
1058,Hannibal,MO,Missouri ,0,1,39.7083789,-91.3584816
1059,Knob Noster,MO,Missouri ,0,1,38.7666798,-93.5585458
1060,O'Fallon,MO,Missouri ,0,1,38.8106075,-90.6998477
1061,Raymore,MO,Missouri ,0,1,38.801953,-94.4527294
1062,Rogersville,MO,Missouri ,0,1,37.1169951,-93.0557343
1063,Sarcoxie,MO,Missouri ,0,1,37.0692266,-94.1166043
1064,Sikeston,MO,Missouri ,0,3,36.876719,-89.5878579
1065,St. Robert,MO,Missouri ,0,1,37.8280961,-92.1776664
1066,Afton,VA,Virginia ,1,0,38.0323598,-78.839189
1067,Alexandria,VA,Virginia ,4,0,38.81474785,-77.0902443767923
1068,Alleghany Co.,VA,Virginia ,1,0,37.7805575,-80.0308987256353
1069,Alleghany County,VA,Virginia ,1,1,37.7805575,-80.0308987256353
1070,Bassett,VA,Virginia ,2,1,36.7593037,-79.9903195
1071,Bedford County,VA,Virginia ,1,0,37.3150005,-79.56432795346721
1072,Boones Mill,VA,Virginia ,1,1,37.1168053,-79.9553136
1073,Campbell County,VA,Virginia ,1,1,37.2287445,-79.09810284662942
1074,Chantilly,VA,Virginia ,2,1,38.8943792,-77.4305118
1075,Charlottesville,VA,Virginia ,2,0,38.029306,-78.4766781
1076,Chesapeake,VA,Virginia ,4,3,36.8190369,-76.2749399
1077,Chesterfield,VA,Virginia ,5,4,37.2148597,-79.9839263
1078,Chesterfield County,VA,Virginia ,3,0,37.3859982,-77.578509
1079,Christiansburg,VA,Virginia ,1,0,37.1298517,-80.4089389
1080,Colonial Heights,VA,Virginia ,1,0,37.244039,-77.4102607
1081,Danville,VA,Virginia ,9,2,36.5859718,-79.3950228
1082,Dinwiddie,VA,Virginia ,2,0,37.0779278,-77.586655
1083,Dinwiddie County,VA,Virginia ,1,0,37.0727045,-77.64801641718729
1084,Ettrick,VA,Virginia ,1,0,37.244418,-77.42919869099009
1085,Falls Church,VA,Virginia ,2,1,38.882334,-77.1710914
1086,Farmville,VA,Virginia ,1,0,37.3020966,-78.3919403
1087,Fluvanna,VA,Virginia ,1,0,37.8488527,-78.2789994
1088,Fredericksburg,VA,Virginia ,2,0,38.3031837,-77.4605399
1089,Gladys,VA,Virginia ,1,0,37.1631988,-79.0736301
1090,Goochland,VA,Virginia ,1,0,37.6843129,-77.885274
1091,Goochland County,VA,Virginia ,1,0,37.7355915,-77.9711432933034
1092,Hampton,VA,Virginia ,15,4,37.0298687,-76.3452218
1093,Harrisonburg,VA,Virginia ,1,0,38.4440835,-78.8719367
1094,Henrico,VA,Virginia ,3,0,37.5455191,-77.4234124
1095,Henrico County,VA,Virginia ,2,1,37.5455191,-77.4234124
1096,Herndon,VA,Virginia ,3,1,38.9695316,-77.3859479
1097,Hopewell,VA,Virginia ,3,2,37.3043154,-77.2872001
1098,Isle of Wight,VA,Virginia ,2,0,36.8953677,-76.7248143
1099,Jarratt,VA,Virginia ,1,0,36.8143161,-77.468313
1100,King and Queen County,VA,Virginia ,1,1,37.7196754,-76.8794158
1101,Lake Ridge,VA,Virginia ,1,0,38.687894,-77.2977618
1102,Lynchburg,VA,Virginia ,1,1,37.4137536,-79.1422464
1103,Machipongo,VA,Virginia ,1,0,37.4059695,-75.9015974
1104,Manassas,VA,Virginia ,1,0,38.7509488,-77.4752667
1105,Martinsville,VA,Virginia ,2,0,36.6915262,-79.8725386
1106,Midlothian,VA,Virginia ,1,0,37.5059815,-77.6491579
1107,Millboro,VA,Virginia ,1,0,37.975128,-79.6028226
1108,Newport News,VA,Virginia ,11,1,36.9787588,-76.428003
1109,Norfolk,VA,Virginia ,19,0,36.8468146,-76.2852183
1110,Parksley,VA,Virginia ,1,0,37.7820754,-75.6535446
1111,Pearisburg,VA,Virginia ,1,0,37.3265112,-80.7350712
1112,Penhook,VA,Virginia ,1,1,36.9823655,-79.6280848
1113,Petersburg,VA,Virginia ,5,0,37.227928,-77.4019268
1114,Pittsylvania County,VA,Virginia ,1,0,36.83911675,-79.3952175896372
1115,Portsmouth,VA,Virginia ,7,0,36.8354258,-76.2982742
1116,Pratts,VA,Virginia ,1,0,38.3476292,-78.2700042
1117,Prospect,VA,Virginia ,2,0,37.3029279,-78.5591661
1118,Quantico,VA,Virginia ,3,1,38.5228285,-77.29016705117981
1119,Reston,VA,Virginia ,1,0,38.9584435,-77.3582532
1120,Richmond,VA,Virginia ,55,2,37.541239,-77.4420183
1121,Roanoke,VA,Virginia ,12,2,37.270973,-79.9414313
1122,Russell County,VA,Virginia ,1,0,36.9268515,-82.0730055923591
1123,Smithfield,VA,Virginia ,3,0,36.9823709,-76.6310661
1124,Spotsylvania ,VA,Virginia ,1,0,38.200965,-77.589154
1125,Stafford,VA,Virginia ,4,1,38.4167265,-77.4579783
1126,Staunton,VA,Virginia ,1,0,38.149576,-79.0716958
1127,Stephens City,VA,Virginia ,2,0,39.0834398,-78.2180567
1128,Sterling,VA,Virginia ,3,1,39.0016194,-77.4032011
1129,Suffolk,VA,Virginia ,6,3,36.7282096,-76.5835703
1130,Sussex,VA,Virginia ,1,0,36.9096897,-77.2741121
1131,Sussex County,VA,Virginia ,1,0,36.9076065,-77.2957550092011
1132,Vienna,VA,Virginia ,1,0,38.9013013,-77.2651585
1133,Virginia Beach,VA,Virginia ,16,1,36.7956695,-76.05105148319218
1134,Woodbridge,VA,Virginia ,2,1,38.6581723,-77.2497049
1135,Yorktown,VA,Virginia ,1,0,37.2387577,-76.5096706
1136,hampton,VA,Virginia ,1,0,37.0298687,-76.3452218
1137,Botetourt,VA,Virginia ,0,1,37.5520825,-79.8029569
1138,Botetourt County,VA,Virginia ,0,1,37.5554865,-79.7545992459847
1139,Craig County,VA,Virginia ,0,1,37.489433,-80.1868178994127
1140,Crozet,VA,Virginia ,0,1,38.0695816,-78.7005751
1141,Dumfries,VA,Virginia ,0,1,38.5676202,-77.3280382
1142,King's Fork,VA,Virginia ,0,1,36.7801495,-76.6246752
1143,Loudoun County,VA,Virginia ,0,1,39.0853441,-77.66528861695379
1144,Yorktown ,VA,Virginia ,0,1,37.2387577,-76.5096706
1145,Ahwatukee,AZ,Arizona ,1,0,33.3417137,-111.984033
1146,Apache Junction,AZ,Arizona ,1,0,33.4150551,-111.5495868
1147,Avondale,AZ,Arizona ,7,0,33.4359181,-112.3405052
1148,Buckeye,AZ,Arizona ,2,0,33.426213,-112.550047978235
1149,Bullhead City,AZ,Arizona ,1,0,35.1230335,-114.54025319111601
1150,Casa Grande,AZ,Arizona ,1,2,32.8870615,-111.736270547739
1151,Cochise County,AZ,Arizona ,3,0,31.88086475,-109.74779832944999
1152,Dolan Springs,AZ,Arizona ,2,0,35.598353,-114.275650603419
1153,Gilbert,AZ,Arizona ,2,0,33.295215,-111.73793883628201
1154,Goodyear,AZ,Arizona ,1,0,33.435533,-112.3579609
1155,Kingman,AZ,Arizona ,2,0,35.23069,-113.99925610469299
1156,Laveen,AZ,Arizona ,1,1,33.3628228,-112.169317
1157,Maryvale,AZ,Arizona ,1,0,33.5019864,-112.1776524
1158,Mayer,AZ,Arizona ,1,1,34.4263595,-112.236720379163
1159,Mesa,AZ,Arizona ,10,4,33.436568,-111.586066539042
1160,Mohave Valley,AZ,Arizona ,1,1,34.9426755,-114.595720917011
1161,Oro Valley,AZ,Arizona ,2,1,32.3909071,-110.966488
1162,Palominas,AZ,Arizona ,1,0,31.3798232,-110.1184106
1163,Payson,AZ,Arizona ,1,0,34.2444085,-111.321310355711
1164,Peoria,AZ,Arizona ,12,4,33.5766205,-112.2398262
1165,Phoenix,AZ,Arizona ,84,16,33.361168,-112.121302167105
1166,Pinion,AZ,Arizona ,2,0,34.4613021,-114.3294255
1167,Prescott,AZ,Arizona ,1,0,34.5400242,-112.4685025
1168,Prescott Valley,AZ,Arizona ,2,0,34.6100243,-112.315721
1169,Red Rock,AZ,Arizona ,1,1,33.9600405,-111.4448576
1170,Sahuarita,AZ,Arizona ,1,0,31.929196,-110.976005859471
1171,Scottsdale,AZ,Arizona ,5,0,33.67421685,-111.856984035208
1172,Seligman,AZ,Arizona ,1,0,35.325492,-112.850903093832
1173,South Tucson,AZ,Arizona ,1,0,32.199521,-110.968425
1174,Sun Lakes,AZ,Arizona ,1,1,33.214802,-111.849762525559
1175,Surprise,AZ,Arizona ,1,0,33.6305938,-112.333216
1176,Tempe,AZ,Arizona ,4,0,33.4215792,-111.93264006500799
1177,Tolleson,AZ,Arizona ,1,0,33.4500497,-112.2593093
1178,Tucson,AZ,Arizona ,39,3,32.2217429,-110.926479
1179,Tuscon,AZ,Arizona ,2,0,32.11204655,-110.93472143826
1180,Whippoorwill,AZ,Arizona ,1,0,36.0211141,-110.1126224
1181,Wickenburg,AZ,Arizona ,1,0,33.9664865,-112.758793208041
1182,Youngtown,AZ,Arizona ,3,1,33.5939281,-112.3029362
1183,Yuma,AZ,Arizona ,6,1,32.7253249,-114.624397
1184,Rainbow Valley,AZ,Arizona ,0,1,33.2319897,-112.3871008
1185,Sun City,AZ,Arizona ,0,1,33.6290117,-112.2819368
1186,Akron,OH,Ohio ,14,2,41.0814447,-81.5190053
1187,Alliance,OH,Ohio ,1,1,40.9153362,-81.1059309
1188,Ashtabula,OH,Ohio ,1,0,41.8650534,-80.7898089
1189,Ashtabula County,OH,Ohio ,1,0,41.7167229,-80.74947
1190,Athens County,OH,Ohio ,1,0,39.3231286,-82.0954219
1191,Atwater,OH,Ohio ,3,1,41.0239467,-81.163433
1192,Avon,OH,Ohio ,1,0,41.4517093,-82.0354225
1193,Barberton,OH,Ohio ,1,1,41.012833,-81.6051221
1194,Barberton ,OH,Ohio ,1,0,41.012833,-81.6051221
1195,Beavercreek,OH,Ohio ,1,0,39.771741,-84.0708363675497
1196,Brook Park,OH,Ohio ,1,0,41.3983838,-81.8045788
1197,Brown County,OH,Ohio ,2,2,38.9092542,-83.8836555
1198,Cambridge,OH,Ohio ,3,0,40.031183,-81.5884561
1199,Canton,OH,Ohio ,10,3,40.7989522,-81.3784445
1200,Carey,OH,Ohio ,1,1,40.9525551,-83.3824238
1201,Celina,OH,Ohio ,1,0,40.5489358,-84.5702338
1202,Chester,OH,Ohio ,18,2,39.0875777,-81.9226372
1203,Cincinnati,OH,Ohio ,43,4,39.1014537,-84.5124602
1204,Clark County,OH,Ohio ,2,1,39.9229676,-83.7905959
1205,Cleveland,OH,Ohio ,69,14,41.4871888,-81.6778691
1206,Colerain Township,OH,Ohio ,3,1,39.25825255,-84.6330661678433
1207,College Hill,OH,Ohio ,1,0,40.0409054,-81.6476246
1208,Columbus,OH,Ohio ,104,12,39.9622601,-83.0007065
1209,Coshocton,OH,Ohio ,1,0,40.2720151,-81.8595757
1210,Coshocton County,OH,Ohio ,2,0,40.2905684,-81.9271441
1211,Crown City,OH,Ohio ,1,0,38.5909166,-82.2829266
1212,Dayton,OH,Ohio ,27,7,39.7589478,-84.1916069
1213,East Cleveland,OH,Ohio ,1,0,41.5331066,-81.5790137
1214,Edison,OH,Ohio ,1,0,40.5575598,-82.862403
1215,Elyria,OH,Ohio ,2,0,41.3683798,-82.1076486
1216,Euclid,OH,Ohio ,1,0,41.5931049,-81.5267873
1217,Evanston,OH,Ohio ,7,0,39.1445039,-84.4693865
1218,Fairborn,OH,Ohio ,2,0,39.8066035,-84.01005793697479
1219,Fairfax,OH,Ohio ,1,0,39.1453377,-84.3932734
1220,Findlay,OH,Ohio ,2,0,41.0442201,-83.6499321
1221,Gahanna,OH,Ohio ,2,0,40.019468,-82.8790706
1222,Gallia County,OH,Ohio ,1,0,38.7952465,-82.3556216
1223,Georgetown,OH,Ohio ,1,0,38.8645138,-83.9040944
1224,Glouster,OH,Ohio ,1,0,39.503126,-82.0845892
1225,Granger,OH,Ohio ,1,0,41.1556099,-81.7317959
1226,Hamilton,OH,Ohio ,6,0,39.3995067,-84.5613428
1227,Hartwell,OH,Ohio ,1,0,39.2133917,-84.4685536
1228,Hebron,OH,Ohio ,1,0,39.9617305,-82.4912676
1229,Huber Heights,OH,Ohio ,1,0,39.858753,-84.11142904479121
1230,Ironton,OH,Ohio ,2,0,38.5367471,-82.6829406
1231,Jersey Township,OH,Ohio ,1,0,40.08599765,-82.7035446305574
1232,Kennedy Heights,OH,Ohio ,1,0,39.1856147,-84.408274
1233,Lima,OH,Ohio ,2,1,40.742551,-84.1052256
1234,Lincoln Heights,OH,Ohio ,2,0,39.2389469,-84.4554979
1235,Lisbon,OH,Ohio ,2,0,40.7720044,-80.7681336
1236,Logan,OH,Ohio ,1,1,40.4430521,-83.7414465
1237,Lorain,OH,Ohio ,3,2,41.452819,-82.1823746
1238,Madisonville,OH,Ohio ,1,1,39.1573886,-84.3903684
1239,Maple Heights,OH,Ohio ,2,0,41.4153313,-81.565956
1240,Marengo,OH,Ohio ,1,0,40.4008945,-82.8107329
1241,Massillon,OH,Ohio ,1,0,40.7967244,-81.5215093
1242,Maumee,OH,Ohio ,1,0,41.5628294,-83.6538244
1243,Middlefield,OH,Ohio ,1,0,41.4619986,-81.0737079
1244,Minerva Park,OH,Ohio ,1,0,40.0764526,-82.9437921
1245,Mount Airy,OH,Ohio ,1,0,39.191447,-84.5702225
1246,Mount Orab,OH,Ohio ,1,0,39.0275659,-83.919652
1247,Mount Vernon,OH,Ohio ,3,2,40.3933956,-82.4857181
1248,Mt. Airy,OH,Ohio ,1,0,39.191447,-84.5702225
1249,Muskingum County,OH,Ohio ,1,0,40.0064162,-81.9984697
1250,New Bavaria,OH,Ohio ,1,1,41.2036599,-84.1682781
1251,New Straitsville,OH,Ohio ,1,1,39.577847,-82.2376489
1252,Niles,OH,Ohio ,1,0,41.1828353,-80.765358
1253,Oakley,OH,Ohio ,3,1,39.1536707,-84.424941
1254,Orient,OH,Ohio ,2,1,39.8028398,-83.1518555
1255,Ostrander,OH,Ohio ,1,1,40.266172,-83.2126932
1256,Ottawa,OH,Ohio ,2,0,41.0192185,-84.0471666
1257,Painesville,OH,Ohio ,1,0,41.7244885,-81.245657
1258,Piqua,OH,Ohio ,1,0,40.1447732,-84.2424449
1259,Pittsfield,OH,Ohio ,2,0,41.2369967,-82.2190461
1260,Powell,OH,Ohio ,1,0,40.1578403,-83.0751869
1261,Ravenna,OH,Ohio ,1,0,41.1575566,-81.2420473
1262,Reynoldsburg,OH,Ohio ,1,0,39.9547861,-82.8121191
1263,Rocky River,OH,Ohio ,1,0,41.4756031,-81.8393034
1264,Roselawn,OH,Ohio ,1,0,39.1950587,-84.4624422
1265,Solon,OH,Ohio ,1,0,41.3897764,-81.4412259
1266,South Linden,OH,Ohio ,1,0,40.0406197,-82.9607371
1267,Springfield TWP,OH,Ohio ,1,0,39.20799135,-84.4834699673392
1268,Springfield Township,OH,Ohio ,1,0,39.1998095,-84.4666503498146
1269,Springfield Twp,OH,Ohio ,1,0,39.20799135,-84.4834699673392
1270,Steubenville,OH,Ohio ,3,0,40.3697905,-80.6339638
1271,Summit County,OH,Ohio ,1,1,41.1457902,-81.5333603
1272,Tiffin,OH,Ohio ,1,0,41.1144992,-83.1779747
1273,Toledo,OH,Ohio ,23,5,41.6786754,-83.5127283
1274,Trotwood,OH,Ohio ,2,0,39.7972788,-84.3113334
1275,Warren,OH,Ohio ,3,1,41.2375569,-80.8184166
1276,West Carrollton,OH,Ohio ,1,0,40.5728404,-81.0856532
1277,West Toledo,OH,Ohio ,1,0,41.6915318,-83.5582751
1278,Westerville,OH,Ohio ,1,0,40.1261743,-82.9290696
1279,Westwood,OH,Ohio ,1,0,40.7814457,-81.9598667
1280,Whitehall,OH,Ohio ,1,0,39.9667308,-82.8854559
1281,Willard,OH,Ohio ,1,1,41.0531134,-82.7262958
1282,Woodlawn,OH,Ohio ,2,0,39.2520022,-84.4702206
1283,Yellow Springs,OH,Ohio ,1,0,39.8045432,-83.8925234
1284,Youngstown,OH,Ohio ,7,1,41.0997803,-80.6495194
1285,Zanesville,OH,Ohio ,1,0,39.9403453,-82.0131924
1286,Fostoria,OH,Ohio ,0,1,41.156998,-83.4168702
1287,Irondale,OH,Ohio ,0,1,40.5717306,-80.7264665
1288,Masury,OH,Ohio ,0,1,41.2111676,-80.5378495
1289,Miami Twp,OH,Ohio ,0,1,39.159101,-84.7386535070222
1290,Norwood,OH,Ohio ,0,1,39.1556149,-84.4596641
1291,Oak Harbor,OH,Ohio ,0,1,41.5067173,-83.1465875
1292,Pataskala,OH,Ohio ,0,1,39.9956193,-82.6743341
1293,Ross County,OH,Ohio ,0,1,39.3455507,-83.077359
1294,Van Wert,OH,Ohio ,0,1,40.8014651,-84.600988
1295,Winton Terrace,OH,Ohio ,0,1,39.1822808,-84.5118878
1296,Wooster,OH,Ohio ,0,1,40.8050565,-81.935143
1297,Alamance County,NC,North Carolina ,1,0,36.0431402,-79.4075384
1298,Albemarle,NC,North Carolina ,1,0,35.3501426,-80.2000578
1299,Angier,NC,North Carolina ,2,0,35.5071045,-78.7391813
1300,Anson County,NC,North Carolina ,1,0,34.9705848,-80.0958187
1301,Arden,NC,North Carolina ,1,1,35.4662258,-82.51651
1302,Asheville,NC,North Carolina ,11,3,35.6009498,-82.5540161
1303,Bessemer City,NC,North Carolina ,1,0,35.2848579,-81.28397
1304,Beulaville,NC,North Carolina ,1,0,34.9237763,-77.7738667
1305,Boger City,NC,North Carolina ,1,0,35.4806895,-81.2134133
1306,Cabarrus County,NC,North Carolina ,1,0,35.3568086,-80.4277412
1307,Caldwell County,NC,North Carolina ,2,0,35.687914,-81.2020823560741
1308,Cameron,NC,North Carolina ,1,0,35.3268226,-79.255303
1309,Candler,NC,North Carolina ,2,0,35.536498,-82.692907
1310,Carolina Beach,NC,North Carolina ,1,0,34.0351727,-77.8935966
1311,Carrboro,NC,North Carolina ,1,0,35.9101438,-79.0752895
1312,Catawba,NC,North Carolina ,1,1,35.5868015,-80.9594203
1313,Chadbourn,NC,North Carolina ,1,0,34.3221129,-78.8269664
1314,Charlotte,NC,North Carolina ,47,5,35.3314525,-80.9398554230769
1315,Charlotte-Mecklenburg,NC,North Carolina ,2,0,35.2270869,-80.8431268
1316,Clayton,NC,North Carolina ,2,0,35.650711,-78.4563914
1317,Clemmons,NC,North Carolina ,1,1,36.0215258,-80.3819984
1318,Colington,NC,North Carolina ,2,0,36.0079445,-75.7015657
1319,Concord,NC,North Carolina ,5,1,35.4087517,-80.579511
1320,Dobson,NC,North Carolina ,1,0,36.3956891,-80.722567
1321,Durham,NC,North Carolina ,28,2,35.9940329,-78.898619
1322,Elizabeth City,NC,North Carolina ,2,0,36.2946008,-76.2510461
1323,Fairmont,NC,North Carolina ,4,0,34.4968311,-79.114202
1324,Fayetteville,NC,North Carolina ,28,6,35.0529931,-78.8787058
1325,Forest Hills,NC,North Carolina ,1,0,35.6809727,-80.4753371
1326,Fort Bragg,NC,North Carolina ,1,0,35.15383385,-79.13364761962099
1327,Fuquay-Varina,NC,North Carolina ,1,0,35.5843235,-78.8000128
1328,Garner,NC,North Carolina ,2,3,35.7112642,-78.6141709
1329,Garysburg,NC,North Carolina ,1,0,36.450985,-77.5588661
1330,Gastonia,NC,North Carolina ,2,1,35.262082,-81.1873005
1331,Gibsonville,NC,North Carolina ,1,0,36.105691,-79.5422462
1332,Goldsboro,NC,North Carolina ,5,0,35.3848841,-77.9927651
1333,Greensboro,NC,North Carolina ,14,7,36.0726355,-79.7919754
1334,Henderson,NC,North Carolina ,7,3,36.3295905,-78.3991638
1335,Hickory,NC,North Carolina ,3,0,35.7331895,-81.3412006
1336,High Point,NC,North Carolina ,2,1,35.9556924,-80.0053176
1337,Hoke County,NC,North Carolina ,1,0,35.0271856,-79.2432785
1338,Hubert,NC,North Carolina ,1,0,34.7137729,-77.2452328
1339,Jacksonville,NC,North Carolina ,74,15,34.7540524,-77.4302415
1340,Johnston County,NC,North Carolina ,1,0,35.5285816,-78.3768021
1341,Kinston,NC,North Carolina ,3,0,35.2626635,-77.5816353
1342,Knightdale,NC,North Carolina ,1,1,35.7878975,-78.4822938
1343,Laurinburg,NC,North Carolina ,1,1,34.7740495,-79.4628248
1344,Lee County,NC,North Carolina ,3,0,35.4579333,-79.0529768
1345,Leicester,NC,North Carolina ,2,1,35.6551074,-82.6962438
1346,Lenoir County,NC,North Carolina ,2,1,35.2590371,-77.6484879
1347,Lillington,NC,North Carolina ,2,0,35.399327,-78.8158528
1348,Louisburg,NC,North Carolina ,1,2,36.0990393,-78.301106
1349,Lumberton,NC,North Carolina ,11,3,34.6182199,-79.0086425
1350,Manteo,NC,North Carolina ,1,0,35.9082257,-75.6757303
1351,Marshall,NC,North Carolina ,1,2,35.7973284,-82.6840252
1352,Matthews,NC,North Carolina ,2,0,35.1168131,-80.7236804
1353,Maxton,NC,North Carolina ,1,0,34.7351615,-79.3489317
1354,Mollie,NC,North Carolina ,1,0,34.151281,-78.7405736
1355,Mooresboro,NC,North Carolina ,1,0,35.2987362,-81.6989863
1356,Morganton,NC,North Carolina ,1,0,35.7454071,-81.6848188
1357,Mount Holly,NC,North Carolina ,2,0,35.2981943,-81.0159081
1358,Mt. Olive,NC,North Carolina ,1,1,35.1965532,-78.0663788
1359,New Bern,NC,North Carolina ,1,0,35.1084931,-77.0441143
1360,New Hanover County,NC,North Carolina ,1,0,34.224045,-77.8854204376062
1361,North Wilkesboro,NC,North Carolina ,1,0,36.1584651,-81.1475841
1362,Northampton,NC,North Carolina ,1,0,36.4168078,-77.3642227
1363,Parkton,NC,North Carolina ,1,0,34.9026635,-79.0116971
1364,Pfafftown,NC,North Carolina ,1,0,36.1526379,-80.3622753
1365,Pinetown,NC,North Carolina ,1,0,35.6104408,-76.8613327
1366,Raeford,NC,North Carolina ,1,0,34.9809996,-79.2241998
1367,Raleigh,NC,North Carolina ,9,2,35.7803888,-78.6390587
1368,Reaford,NC,North Carolina ,1,0,36.086735,-80.375444
1369,Reidsville,NC,North Carolina ,1,0,36.3548586,-79.6644748
1370,Roanoke Island,NC,North Carolina ,1,0,35.8826713,-75.6554512
1371,Roanoke Rapids,NC,North Carolina ,1,0,36.4615395,-77.6541464
1372,Robeson County,NC,North Carolina ,1,0,34.6485079,-79.0954942
1373,Rockingham,NC,North Carolina ,1,0,36.3926798,-79.744144
1374,Rocky Mount,NC,North Carolina ,1,2,35.9382104,-77.7905341
1375,Rural Hall,NC,North Carolina ,1,0,36.2404158,-80.2933838
1376,Rutherford County,NC,North Carolina ,1,0,35.393858,-81.9129139976011
1377,Rutherfordton,NC,North Carolina ,1,1,35.3692877,-81.9567716
1378,Scotland County,NC,North Carolina ,1,1,34.834591,-79.48619214313379
1379,Shannon,NC,North Carolina ,1,0,34.8479415,-79.1369782
1380,Shelby,NC,North Carolina ,1,1,35.2923513,-81.5356463
1381,Southern Pines,NC,North Carolina ,4,0,35.1740471,-79.3922539
1382,Spindale,NC,North Carolina ,1,0,35.3601212,-81.929271
1383,Steele Creek,NC,North Carolina ,1,0,35.1134161,-80.9522949
1384,Swansboro,NC,North Carolina ,1,0,34.6876621,-77.1191166
1385,Swift Creek,NC,North Carolina ,1,0,35.5031037,-78.3794196
1386,Tabor,NC,North Carolina ,1,0,36.1190265,-80.3194962
1387,Tabor City,NC,North Carolina ,4,1,34.1487804,-78.8766916
1388,Thomasville,NC,North Carolina ,2,0,35.8826369,-80.0819879
1389,Transylvania County,NC,North Carolina ,1,0,35.1434499,-82.6428035
1390,Trent Woods,NC,North Carolina ,1,0,35.0821039,-77.0863383
1391,Turkey,NC,North Carolina ,1,1,34.9923888,-78.183049
1392,Union County,NC,North Carolina ,1,0,34.9795158,-80.5128209
1393,Vass,NC,North Carolina ,1,0,35.2562684,-79.2822491
1394,Wadesboro,NC,North Carolina ,2,0,34.9682097,-80.0767266
1395,Wake County,NC,North Carolina ,2,1,35.8243208,-78.3146199
1396,Wake Forest,NC,North Carolina ,1,0,35.9798734,-78.5097228
1397,Walstonburg,NC,North Carolina ,1,0,35.5946041,-77.6969203
1398,Warrenton,NC,North Carolina ,2,0,36.3984804,-78.1552706
1399,Wendell,NC,North Carolina ,1,0,35.780987,-78.3697213
1400,Whiteville,NC,North Carolina ,1,1,34.3387802,-78.7030721
1401,Wilson,NC,North Carolina ,2,0,35.7212689,-77.9155395
1402,Wingate,NC,North Carolina ,2,0,34.9843176,-80.4492319
1403,Winston-Salem,NC,North Carolina ,14,2,36.0998596,-80.244216
1404,Wrightsboro,NC,North Carolina ,1,0,34.2885025,-77.9210983
1405,salisbury,NC,North Carolina ,1,0,35.6709727,-80.4742261
1406,Alexander,NC,North Carolina ,0,1,35.924738,-81.1716315
1407,Anson county,NC,North Carolina ,0,1,34.9705848,-80.0958187
1408,Asheboro,NC,North Carolina ,0,1,35.7079146,-79.8136446
1409,Cherokee,NC,North Carolina ,0,1,35.2470348,-83.7031269
1410,Cumberland County,NC,North Carolina ,0,1,35.0461723,-78.8394255
1411,Edgecombe County,NC,North Carolina ,0,1,35.8607136,-77.3862562
1412,Halifax County,NC,North Carolina ,0,1,36.2494056,-77.66834
1413,Haywood County,NC,North Carolina ,0,1,35.5456202,-82.9907823
1414,Lincolnton,NC,North Carolina ,0,1,35.473745,-81.2545251
1415,Nash County,NC,North Carolina ,0,1,35.913166,-77.57809644791669
1416,Randolph County ,NC,North Carolina ,0,1,35.7142874,-79.7975166
1417,Red Springs,NC,North Carolina ,0,2,34.8151633,-79.183091
1418,Woodfin,NC,North Carolina ,0,1,35.633444,-82.5820725
1419,Albany,NY,New York ,10,1,42.6511674,-73.754968
1420,Amherst,NY,New York ,1,1,42.9783924,-78.7997616
1421,Bath,NY,New York ,1,0,42.3370164,-77.3177577
1422,Bay Shore,NY,New York ,1,0,40.7250986,-73.2453946
1423,Binghamton,NY,New York ,2,0,42.0986867,-75.9179738
1424,Bovina,NY,New York ,1,0,42.2695295,-74.726823
1425,Brewster,NY,New York ,1,0,41.3973335,-73.6171915
1426,Brighton,NY,New York ,3,0,42.9911685,-78.8369796
1427,Bronx,NY,New York ,41,3,40.8501002,-73.8662464
1428,Brooklyn,NY,New York ,75,6,40.6501038,-73.9495823
1429,Brooklyn ,NY,New York ,1,0,40.6501038,-73.9495823
1430,Brownsville,NY,New York ,3,0,43.0117299,-77.3663775
1431,Brownville,NY,New York ,1,0,41.7998155,-74.3807086
1432,Buffalo,NY,New York ,32,3,42.8864468,-78.8783689
1433,Carmel,NY,New York ,1,0,41.4266361,-73.6788272
1434,Central Islip,NY,New York ,1,0,40.7906538,-73.2017811
1435,Cornwall,NY,New York ,1,2,40.7911785,-73.97481894338759
1436,Cragsmoor,NY,New York ,1,0,41.6734269,-74.3854321
1437,DeRuyter,NY,New York ,1,1,42.7584005,-75.8843616
1438,Deerpark,NY,New York ,1,0,41.4250435,-74.6694090900104
1439,East Fishkill,NY,New York ,1,0,41.5533306,-73.7956214
1440,Eastport,NY,New York ,1,0,40.844395,-72.7199475986933
1441,Elmont,NY,New York ,1,1,40.700936,-73.712909
1442,Enfield,NY,New York ,1,0,42.435906,-76.6313356
1443,Flanders,NY,New York ,1,0,40.9034328,-72.6175936
1444,Fort Ann,NY,New York ,1,0,43.4142375,-73.4876124
1445,Geneva,NY,New York ,2,0,42.8689552,-76.9777436
1446,Granville,NY,New York ,1,0,43.4078495,-73.259553
1447,Greenburgh,NY,New York ,1,0,41.004542,-73.8087442
1448,Harlem,NY,New York ,1,0,40.8078786,-73.9454154
1449,Hempstead,NY,New York ,3,1,40.7062128,-73.6187397
1450,Herkimer,NY,New York ,3,0,43.4911326,-74.9481252
1451,Hoosick,NY,New York ,1,0,42.8625783,-73.3281661
1452,Huntington Station,NY,New York ,1,0,40.8534318,-73.4115091
1453,Hurleyville,NY,New York ,1,0,41.735646,-74.6743277
1454,Islip,NY,New York ,2,0,40.7298207,-73.2103934
1455,Lackawanna,NY,New York ,1,0,42.81909095,-78.8337177547016
1456,Long Island,NY,New York ,1,0,43.1520122,-76.0610324
1457,Lynbrook,NY,New York ,1,0,40.6548253,-73.6717969
1458,Manhattan,NY,New York ,10,1,40.7902778,-73.9597222
1459,Medford,NY,New York ,1,0,40.8175985,-73.0001068
1460,Minerva,NY,New York ,2,0,43.7914527,-73.984302
1461,Mohawk,NY,New York ,3,0,43.0114592,-75.0040449
1462,Monticello,NY,New York ,2,0,41.6556465,-74.6893282
1463,Nassau,NY,New York ,1,0,40.7412643,-73.5877699
1464,New Rochelle,NY,New York ,1,0,40.9115386,-73.7826363
1465,New York,NY,New York ,1,0,40.7305991,-73.9865812
1466,Newburgh,NY,New York ,3,2,41.5034271,-74.0104179
1467,Niagara Falls,NY,New York ,1,1,43.099685,-79.03056351224309
1468,North Amityville,NY,New York ,1,0,40.6976002,-73.425123
1469,North Bellmore,NY,New York ,1,1,40.69149,-73.5334597
1470,North Hudson,NY,New York ,1,0,43.9525575,-73.7284641
1471,North Valley Stream,NY,New York ,1,0,40.6851028,-73.7017976
1472,Philipstown,NY,New York ,1,0,41.4099095,-73.9255866293917
1473,Poughkeepsie,NY,New York ,4,1,41.7065779,-73.9284101
1474,Queens,NY,New York ,23,3,40.7498243,-73.7976337
1475,Rockland County,NY,New York ,1,0,41.1591765,-74.0576158540952
1476,Rome,NY,New York ,2,0,43.2128473,-75.4557304
1477,Ronkonkoma,NY,New York ,1,0,40.80741775,-73.1359911337872
1478,Saratoga Springs,NY,New York ,2,1,43.0831301,-73.7845651
1479,Schaghticoke,NY,New York ,2,0,42.8673813,-73.62936804283
1480,Schenectady,NY,New York ,3,0,42.8142432,-73.9395687
1481,Setauket,NY,New York ,1,0,40.9355473,-73.1188824
1482,Shirley,NY,New York ,1,0,42.5767271,-78.9136452
1483,Staten Island,NY,New York ,3,0,40.5834379,-74.1495875
1484,Sunset Park,NY,New York ,1,0,40.6481594,-74.0034728
1485,Syracuse,NY,New York ,14,2,43.0481221,-76.1474244
1486,Uniondale,NY,New York ,1,1,40.7003793,-73.5929056
1487,Utica,NY,New York ,6,2,43.1009031,-75.2326641
1488,Wakefield,NY,New York ,1,0,40.8978772,-73.8523569
1489,Wawayanda,NY,New York ,1,1,41.3722145,-74.4594325247897
1490,Webster,NY,New York ,4,1,43.2122851,-77.4299939
1491,Wellsville,NY,New York ,1,0,42.8759077,-74.2723535
1492,Westford,NY,New York ,1,0,42.6500755,-74.7976507
1493,Wyandanch,NY,New York ,1,0,40.7539878,-73.360398
1494,Yonkers,NY,New York ,2,1,40.9312099,-73.8987469
1495,Bohemia,NY,New York ,0,1,40.7692649,-73.1151118
1496,Forestport,NY,New York ,0,1,43.4420132,-75.2071112
1497,Glens Falls,NY,New York ,0,1,43.3099598,-73.6442514
1498,Mountaindale,NY,New York ,0,1,40.95773,-73.846686
1499,Ridge,NY,New York ,0,1,40.8939875,-72.8959364
1500,Salisbury Mills,NY,New York ,0,1,41.4306494,-74.1190335
1501,Tarrytown,NY,New York ,0,1,41.0762077,-73.8587461
1502,Walton,NY,New York ,0,1,42.1695296,-75.1293351
1503,Albert Township,MI,Michigan ,1,0,42.37090955,-83.0771189635487
1504,Ann Arbor,MI,Michigan ,1,0,42.2838441,-83.7379612
1505,Bay City,MI,Michigan ,1,0,43.5944677,-83.8888648
1506,Bedford Township,MI,Michigan ,1,0,42.39528,-85.23222
1507,Belding,MI,Michigan ,1,0,43.0978095,-85.228906
1508,Benton Harbor,MI,Michigan ,1,1,42.1167065,-86.4541894
1509,Buena Vista,MI,Michigan ,1,0,43.4203028,-83.8985827
1510,Clinton TWP,MI,Michigan ,1,0,42.584919,-82.93482389086941
1511,Dearborn,MI,Michigan ,1,1,42.3222599,-83.1763145
1512,Dearborn Heights,MI,Michigan ,1,1,42.3369816,-83.2732627
1513,Detroit,MI,Michigan ,216,31,42.3486635,-83.0567375
1514,Dowagiac,MI,Michigan ,1,0,41.9842123,-86.1086228
1515,Dowling,MI,Michigan ,1,0,42.5225362,-85.2530589
1516,Dundee,MI,Michigan ,1,0,41.9572676,-83.6596596
1517,East Lansing,MI,Michigan ,1,1,42.723653,-84.477949026308
1518,Farmington Hills,MI,Michigan ,1,0,42.4853125,-83.3771553
1519,Flint,MI,Michigan ,43,3,43.0171773,-83.7236024
1520,Forest Township,MI,Michigan ,1,0,43.179831,-83.52021492814279
1521,Frenchtown,MI,Michigan ,1,0,46.4732698,-87.6790246
1522,Fruitland Township,MI,Michigan ,1,0,43.018793,-85.644164
1523,Gaylord,MI,Michigan ,1,0,45.0275126,-84.6747523
1524,Genesee,MI,Michigan ,1,0,43.1125262,-83.6177333
1525,Gilford,MI,Michigan ,1,1,43.4941889,-83.6219063
1526,Grand Rapids,MI,Michigan ,14,7,42.9633599,-85.6680863
1527,Green Oak,MI,Michigan ,1,0,43.023508,-86.169484
1528,Harper Woods,MI,Michigan ,2,0,42.4330924,-82.9240833
1529,Haslett,MI,Michigan ,1,1,42.7467159,-84.4011807
1530,Indianfields,MI,Michigan ,1,0,43.4605773,-83.4285646
1531,Inkster,MI,Michigan ,8,1,42.2942045,-83.3099303
1532,Ionia,MI,Michigan ,2,0,42.9469688,-85.0713945
1533,Kalamazoo,MI,Michigan ,5,3,42.291707,-85.5872286
1534,Kentwood,MI,Michigan ,2,2,42.8694731,-85.6447492
1535,Lansing,MI,Michigan ,8,1,42.7337712,-84.5553805
1536,Liberty,MI,Michigan ,2,1,42.1022634,-84.4005068
1537,Manistee County,MI,Michigan ,1,0,44.341034,-86.04564436556801
1538,Marlette Township,MI,Michigan ,1,0,43.3269685,-83.08022
1539,Mason County,MI,Michigan ,1,0,43.9968906,-86.2600425960413
1540,Mattawan,MI,Michigan ,1,0,42.2094839,-85.784453
1541,Merrill,MI,Michigan ,1,0,43.4097497,-84.3288783
1542,Monitor,MI,Michigan ,1,1,43.61141735,-83.9907840138169
1543,Mt Morris Township,MI,Michigan ,1,0,43.089956,-83.7538302571574
1544,Mt. Morris,MI,Michigan ,1,0,43.1186374,-83.6949583
1545,Mt. Morris Township,MI,Michigan ,1,0,43.089956,-83.7538302571574
1546,Mt. Morris Township ,MI,Michigan ,1,0,43.089956,-83.7538302571574
1547,Muskegon,MI,Michigan ,4,1,43.2341813,-86.2483921
1548,Muskegon Heights,MI,Michigan ,4,0,43.2011264,-86.2389464
1549,Newaygo,MI,Michigan ,1,0,43.4197429,-85.8000506
1550,Newaygo County,MI,Michigan ,2,1,43.5527077,-85.8022251948329
1551,Northville,MI,Michigan ,1,0,42.4310806,-83.4832262
1552,Novi,MI,Michigan ,3,1,42.48059,-83.4754913
1553,Oakland County,MI,Michigan ,2,0,42.6618842,-83.3804439
1554,Okemos,MI,Michigan ,1,0,42.721839,-84.428183
1555,Oscoda,MI,Michigan ,2,0,44.6789109,-84.1467693
1556,Ottawa County,MI,Michigan ,1,0,42.986057,-86.0065295694165
1557,Perry,MI,Michigan ,3,1,42.8264205,-84.2194127
1558,Plainfield,MI,Michigan ,5,0,42.4969793,-84.1074559
1559,Plainwell,MI,Michigan ,1,1,42.4400357,-85.6489035
1560,Pontiac,MI,Michigan ,6,1,42.6389216,-83.2910468
1561,Port Huron,MI,Michigan ,1,1,42.9815877,-82.440466
1562,Redford Township,MI,Michigan ,1,0,42.39893,-83.29533011991859
1563,Rochester Hills,MI,Michigan ,1,0,42.6583661,-83.1499322
1564,Romulus,MI,Michigan ,1,0,42.2222614,-83.3965995
1565,Royal Oak,MI,Michigan ,1,0,42.4894801,-83.1446485
1566,Saginaw,MI,Michigan ,17,6,43.4200387,-83.9490365
1567,Sherman Township,MI,Michigan ,1,0,47.264903,-88.20277022271401
1568,Southfield,MI,Michigan ,2,1,42.4733689,-83.2218731
1569,Southgate,MI,Michigan ,1,0,42.2061435,-83.20460296705298
1570,Tallmadge,MI,Michigan ,1,0,42.992524,-85.8342049
1571,Tallmadge Township,MI,Michigan ,1,0,42.992524,-85.8342049
1572,Taylor,MI,Michigan ,2,2,42.240872,-83.2696509
1573,Valley,MI,Michigan ,4,1,42.513641,-83.328255
1574,Walled Lake,MI,Michigan ,1,0,42.537811,-83.4810481
1575,White Lake,MI,Michigan ,1,1,42.6916964,-83.5541098
1576,Wixom,MI,Michigan ,1,1,42.5247555,-83.5363268
1577,Ypsilanti,MI,Michigan ,2,0,42.2411499,-83.6129939
1578,Ypsilanti Township,MI,Michigan ,1,0,42.2172635,-83.60183392850061
1579,Berlin Township,MI,Michigan ,0,1,42.0347283,-83.2520579898415
1580,Champion,MI,Michigan ,0,1,46.5138246,-87.9634679
1581,Comstock,MI,Michigan ,0,1,42.2867083,-85.5133374
1582,Eastpointe,MI,Michigan ,0,1,42.4683698,-82.9554746
1583,Mecosta Township,MI,Michigan ,0,1,43.6375503,-85.3168199
1584,Oak Park,MI,Michigan ,0,1,42.4594803,-83.1827051
1585,Ovid,MI,Michigan ,0,1,43.0058396,-84.3714696
1586,Traverse City,MI,Michigan ,0,1,44.7606441,-85.6165301
1587,Albertville,AL,Alabama ,2,0,34.266641,-86.19959949348818
1588,Autauga County,AL,Alabama ,1,0,32.5088175,-86.6510123622453
1589,Bessemer,AL,Alabama ,5,1,33.3793105,-86.85822531979501
1590,Birmingham,AL,Alabama ,49,3,33.3881705,-86.89975258402409
1591,Black Pond,AL,Alabama ,3,1,34.0598268,-87.3516798
1592,Brierfield,AL,Alabama ,1,0,33.0390099,-86.908879
1593,Cleburne County,AL,Alabama ,4,0,33.5228885,-85.3445728
1594,Cullman,AL,Alabama ,2,1,34.2789835,-86.481277
1595,Dothan,AL,Alabama ,1,0,31.1586345,-85.42695861377581
1596,Elmore County,AL,Alabama ,1,0,32.58766445,-86.1518726857931
1597,Enterprise,AL,Alabama ,1,0,31.2832595,-85.81497273188721
1598,Eufaula,AL,Alabama ,1,0,31.8912717,-85.1454876
1599,Fairview,AL,Alabama ,4,1,34.909808,-87.7436397
1600,Fyffe,AL,Alabama ,1,0,34.450045,-85.90353741235609
1601,Gadsden,AL,Alabama ,3,1,33.9578455,-86.067800169164
1602,Geraldine,AL,Alabama ,1,0,34.3514798,-86.0008078
1603,Grand Bay,AL,Alabama ,1,0,30.472216,-88.3465391426938
1604,Gurley,AL,Alabama ,1,0,34.7000115,-86.3790034245192
1605,Heflin,AL,Alabama ,1,1,33.6489948,-85.5874584
1606,Hoover,AL,Alabama ,3,2,33.4348484,-86.8179026854662
1607,Huntsville,AL,Alabama ,13,1,34.762807,-86.68402737475408
1608,Hurtsboro,AL,Alabama ,1,1,32.240029,-85.41477535213329
1609,Jefferson County,AL,Alabama ,2,3,33.5448325,-86.86080490281219
1610,Lawrence County,AL,Alabama ,3,0,34.552202,-87.31782593297459
1611,Limestone County,AL,Alabama ,1,0,34.7751356,-87.03178381964871
1612,Lipscomb,AL,Alabama ,1,0,33.4256646,-86.9266588
1613,Midfield,AL,Alabama ,1,0,33.458251,-86.9102823747652
1614,Midland City,AL,Alabama ,2,0,31.3190612,-85.4938239
1615,Mobile,AL,Alabama ,22,3,30.6943566,-88.0430541
1616,Montgomery,AL,Alabama ,32,7,32.343799,-86.27316602329441
1617,Nauvoo,AL,Alabama ,1,0,33.9895503,-87.4889033
1618,Northport,AL,Alabama ,1,0,33.229007,-87.5772293
1619,Opelika,AL,Alabama ,2,0,32.655255,-85.3828255926252
1620,Orrville,AL,Alabama ,1,0,34.6673132,-86.9769524
1621,Oxford,AL,Alabama ,6,2,33.589896,-85.8368931575116
1622,Ozark,AL,Alabama ,2,0,31.445645,-85.6380324350699
1623,Phenix City,AL,Alabama ,3,0,32.4709761,-85.0007653
1624,Pleasant Valley,AL,Alabama ,4,1,34.0014863,-86.1271972
1625,Prattville,AL,Alabama ,3,0,32.4640245,-86.4596966
1626,Prichard,AL,Alabama ,3,0,30.7707735,-88.1359866474208
1627,Rosalie,AL,Alabama ,1,0,34.699805,-85.7685836
1628,Russellville,AL,Alabama ,1,0,34.5072915,-87.7332472396043
1629,Seale,AL,Alabama ,1,0,32.2973697,-85.1688255
1630,Section,AL,Alabama ,1,0,34.5913995,-85.9846441105496
1631,Selma,AL,Alabama ,6,2,32.417836,-87.0231317863436
1632,Selmont,AL,Alabama ,1,0,32.3951369,-87.0083225
1633,Sheffield,AL,Alabama ,2,0,34.7650888,-87.6986407
1634,Sylacauga,AL,Alabama ,1,0,33.1795865,-86.2618499775959
1635,Talladega,AL,Alabama ,1,0,33.5309404,-85.8304195
1636,Troy,AL,Alabama ,6,0,31.8072405,-85.95791119142302
1637,Trussville,AL,Alabama ,1,0,33.6196266,-86.6084342
1638,Tuscaloosa,AL,Alabama ,7,1,33.2762256,-87.0671165
1639,Tuskegee,AL,Alabama ,1,0,32.451898,-85.6828885200753
1640,Wedowee,AL,Alabama ,1,0,33.3056395,-85.4927465732737
1641,Winston County,AL,Alabama ,1,1,34.1461755,-87.37335663636641
1642,Wylam,AL,Alabama ,2,0,33.5059398,-86.9252705
1643,Calera,AL,Alabama ,0,1,33.1035045,-86.7505733
1644,Gardendale,AL,Alabama ,0,1,33.6601033,-86.8127702
1645,Madison County,AL,Alabama ,0,1,34.734366,-86.5721466624667
1646,McCalla,AL,Alabama ,0,1,33.348723,-87.0141602
1647,Ohatchee,AL,Alabama ,0,1,33.800914,-86.0542934629499
1648,St. Clair County,AL,Alabama ,0,1,33.6925735,-86.3644199517724
1649,State City,AL,Alabama ,0,1,32.923457,-85.9449638
1650,Weaver,AL,Alabama ,0,1,33.7520457,-85.8113543
1651,Albuquerque,NM,New Mexico ,26,5,35.0877555,-106.73717096290399
1652,Albuquerque ,NM,New Mexico ,1,0,35.0877555,-106.73717096290399
1653,Aztec,NM,New Mexico ,1,0,36.8220629,-107.9928992
1654,Carlsbad,NM,New Mexico ,6,0,32.4206736,-104.2288375
1655,Clovis,NM,New Mexico ,1,0,34.4047987,-103.2052272
1656,Deming,NM,New Mexico ,1,1,32.2686981,-107.7586404
1657,Espanola,NM,New Mexico ,2,1,35.9911522,-106.0805887
1658,Farmington,NM,New Mexico ,5,0,36.7304288,-108.2089191
1659,Gallup,NM,New Mexico ,1,0,35.521549,-108.75121626499501
1660,Hatch,NM,New Mexico ,1,0,32.6651718,-107.1534387
1661,Hobbs,NM,New Mexico ,1,1,32.7026116,-103.1360403
1662,Las Cruces,NM,New Mexico ,2,1,32.3140549,-106.7798135
1663,Los Alamos,NM,New Mexico ,1,0,35.8923665,-106.28559531992599
1664,Los Lunas,NM,New Mexico ,1,2,34.8085625,-106.760981433643
1665,Lovington,NM,New Mexico ,1,0,32.9440077,-103.3485543
1666,Placitas,NM,New Mexico ,1,0,32.6650793,-107.1686304
1667,Rio Arriba County,NM,New Mexico ,1,0,36.1225247,-105.7832504
1668,Rio Rancho,NM,New Mexico ,2,0,35.233375,-106.6644716
1669,Roswell,NM,New Mexico ,2,0,33.3942655,-104.5230242
1670,Santa Fe County,NM,New Mexico ,3,0,35.3278207,-105.7201939
1671,Silver City,NM,New Mexico ,3,2,32.770075,-108.280326
1672,South Valley,NM,New Mexico ,2,3,35.0100487,-106.6780809
1673,Springer,NM,New Mexico ,1,0,36.3611445,-104.5952668
1674,Taos,NM,New Mexico ,1,0,36.4072485,-105.5730665
1675,Tularosa,NM,New Mexico ,1,0,33.073973,-106.0186025
1676,Hernandez,NM,New Mexico ,0,1,36.0628001,-106.1194685
1677,Alcoa,TN,Tennessee ,2,1,35.7895271,-83.9737935
1678,Athens,TN,Tennessee ,5,0,35.4428512,-84.5929898
1679,Bean Station,TN,Tennessee ,2,0,36.3437017,-83.284062
1680,Blountville,TN,Tennessee ,1,0,36.5331586,-82.326806
1681,Bluff City,TN,Tennessee ,1,0,36.4742705,-82.2609685
1682,Bolivar,TN,Tennessee ,1,0,35.2561937,-88.9878389
1683,Carroll County,TN,Tennessee ,3,0,35.9698965,-88.4559250936084
1684,Chattanooga,TN,Tennessee ,11,0,35.0737835,-85.1068214087091
1685,Cookeville,TN,Tennessee ,1,0,36.162839,-85.5016423
1686,Cordova,TN,Tennessee ,1,0,35.1556451,-89.7761955
1687,Crab Orchard,TN,Tennessee ,3,1,35.9092367,-84.8780048
1688,Decatur County,TN,Tennessee ,1,0,35.61510135,-88.11228279107951
1689,Dickson,TN,Tennessee ,1,0,36.0744719,-87.3385654
1690,Drummonds,TN,Tennessee ,1,1,35.4634163,-89.9100859
1691,East Ridge,TN,Tennessee ,1,2,36.2994397,-82.3702242951424
1692,Elizabethton,TN,Tennessee ,2,1,36.3487196,-82.2106876
1693,Erin,TN,Tennessee ,1,1,36.3209612,-87.6975827
1694,Erwin,TN,Tennessee ,3,3,36.1451082,-82.4168055
1695,Etowah,TN,Tennessee ,1,0,35.3234065,-84.5249307
1696,Gallatin,TN,Tennessee ,1,0,36.3883031,-86.4475898
1697,Germantown,TN,Tennessee ,4,2,35.0867577,-89.8100858
1698,Gibson County,TN,Tennessee ,1,0,36.009104,-88.9451899493309
1699,Grainger County,TN,Tennessee ,1,1,36.250763,-83.5499015089414
1700,Greene County,TN,Tennessee ,1,0,36.1704475,-82.90679593773699
1701,Greeneville,TN,Tennessee ,1,0,36.1631575,-82.8309861
1702,Greenfield,TN,Tennessee ,4,0,36.1533982,-88.8006163
1703,Harrison,TN,Tennessee ,2,0,35.1136838,-85.1380092
1704,Hendersonville,TN,Tennessee ,2,3,36.3047735,-86.6199957
1705,Hohenwald,TN,Tennessee ,1,0,35.5478514,-87.5519629
1706,Hornbeak,TN,Tennessee ,1,0,36.3311777,-89.2964595
1707,Humboldt,TN,Tennessee ,1,0,35.8197917,-88.9158953
1708,Jonesborough,TN,Tennessee ,1,1,36.2942723,-82.4734786
1709,Kingsport,TN,Tennessee ,1,0,36.5484341,-82.5618186
1710,Kingston,TN,Tennessee ,2,0,35.8809084,-84.5085447
1711,Knoxville,TN,Tennessee ,15,3,35.9584625,-83.95201889544498
1712,LaVergne,TN,Tennessee ,1,0,36.05089,-86.577127
1713,Lebanon,TN,Tennessee ,7,1,36.208065,-86.2905052
1714,Lincoln County,TN,Tennessee ,3,1,35.180651,-86.6013284394834
1715,Maryville,TN,Tennessee ,3,1,35.7564719,-83.9704593
1716,Memphis,TN,Tennessee ,83,10,35.1490215,-90.0516285
1717,Millington,TN,Tennessee ,1,1,35.3414745,-89.8973084
1718,Murfreesboro,TN,Tennessee ,1,1,35.845999,-86.3920452
1719,Nashville,TN,Tennessee ,36,0,36.1949274,-86.7417714
1720,New Market,TN,Tennessee ,3,1,36.1039767,-83.5526751
1721,Newport,TN,Tennessee ,4,1,35.9670412,-83.1876578
1722,Pulaski,TN,Tennessee ,4,0,35.1998023,-87.0308412
1723,Red Boiling Springs,TN,Tennessee ,1,1,36.5333888,-85.8499798
1724,Ripley,TN,Tennessee ,2,0,35.7453551,-89.5297973
1725,Rockwood,TN,Tennessee ,1,0,35.8656284,-84.68494
1726,Rossville,TN,Tennessee ,1,0,35.0484242,-89.5425786
1727,Santa Fe,TN,Tennessee ,3,3,35.735069,-87.1280625
1728,Seymour,TN,Tennessee ,1,0,35.8810385,-83.7766217275262
1729,Shelby County,TN,Tennessee ,1,0,35.201907,-89.86658436284709
1730,Springfield,TN,Tennessee ,35,7,36.5092119,-86.8849984
1731,Sweetwater,TN,Tennessee ,2,0,35.6014636,-84.4610394
1732,Tullahoma,TN,Tennessee ,1,0,35.3620235,-86.2094342
1733,Wilson County,TN,Tennessee ,1,1,36.157129,-86.32251154337679
1734,Winchester,TN,Tennessee ,1,1,35.1859163,-86.1122071
1735,knoxville,TN,Tennessee ,1,0,35.9603948,-83.9210261
1736,Ashland City,TN,Tennessee ,0,1,36.2742207,-87.0641699
1737,Brentwood,TN,Tennessee ,0,1,36.0325687,-86.7825235
1738,Crossville,TN,Tennessee ,0,1,35.9489566,-85.0269015
1739,Culleoka,TN,Tennessee ,0,1,35.4795186,-86.9830602
1740,Lyles,TN,Tennessee ,0,1,35.9197867,-87.3450119
1741,Mountain City,TN,Tennessee ,0,2,36.4745636,-81.804838
1742,Algona,IA,Iowa ,1,0,43.0699663,-94.233019
1743,Ames,IA,Iowa ,2,0,42.0279667,-93.64472272590342
1744,Cedar Rapids,IA,Iowa ,1,0,41.9758872,-91.6704053
1745,Clarinda,IA,Iowa ,1,0,40.7419352,-95.038313
1746,Council Bluffs,IA,Iowa ,2,2,41.2621283,-95.8613912
1747,Des Moines,IA,Iowa ,11,1,41.5910641,-93.6037149
1748,Dow City,IA,Iowa ,1,0,41.9288774,-95.49389
1749,Fort Madison,IA,Iowa ,1,0,40.6297632,-91.3151506
1750,Iowa City,IA,Iowa ,1,0,41.6606893,-91.5302214
1751,Marshalltown,IA,Iowa ,2,0,42.0448121,-92.9103964
1752,Mediapolis,IA,Iowa ,1,0,41.008076,-91.1633978
1753,Muscatine,IA,Iowa ,1,1,41.424473,-91.0432051
1754,North Liberty,IA,Iowa ,1,0,41.748868,-91.5972564
1755,Oelwein,IA,Iowa ,1,0,42.6733171,-91.9135036
1756,Pella,IA,Iowa ,1,0,41.4080534,-92.9163091
1757,Rock Island,IA,Iowa ,1,0,41.5123284,-90.5128488
1758,Rockwell City,IA,Iowa ,2,0,42.3952576,-94.6338671
1759,Sioux City,IA,Iowa ,2,2,42.4966815,-96.4058782
1760,Storm Lake,IA,Iowa ,1,0,42.6410915,-95.2097179
1761,Swisher,IA,Iowa ,1,0,41.845563,-91.6929542
1762,Waterloo,IA,Iowa ,6,1,42.4927641,-92.3429631
1763,Waukee,IA,Iowa ,1,0,41.6116552,-93.8852266
1764,Zearing,IA,Iowa ,1,0,42.1612414,-93.2970164
1765,Ankeny,IA,Iowa ,0,1,41.7318715,-93.6003837
1766,Alma,AR,Arkansas ,3,1,35.4953205,-94.2336577705188
1767,Altheimer,AR,Arkansas ,1,0,34.3192636,-91.8473565
1768,Arkadelphia,AR,Arkansas ,1,0,34.134076,-93.06940144211279
1769,Arkansas County,AR,Arkansas ,1,0,34.2521305,-91.3938761527894
1770,Ash Flat,AR,Arkansas ,1,0,36.2239566,-91.6084751
1771,Ashdown,AR,Arkansas ,1,0,33.6753495,-94.12274021525421
1772,Baxter County,AR,Arkansas ,1,0,36.2428453,-92.1611652
1773,Blytheville,AR,Arkansas ,1,0,35.9314365,-89.8944048888423
1774,Bryant,AR,Arkansas ,1,0,34.5959265,-92.4890469
1775,Cabot,AR,Arkansas ,1,0,34.9803265,-92.01916114871109
1776,Calico Rock,AR,Arkansas ,1,0,36.1195143,-92.1359867
1777,Conway,AR,Arkansas ,8,2,35.0886963,-92.4421011
1778,Delight,AR,Arkansas ,1,0,34.0314949,-93.502959
1779,Drew County,AR,Arkansas ,1,0,33.5897655,-91.714928436691
1780,Dumas,AR,Arkansas ,1,0,33.8870477,-91.4917899
1781,Fort Smith,AR,Arkansas ,2,2,35.3857623,-94.3986725
1782,Garland City,AR,Arkansas ,1,0,33.3596803,-93.7098502
1783,Garland County,AR,Arkansas ,2,0,34.5814975,-93.10630902566031
1784,Gentry,AR,Arkansas ,1,0,36.2675793,-94.4846602
1785,Haskell,AR,Arkansas ,2,0,34.5014817,-92.636552
1786,Heber Springs,AR,Arkansas ,1,1,35.5068385,-92.0169177042202
1787,Hope,AR,Arkansas ,1,0,33.6670616,-93.5915665
1788,Hot Springs,AR,Arkansas ,2,0,34.4310705,-93.04270133562271
1789,Judsonia,AR,Arkansas ,1,0,35.270085,-91.6398575
1790,Lafayette County,AR,Arkansas ,1,0,33.2503435,-93.5933860001083
1791,Lake City,AR,Arkansas ,4,0,35.821246,-90.4598160308217
1792,Little Rock,AR,Arkansas ,21,1,34.7464809,-92.2895948
1793,Magazine,AR,Arkansas ,1,0,35.1509249,-93.8068652
1794,Magnolia,AR,Arkansas ,2,1,33.3033665,-93.2170823698921
1795,Malvern,AR,Arkansas ,3,1,34.3623149,-92.8129463
1796,Morrilton,AR,Arkansas ,1,0,35.15385,-92.7444107293083
1797,Mountain Home,AR,Arkansas ,2,1,36.358703,-92.344744989993
1798,N. Little Rock,AR,Arkansas ,1,0,34.7554325,-92.15977737881941
1799,North Little Rock,AR,Arkansas ,3,1,34.7941368,-92.3579062
1800,Paragould,AR,Arkansas ,3,0,36.0452505,-90.51709128181841
1801,Pine Bluff,AR,Arkansas ,9,1,34.210538,-92.01652904680229
1802,Pleasant Plains,AR,Arkansas ,1,0,35.5500796,-91.6262486
1803,Pocahontas,AR,Arkansas ,1,0,36.2662065,-90.9701031585472
1804,Rector,AR,Arkansas ,1,0,36.264507,-90.29461577286209
1805,Romance,AR,Arkansas ,1,0,35.2409171,-92.051258
1806,Searcy,AR,Arkansas ,1,2,35.8867418,-92.4292259
1807,Shannon Hills,AR,Arkansas ,1,0,34.6200931,-92.3954325
1808,Stuttgart,AR,Arkansas ,2,1,34.473245,-91.53736755469679
1809,Swifton,AR,Arkansas ,1,0,35.821742,-91.1284584
1810,West Fork,AR,Arkansas ,1,0,35.9242477,-94.1885387
1811,Wynne,AR,Arkansas ,2,1,35.231113,-90.7881851740596
1812,Yellville,AR,Arkansas ,1,0,36.228651,-92.68164227916641
1813,Greenland,AR,Arkansas ,0,2,35.996819,-94.18753642692378
1814,Imboden,AR,Arkansas ,0,1,36.2025683,-91.1745727
1815,Midway,AR,Arkansas ,0,1,34.2542589,-92.9635065
1816,Rogers,AR,Arkansas ,0,1,36.3076935,-94.08133942894742
1817,Alorton,IL,Illinois ,1,0,38.589773,-90.1201087
1818,Alpha,IL,Illinois ,1,0,41.1917031,-90.3801274
1819,Batavia,IL,Illinois ,1,0,41.8500284,-88.3125738
1820,Bellwood,IL,Illinois ,4,0,41.8814197,-87.883117
1821,Belvidere,IL,Illinois ,2,0,42.2583528,-88.8416115
1822,Benton,IL,Illinois ,1,1,37.9967163,-88.9200685
1823,Berwyn,IL,Illinois ,1,0,41.8505874,-87.7936685
1824,Bloomington,IL,Illinois ,6,1,40.4842027,-88.9936873
1825,Bolingbrook,IL,Illinois ,1,1,41.7003302,-88.0717708
1826,Burbank,IL,Illinois ,1,1,41.741406,-87.7686078
1827,Cahokia,IL,Illinois ,1,0,38.5708849,-90.1901113
1828,Calhokia,IL,Illinois ,1,0,38.5708849,-90.1901113
1829,Calumet City,IL,Illinois ,5,1,41.6155909,-87.5294871
1830,Calumet Park,IL,Illinois ,2,0,41.6628119,-87.6606037
1831,Carterville,IL,Illinois ,2,0,37.7600501,-89.0772991
1832,Champaign,IL,Illinois ,2,2,40.1164205,-88.2433829
1833,Chicago,IL,Illinois ,384,24,41.8756208,-87.6243706
1834,Chicago Heights,IL,Illinois ,1,0,41.5062834,-87.6357079
1835,Cicero,IL,Illinois ,3,0,41.8455878,-87.7539448
1836,Crystal Lake,IL,Illinois ,1,0,42.2411344,-88.3161965
1837,Darien,IL,Illinois ,1,3,41.7499912,-87.9803395
1838,DeKalb,IL,Illinois ,3,1,41.9294736,-88.7503647
1839,Dekalb,IL,Illinois ,1,1,41.9294736,-88.7503647
1840,Dolton,IL,Illinois ,1,0,41.6389236,-87.607268
1841,East St Louis,IL,Illinois ,4,0,38.6244952,-90.1509429
1842,East St. Louis,IL,Illinois ,8,1,38.6244952,-90.1509429
1843,Edwardsville,IL,Illinois ,1,0,38.8114364,-89.953157
1844,Galesburg,IL,Illinois ,2,0,40.9478158,-90.3712395
1845,Granite City,IL,Illinois ,1,0,38.7014389,-90.1487199
1846,Harvard,IL,Illinois ,1,1,42.422241,-88.6137101
1847,Havana,IL,Illinois ,1,1,40.3014316,-90.0633625
1848,Henry,IL,Illinois ,1,1,41.3418549,-90.1177442
1849,Highland,IL,Illinois ,1,0,38.7394918,-89.6712008
1850,Highland Park,IL,Illinois ,1,1,42.1816919,-87.8003438
1851,Homewood,IL,Illinois ,10,0,41.5572567,-87.6656015
1852,Humboldt Park,IL,Illinois ,2,0,41.9057668,-87.7041737
1853,Ivesdale,IL,Illinois ,1,0,39.9433658,-88.4553363
1854,Joliet,IL,Illinois ,7,1,41.525031,-88.0817252
1855,Kankakee,IL,Illinois ,1,0,41.1200325,-87.8611531
1856,Lyons,IL,Illinois ,1,0,41.811108,-87.8232695
1857,Markham,IL,Illinois ,1,0,41.5936453,-87.6947699
1858,Matteson,IL,Illinois ,1,0,41.5039235,-87.7131018
1859,Mattoon,IL,Illinois ,2,0,39.4842821,-88.3773279
1860,Maywood,IL,Illinois ,9,2,41.8791979,-87.8431155
1861,Mulberry Grove,IL,Illinois ,1,0,41.9908677,-88.3347128
1862,Orland Park,IL,Illinois ,1,0,41.6303103,-87.8539425
1863,Park Forest,IL,Illinois ,1,0,41.4914236,-87.6744891
1864,Pekin,IL,Illinois ,2,1,40.5675388,-89.640658
1865,Polo,IL,Illinois ,1,1,41.986141,-89.5792782
1866,Poplar Grove,IL,Illinois ,1,0,41.4578121,-90.4565204
1867,Posen,IL,Illinois ,2,0,41.6317008,-87.681437
1868,Quincy,IL,Illinois ,2,1,39.9356016,-91.4098727
1869,Rockford,IL,Illinois ,14,1,42.2713945,-89.093966
1870,Round Lake Beach,IL,Illinois ,1,0,42.3716881,-88.0900815
1871,Sauk Village,IL,Illinois ,1,0,41.4883685,-87.5675414
1872,Tinley Park,IL,Illinois ,1,0,41.5733669,-87.7844944
1873,Urbana,IL,Illinois ,1,0,40.1105875,-88.2072697
1874,Wayne County,IL,Illinois ,2,0,38.4318295,-88.4248394510753
1875,Wheeling,IL,Illinois ,2,0,42.1251965,-87.9293289308904
1876,Whiteside County,IL,Illinois ,1,0,41.7590045,-89.93760859845902
1877,Will County,IL,Illinois ,1,0,41.4194058,-87.9994754
1878,Wilmette,IL,Illinois ,1,0,42.0770909,-87.7238936
1879,Yorkville,IL,Illinois ,1,0,41.6411409,-88.4472948
1880,Zion,IL,Illinois ,3,0,42.4461322,-87.8328505
1881,Bethalto,IL,Illinois ,0,1,38.9092138,-90.0406608
1882,Burr Ridge,IL,Illinois ,0,1,41.7489203,-87.9183919
1883,Libertyville,IL,Illinois ,0,1,42.2830786,-87.9531303
1884,Melrose Park,IL,Illinois ,0,1,41.9005865,-87.8567277
1885,Newton,IL,Illinois ,0,1,38.9904607,-88.1618716
1886,Altamont,OR,Oregon ,1,0,42.2068123,-121.737224
1887,Bend,OR,Oregon ,2,0,44.0581728,-121.3153096
1888,Boring,OR,Oregon ,1,0,45.4298204,-122.3746435
1889,Chiloquin,OR,Oregon ,1,0,42.5776364,-121.8661258
1890,Donald,OR,Oregon ,1,0,45.2222599,-122.8413946
1891,Drain,OR,Oregon ,1,0,43.6587309,-123.3186987
1892,Eugene,OR,Oregon ,1,0,44.0505054,-123.0950506
1893,Gold Beach,OR,Oregon ,1,0,42.4073334,-124.421774
1894,Grant County,OR,Oregon ,3,0,44.477796,-119.01010567854601
1895,Gresham,OR,Oregon ,6,0,45.5067406,-122.4367058
1896,Hermiston,OR,Oregon ,1,0,45.8404101,-119.2894605
1897,Hillsboro,OR,Oregon ,5,1,45.5228939,-122.989827
1898,Kerby,OR,Oregon ,1,0,42.1946172,-123.6513053
1899,Klamath Falls,OR,Oregon ,2,0,42.224867,-121.7816704
1900,Lane County,OR,Oregon ,2,0,43.863845,-122.749256472778
1901,Loon Lake,OR,Oregon ,1,0,43.5871458,-123.83785827540899
1902,Madras,OR,Oregon ,1,0,44.6334544,-121.1294872
1903,Molalla,OR,Oregon ,1,0,45.1473445,-122.5770322
1904,Oregon City,OR,Oregon ,3,1,45.3573429,-122.6067583
1905,Polk County,OR,Oregon ,1,1,44.89782,-123.42816016346501
1906,Portland,OR,Oregon ,12,2,45.5202471,-122.6741949
1907,Roseburg,OR,Oregon ,3,1,43.216505,-123.3417381
1908,Salem,OR,Oregon ,10,4,44.9391565,-123.033121
1909,Scappoose,OR,Oregon ,1,0,45.7572997,-122.8743589
1910,Silverton,OR,Oregon ,2,0,45.0049305,-122.7832947
1911,Sisters,OR,Oregon ,1,0,44.290948,-121.5492516
1912,The Dalles,OR,Oregon ,1,0,45.5945645,-121.1786823
1913,Umatilla,OR,Oregon ,1,0,45.9173549,-119.3425179
1914,Veneta,OR,Oregon ,2,1,44.0487342,-123.3509294
1915,Winston,OR,Oregon ,1,0,43.1223383,-123.4125723
1916,Gold Hill,OR,Oregon ,0,1,44.5437722,-117.3954695
1917,Grant's Pass,OR,Oregon ,0,1,42.4393707,-123.3272489
1918,Grants Pass,OR,Oregon ,0,1,42.4393707,-123.3272489
1919,La Pine,OR,Oregon ,0,2,43.6703995,-121.503636
1920,Langlois,OR,Oregon ,0,1,42.9235756,-124.4507782
1921,Newberg,OR,Oregon ,0,1,45.3004928,-122.9725556
1922,Redmond,OR,Oregon ,0,1,44.2726203,-121.1739212
1923,Tillamook,OR,Oregon ,0,1,45.0701116,-123.7266793
1924,Altro,KY,Kentucky ,1,0,37.3809251,-83.3821253
1925,Big Spring,KY,Kentucky ,2,1,37.7992318,-86.1521912
1926,Booneville,KY,Kentucky ,1,0,37.4761991,-83.6749145
1927,Bowling Green,KY,Kentucky ,3,0,36.9903199,-86.4436018
1928,Brandenburg,KY,Kentucky ,2,1,37.9989592,-86.1694143
1929,Calvert City,KY,Kentucky ,1,0,37.0333896,-88.3500362
1930,Campbellsville,KY,Kentucky ,1,0,37.3433974,-85.3419069
1931,Carlisle County,KY,Kentucky ,1,0,36.86291665,-88.9700772489639
1932,Cave City,KY,Kentucky ,1,0,37.1367171,-85.9569195
1933,Christian County,KY,Kentucky ,2,0,36.8980864,-87.47945039692308
1934,Corbin,KY,Kentucky ,1,0,36.9486986,-84.0968761
1935,Crestwood,KY,Kentucky ,1,0,38.0097999,-84.5110499
1936,Evarts,KY,Kentucky ,1,0,36.8655065,-83.19868363325538
1937,Ezel,KY,Kentucky ,1,0,37.8911964,-83.4443502
1938,Fern Creek,KY,Kentucky ,1,0,38.15979,-85.5877362
1939,Fort Knox,KY,Kentucky ,2,1,37.8897175,-85.96642601348559
1940,Frankfort,KY,Kentucky ,1,0,38.2009055,-84.8732836
1941,Ft Thomas,KY,Kentucky ,1,0,39.0785913,-84.4485361
1942,Graham,KY,Kentucky ,2,1,37.2517099,-87.2797187
1943,Grapevine,KY,Kentucky ,2,2,37.3000449,-87.4858321
1944,Gravel Switch,KY,Kentucky ,1,1,37.5786819,-85.052181
1945,Gray,KY,Kentucky ,3,0,36.9425894,-84.0082631
1946,Greenup County,KY,Kentucky ,1,0,38.565189,-82.9523425686737
1947,Guston,KY,Kentucky ,1,0,37.8928444,-86.2219159
1948,Hazard,KY,Kentucky ,1,2,37.24954,-83.1932284
1949,Heidrick,KY,Kentucky ,1,0,36.8825878,-83.8785356
1950,Hillsboro ,KY,Kentucky ,1,0,38.293412,-83.6588043
1951,Hodgenville,KY,Kentucky ,1,0,37.5739497,-85.7399606
1952,Hopkinsville,KY,Kentucky ,3,4,36.8656009,-87.4886186
1953,Jackson County,KY,Kentucky ,1,0,37.415968,-83.9961588438974
1954,Jenkins,KY,Kentucky ,2,2,37.1734372,-82.6309892
1955,Knott County,KY,Kentucky ,1,0,37.3492525,-82.93784858204229
1956,Knox County,KY,Kentucky ,1,0,36.8934427,-83.8545725
1957,Lawrenceburg,KY,Kentucky ,1,0,38.0372967,-84.8966171
1958,Lexington,KY,Kentucky ,15,1,38.0464066,-84.4970393
1959,London,KY,Kentucky ,2,0,37.1289771,-84.0832646
1960,Louisville,KY,Kentucky ,42,9,38.2542376,-85.759407
1961,McDowell,KY,Kentucky ,1,0,37.4559336,-82.7362693
1962,Meads,KY,Kentucky ,1,0,38.4125817,-82.7090513
1963,Middlesboro,KY,Kentucky ,1,0,36.6084155,-83.7165824
1964,Murray,KY,Kentucky ,2,0,36.6103334,-88.314761
1965,Nelson County,KY,Kentucky ,3,0,37.756668,-85.5322681838892
1966,Nicholasville,KY,Kentucky ,2,0,37.8806341,-84.5729961
1967,Owensboro,KY,Kentucky ,1,0,37.7742152,-87.1133304
1968,Paducah,KY,Kentucky ,1,0,37.0833893,-88.6000478
1969,Pikeville,KY,Kentucky ,2,0,37.4792672,-82.5187629
1970,Pulaski County,KY,Kentucky ,1,1,37.1125715,-84.5972710316807
1971,Radcliff,KY,Kentucky ,1,1,37.8403456,-85.9491298
1972,Ratliff,KY,Kentucky ,1,0,37.3414951,-82.4265383
1973,Rosspoint,KY,Kentucky ,1,0,36.8823117,-83.2893459
1974,Salyersville,KY,Kentucky ,1,0,37.7525922,-83.0687816
1975,Shepherdsville,KY,Kentucky ,1,0,37.9883991,-85.7157924
1976,Shively,KY,Kentucky ,1,0,38.2000701,-85.8227413
1977,Simpson County,KY,Kentucky ,1,0,36.7582165,-86.5728962728392
1978,Simpsonville,KY,Kentucky ,1,0,38.22257,-85.3552349
1979,Somerset,KY,Kentucky ,4,1,37.0920222,-84.6041084
1980,Tomahawk,KY,Kentucky ,1,1,37.8687052,-82.5970984
1981,Tompkinsville,KY,Kentucky ,1,0,36.7022797,-85.6916396
1982,Waynesburg,KY,Kentucky ,1,0,37.3328559,-84.6716111
1983,Willisburg,KY,Kentucky ,1,1,37.8097892,-85.126347
1984,Ages,KY,Kentucky ,0,1,36.8578673,-83.2462884
1985,Burkesville,KY,Kentucky ,0,1,36.7903399,-85.3705186
1986,Fort Mitchell,KY,Kentucky ,0,1,39.0595047,-84.5474432
1987,Laurel County,KY,Kentucky ,0,1,37.1374455,-84.1147650768207
1988,Pine Knot,KY,Kentucky ,0,1,36.6509124,-84.4385489
1989,Rowan County,KY,Kentucky ,0,1,38.206915,-83.4425764575742
1990,American Fork,UT,Utah ,1,0,40.3768954,-111.7957645
1991,Brigham City,UT,Utah ,1,1,41.5102129,-112.0155015
1992,Canyonlands National Park,UT,Utah ,2,0,38.1666522,-109.984017
1993,Cedar City,UT,Utah ,1,1,37.6774769,-113.0618931
1994,Cottonwood Heights,UT,Utah ,1,0,40.6196702,-111.8102104
1995,Draper,UT,Utah ,2,0,40.5246711,-111.8638226
1996,Grantsville,UT,Utah ,1,0,40.6000817,-112.4635316
1997,Helper,UT,Utah ,2,0,39.6841305,-110.8546053
1998,Holladay,UT,Utah ,1,1,40.6688363,-111.8246557
1999,Kaysville,UT,Utah ,1,0,41.0349847,-111.9383931
2000,Midvale,UT,Utah ,1,2,40.6110589,-111.8999353
2001,Moab,UT,Utah ,1,0,38.5738096,-109.5462146
2002,Ogden,UT,Utah ,1,0,41.21607745,-112.008048404781
2003,Orem,UT,Utah ,1,0,40.2975185,-111.6944685
2004,Price,UT,Utah ,1,1,39.5994095,-110.8107148
2005,Roy,UT,Utah ,1,0,41.1617999,-112.0261903
2006,Salt Lake City,UT,Utah ,9,3,40.7606467,-111.89109
2007,Salt Lake County,UT,Utah ,1,1,40.644188,-111.9522491
2008,South Jordan,UT,Utah ,4,0,40.5621704,-111.929658
2009,Spanish Fork,UT,Utah ,1,0,40.114955,-111.654923
2010,Taylorsville,UT,Utah ,1,0,40.6677517,-111.9386311
2011,Tooele County,UT,Utah ,1,0,40.4898689,-113.11209893102699
2012,Washington Terrace,UT,Utah ,1,0,41.1727268,-111.9766208
2013,West Valley City,UT,Utah ,2,0,40.6916132,-112.0010501
2014,Willard Bay,UT,Utah ,1,0,41.4796625,-112.328614112911
2015,Anadarko,OK,Oklahoma ,1,0,35.072562,-98.2436626
2016,Arcadia,OK,Oklahoma ,2,0,35.6667233,-97.3267025
2017,Ardmore,OK,Oklahoma ,1,0,34.1742611,-97.1436254
2018,Atoka County,OK,Oklahoma ,1,0,34.419336,-95.96406505831409
2019,Bennington,OK,Oklahoma ,2,0,34.0045412,-96.0377597
2020,Bethany,OK,Oklahoma ,1,1,35.512678,-97.6430393718648
2021,Boise City,OK,Oklahoma ,1,0,36.7296748,-102.5131384
2022,Boley,OK,Oklahoma ,1,1,35.4934062,-96.4836221
2023,Caddo County,OK,Oklahoma ,1,0,35.131317,-98.3797949
2024,Calvin,OK,Oklahoma ,1,0,34.9674231,-96.2522433
2025,Chandler,OK,Oklahoma ,4,1,35.7017314,-96.8808582
2026,Choctaw,OK,Oklahoma ,1,0,34.0246234,-95.52055
2027,Clinton,OK,Oklahoma ,6,2,35.5156056,-98.9673069
2028,Coleman,OK,Oklahoma ,1,1,34.2714809,-96.4191624
2029,Coweta,OK,Oklahoma ,3,0,35.9517674,-95.650814
2030,Cushing,OK,Oklahoma ,1,1,35.9850639,-96.76697
2031,Duncan,OK,Oklahoma ,2,0,34.5023029,-97.9578129
2032,Edmond,OK,Oklahoma ,1,0,35.6672015,-97.4293703650031
2033,Enid,OK,Oklahoma ,3,0,36.3969501,-97.8791067
2034,Guthrie,OK,Oklahoma ,1,0,35.878937,-97.4253185
2035,Hominy,OK,Oklahoma ,1,0,36.4142357,-96.3952963
2036,Hugo,OK,Oklahoma ,2,0,34.017889,-95.5392915755206
2037,Jay,OK,Oklahoma ,1,0,36.4211914,-94.7968959
2038,Kenefic,OK,Oklahoma ,1,0,34.148149,-96.3622146
2039,Langston,OK,Oklahoma ,1,0,35.9450505,-97.2553142
2040,Lawton,OK,Oklahoma ,6,2,34.6086854,-98.3903305
2041,McLoud,OK,Oklahoma ,1,0,35.4358996,-97.0914163
2042,Midwest City,OK,Oklahoma ,2,2,35.4741805,-97.3797895832592
2043,Moore,OK,Oklahoma ,1,0,35.330747,-97.4768868588579
2044,Muldrow,OK,Oklahoma ,1,0,35.4062034,-94.5988306
2045,Muskogee,OK,Oklahoma ,1,1,35.7478769,-95.3696909
2046,Norman,OK,Oklahoma ,2,0,35.2225717,-97.4394816
2047,OKlahoma City,OK,Oklahoma ,1,0,35.4707419,-97.5198806
2048,Oklahoma City,OK,Oklahoma ,46,6,35.4707419,-97.5198806
2049,Oklahoma city,OK,Oklahoma ,1,0,35.4707419,-97.5198806
2050,Osage County,OK,Oklahoma ,1,0,36.579681,-96.4442681805892
2051,Owasso,OK,Oklahoma ,1,0,36.2695388,-95.8547119
2052,Paden,OK,Oklahoma ,1,0,35.5078487,-96.5675136
2053,Panama,OK,Oklahoma ,1,0,35.1673194,-94.6724465
2054,Paoli,OK,Oklahoma ,2,0,34.8267449,-97.2591911
2055,Pryor,OK,Oklahoma ,1,0,36.3084275,-95.3169136
2056,Sallisaw,OK,Oklahoma ,1,0,35.4603711,-94.7874463
2057,Sand Springs,OK,Oklahoma ,1,1,36.1398102,-96.1088911
2058,Skiatook,OK,Oklahoma ,1,0,36.3684245,-96.0013847
2059,Stillwell,OK,Oklahoma ,1,0,35.8138669,-94.6257297
2060,Tulsa,OK,Oklahoma ,36,11,36.219525,-96.03404332152691
2061,Tulsa ,OK,Oklahoma ,1,0,36.1524357,-95.9904093
2062,Wade,OK,Oklahoma ,1,0,33.8889875,-96.0760915
2063,Warr Acres,OK,Oklahoma ,1,0,35.527837,-97.62337852286609
2064,Yale,OK,Oklahoma ,1,0,36.1142305,-96.6991933
2065,Amber,OK,Oklahoma ,0,1,35.1603415,-97.8792104
2066,Elk City,OK,Oklahoma ,0,1,35.4119944,-99.4042592
2067,Grove,OK,Oklahoma ,0,1,36.5936863,-94.7691186
2068,Jenks,OK,Oklahoma ,0,1,36.0228734,-95.9683278
2069,Logan County,OK,Oklahoma ,0,1,35.94536195,-97.43620336410619
2070,The Village,OK,Oklahoma ,0,1,35.5690425,-97.5574313730159
2071,Anchorage,AK,Alaska ,9,0,61.218056,-149.9002806
2072,Chugiak,AK,Alaska ,1,1,61.3888889,-149.4819444
2073,Cooper Landing,AK,Alaska ,1,0,60.495261,-149.847857054688
2074,Fairbanks,AK,Alaska ,2,2,64.829002,-147.669916684249
2075,Fort Richardson,AK,Alaska ,1,0,61.2548733,-149.6900616
2076,Joint Base Elmendorf-Richardson,AK,Alaska ,1,0,61.2207463,-149.6218062
2077,King Salmon,AK,Alaska ,1,0,58.755172,-156.51925334308197
2078,Kodiak,AK,Alaska ,1,0,57.7909145,-152.404932080312
2079,Manokotak,AK,Alaska ,1,0,58.9813889,-159.0583333
2080,Soldotna,AK,Alaska ,2,1,60.4877675,-151.061010045377
2081,Sutton,AK,Alaska ,1,0,61.7113889,-148.8941667
2082,Tununak,AK,Alaska ,1,0,60.573457,-165.248310182289
2083,Wasilla,AK,Alaska ,2,1,61.5797115,-149.464739190252
2084,Delta Junction,AK,Alaska ,0,1,64.0619265,-145.688042976088
2085,Mountain Village,AK,Alaska ,0,1,62.0855556,-163.7294444
2086,Sitka,AK,Alaska ,0,1,57.073204,-135.309655601852
2087,Anderson,IN,Indiana ,10,3,40.1053196,-85.6802541
2088,Angola,IN,Indiana ,1,0,41.6348464,-84.9992683
2089,Clarksville,IN,Indiana ,2,1,38.2967362,-85.7599631
2090,Cowan,IN,Indiana ,1,1,40.1058781,-85.388582
2091,Cromwell,IN,Indiana ,1,0,41.4006036,-85.6158185
2092,East Chicago,IN,Indiana ,6,1,41.6397857,-87.4548466
2093,Edinburgh,IN,Indiana ,1,1,39.3542176,-85.9665577
2094,Elkhart,IN,Indiana ,6,0,41.6012796,-85.8590603
2095,Elwood,IN,Indiana ,1,0,40.2769834,-85.8419246
2096,English,IN,Indiana ,1,0,38.3345045,-86.4641498
2097,Evansville,IN,Indiana ,3,1,37.9747645,-87.5558483
2098,Fort Branch,IN,Indiana ,1,0,38.2511558,-87.5811332
2099,Fort Wayne,IN,Indiana ,37,2,41.0799898,-85.1386015
2100,Ft Wayne,IN,Indiana ,1,0,41.0799898,-85.1386015
2101,Gary,IN,Indiana ,49,2,41.5927467,-87.3467803
2102,Glen Park,IN,Indiana ,1,0,41.5417032,-87.3361482
2103,Goshen,IN,Indiana ,1,1,41.5815012,-85.8346529
2104,Greensburg,IN,Indiana ,2,2,39.3372722,-85.483581
2105,Greenwood,IN,Indiana ,6,2,39.6136578,-86.1066526
2106,Hammond,IN,Indiana ,10,1,41.5833658,-87.500043
2107,Hudson Lake,IN,Indiana ,1,0,41.7154271,-86.5458523
2108,Indianapolis,IN,Indiana ,104,14,39.7683795,-86.1580447
2109,Jeffersonville,IN,Indiana ,2,1,38.2775702,-85.7371847
2110,Johnson County,IN,Indiana ,1,2,39.4901815,-86.1008683164607
2111,Knox,IN,Indiana ,2,0,38.687009,-87.3811461
2112,Kokomo,IN,Indiana ,3,1,40.4864444,-86.1336351
2113,Lafayette,IN,Indiana ,7,0,40.4167022,-86.8752869
2114,Lapel,IN,Indiana ,1,0,40.0683725,-85.8483132
2115,Lawrence,IN,Indiana ,7,3,38.8400395,-86.4880717
2116,Marion,IN,Indiana ,9,3,40.5583739,-85.6591442
2117,Markle,IN,Indiana ,1,0,40.8292133,-85.3355283
2118,Merrillville,IN,Indiana ,2,0,41.4828144,-87.3328139
2119,Michigan City,IN,Indiana ,1,0,41.7075394,-86.8950297
2120,Milan,IN,Indiana ,1,1,39.1211656,-85.1313464
2121,Modoc,IN,Indiana ,1,0,40.0453238,-85.1263542
2122,Mooresville,IN,Indiana ,1,0,39.6128243,-86.37416
2123,Morgan Co,IN,Indiana ,1,0,39.4863813,-86.4678144578808
2124,New Carlisle,IN,Indiana ,1,1,41.7003231,-86.5094621
2125,New Castle,IN,Indiana ,4,1,39.9289351,-85.3702477
2126,Noblesville,IN,Indiana ,1,1,40.0455918,-86.0085955
2127,North Vernon,IN,Indiana ,1,0,39.006165,-85.6235796
2128,Parke County,IN,Indiana ,1,0,39.779175,-87.19128088453449
2129,Perry County,IN,Indiana ,1,1,38.0529355,-86.6144524510208
2130,Pierceton,IN,Indiana ,1,0,41.2003229,-85.7055417
2131,Porter County,IN,Indiana ,1,0,41.466009,-87.0749297427594
2132,Princeton,IN,Indiana ,2,2,38.3553236,-87.5675223
2133,Rochester,IN,Indiana ,21,4,41.0647645,-86.2158331
2134,Sellersburg,IN,Indiana ,1,0,38.3981216,-85.754964
2135,South Bend,IN,Indiana ,5,0,41.6833813,-86.2500066
2136,Southport,IN,Indiana ,2,1,39.6588985,-86.1156652241741
2137,Speedway,IN,Indiana ,1,0,39.8022653,-86.2672127
2138,Stewartsville,IN,Indiana ,1,1,38.1847672,-87.8328061
2139,Sunman,IN,Indiana ,1,0,39.2369971,-85.0946809
2140,Terre Haute,IN,Indiana ,2,0,39.4667025,-87.4139119
2141,Vigo County,IN,Indiana ,1,0,39.435072,-87.38363129305219
2142,Waynesville,IN,Indiana ,3,1,39.1150521,-85.8916509
2143,Gas City,IN,Indiana ,0,1,40.4872625,-85.6130311
2144,Porter,IN,Indiana ,0,1,41.6155937,-87.0741995
2145,Winslow,IN,Indiana ,0,1,38.382272,-87.2127863
2146,Annapolis,MD,Maryland ,4,1,38.9786401,-76.492786
2147,Aspen Hill,MD,Maryland ,1,0,39.0794975,-77.0735251
2148,Baltimore,MD,Maryland ,178,22,39.2909295,-76.6097684
2149,Baltimore County,MD,Maryland ,1,0,39.2846027,-76.62047203423779
2150,Bel Air,MD,Maryland ,1,0,39.5357481,-76.3484809
2151,Berlin,MD,Maryland ,1,0,38.3226154,-75.2176892
2152,Bowie,MD,Maryland ,1,0,39.0067768,-76.7791365
2153,Brandywine,MD,Maryland ,1,0,38.6967833,-76.8477485
2154,Calverton,MD,Maryland ,1,0,39.0576091,-76.9358082
2155,Capitol Heights,MD,Maryland ,3,0,38.8853963,-76.9159441
2156,College Park,MD,Maryland ,6,0,38.980666,-76.9369189
2157,Delmar,MD,Maryland ,1,0,38.4559497,-75.577425
2158,District Heights,MD,Maryland ,2,0,38.8576128,-76.8894171
2159,Dundalk,MD,Maryland ,1,1,39.2574114,-76.5236745
2160,Edgewood,MD,Maryland ,2,0,39.4187194,-76.2944016
2161,Essex,MD,Maryland ,1,0,39.3075143,-76.4788202
2162,Fairmount Heights,MD,Maryland ,1,0,38.9009452,-76.9155291
2163,Forestville,MD,Maryland ,8,0,38.8451131,-76.8749722
2164,Fort Washington,MD,Maryland ,2,0,38.7073379,-77.0230314
2165,Frederick,MD,Maryland ,2,0,39.414443,-77.4105783
2166,Frostburg,MD,Maryland ,1,0,39.6581425,-78.928357
2167,Ft Washington,MD,Maryland ,1,0,38.7073379,-77.0230314
2168,Gaithersburg,MD,Maryland ,1,0,39.1434406,-77.2013705
2169,Glen Burnie,MD,Maryland ,6,1,39.1626298,-76.6250756
2170,Glenarden,MD,Maryland ,1,0,38.9292782,-76.8616387
2171,Grasonville,MD,Maryland ,1,0,38.9581686,-76.2102288
2172,Hagerstown,MD,Maryland ,2,0,39.6419219,-77.7202641
2173,Harmans,MD,Maryland ,1,0,39.1573304,-76.6966356
2174,Havre de Grace,MD,Maryland ,1,0,39.5489964,-76.0914718
2175,Hillcrest Heights,MD,Maryland ,4,0,38.8328909,-76.9594189
2176,La Plata,MD,Maryland ,1,0,38.5292877,-76.9752514
2177,Landover,MD,Maryland ,2,0,38.9340002,-76.8966397
2178,Lansdowne,MD,Maryland ,1,0,39.2451071,-76.660524
2179,Largo,MD,Maryland ,2,0,38.8823465,-76.8286242874533
2180,Lewisdale,MD,Maryland ,1,0,38.9734438,-76.9738644
2181,Middle River,MD,Maryland ,1,0,39.3342745,-76.4394057
2182,Millersville,MD,Maryland ,1,0,39.0595542,-76.6480219
2183,North East,MD,Maryland ,1,0,39.6001132,-75.9413327
2184,Ocean City,MD,Maryland ,1,0,38.40678,-75.0618486
2185,Odenton,MD,Maryland ,1,0,39.0837774,-76.7000224
2186,Oxon Hill,MD,Maryland ,2,0,38.8035961,-76.9896573
2187,Port Deposit,MD,Maryland ,2,0,39.6048327,-76.1152289
2188,Prince Frederick,MD,Maryland ,2,0,38.5403996,-76.5844017
2189,Prince George's County,MD,Maryland ,3,0,38.803929,-76.8518695
2190,Princess Anne,MD,Maryland ,2,0,38.2028993,-75.692427
2191,Queen Anne's County,MD,Maryland ,1,0,39.0326935,-76.03965855642879
2192,Rawlings,MD,Maryland ,1,0,39.5345348,-78.8833562
2193,Reservoir Hill,MD,Maryland ,1,0,39.3137013,-76.633292
2194,Rockville,MD,Maryland ,1,0,39.0840054,-77.1527573
2195,Rodgers Forge,MD,Maryland ,1,0,39.38056195,-76.6121453334987
2196,Rosedale,MD,Maryland ,2,0,39.3201074,-76.5155191
2197,Salisbury,MD,Maryland ,7,0,38.3662114,-75.6008881
2198,Seat Pleasant,MD,Maryland ,2,0,38.8962231,-76.9066399
2199,Severn,MD,Maryland ,1,0,39.1370528,-76.6983022
2200,Silver Spring,MD,Maryland ,1,0,39.00884145,-77.0205440580873
2201,Spauldings,MD,Maryland ,1,0,38.8534461,-76.9066397
2202,St. Mary's County,MD,Maryland ,1,0,38.20161245,-76.5590579405692
2203,Suitland,MD,Maryland ,1,0,38.848724,-76.9238625
2204,Takoma Park,MD,Maryland ,2,0,38.9778882,-77.0074765
2205,Taneytown,MD,Maryland ,1,0,39.6578773,-77.1744279
2206,Temple Hills,MD,Maryland ,2,0,38.8140024,-76.9455296
2207,Timonium,MD,Maryland ,1,0,39.4368436,-76.6187044
2208,Towson,MD,Maryland ,1,0,39.4018565,-76.6023686
2209,Upper Marlboro,MD,Maryland ,1,0,38.8162654,-76.7518462
2210,Waldorf,MD,Maryland ,1,1,38.63501915,-76.9063116959882
2211,West Baltimore,MD,Maryland ,1,0,39.2933208,-76.6531881
2212,White Marsh,MD,Maryland ,2,0,39.3837187,-76.4321837
2213,Windsor Mill,MD,Maryland ,1,0,39.3328839,-76.7594179
2214,Elkton,MD,Maryland ,0,1,39.6065545,-75.8158002333333
2215,Frederick County,MD,Maryland ,0,1,39.4698212,-77.36798295505298
2216,Parkville,MD,Maryland ,0,1,39.3773292,-76.5396875
2217,Apopka,FL,Florida ,4,0,28.741245,-81.53442926981859
2218,Archer,FL,Florida ,1,0,29.5299677,-82.5189969
2219,Belle Glade,FL,Florida ,3,0,26.67205525,-80.6825033307995
2220,Big Pine Key,FL,Florida ,1,1,24.689235,-81.3688467815449
2221,Boca Raton,FL,Florida ,5,2,26.3586885,-80.0830984
2222,Bonita Springs,FL,Florida ,2,0,26.3617755,-81.7930306969108
2223,Boynton Beach,FL,Florida ,6,1,26.5253491,-80.0664309
2224,Bradenton,FL,Florida ,6,1,27.4989278,-82.5748194
2225,Brandon,FL,Florida ,4,1,27.937801,-82.2859247
2226,Brevard County,FL,Florida ,1,0,28.306727,-80.70061324443971
2227,Brooksville,FL,Florida ,6,2,28.5552719,-82.3878709
2228,Broward County,FL,Florida ,1,0,26.1457087,-80.4555171007627
2229,Cape Coral,FL,Florida ,2,1,26.5628537,-81.9495331
2230,Clearwater,FL,Florida ,4,1,27.9658533,-82.8001026
2231,Cocoa,FL,Florida ,2,2,28.38212585,-80.7624527107605
2232,Cocoa Beach,FL,Florida ,1,0,28.330172,-80.6262454141897
2233,Coconut Grove,FL,Florida ,1,0,25.7398164,-80.2388468
2234,Collier,FL,Florida ,1,0,26.1360651,-81.7306851
2235,Columbia County,FL,Florida ,1,0,30.2116605,-82.6263506667503
2236,Crestview,FL,Florida ,1,0,30.7621326,-86.5705084
2237,Dade City,FL,Florida ,2,1,28.3647248,-82.1959178
2238,Davenport,FL,Florida ,3,1,28.1614046,-81.6017417
2239,Daytona Beach,FL,Florida ,4,0,29.2108147,-81.0228331
2240,DeLand,FL,Florida ,1,0,29.0194825,-81.29414180082499
2241,Deland,FL,Florida ,1,0,29.0194825,-81.29414180082499
2242,Delray Beach,FL,Florida ,5,0,26.4614625,-80.0728201
2243,Deltona,FL,Florida ,1,0,28.9005446,-81.2636738
2244,Dorcas,FL,Florida ,1,0,30.7982425,-86.4157823
2245,East Naples,FL,Florida ,1,0,26.1385453,-81.7665464
2246,East Tampa,FL,Florida ,1,0,27.8644695,-82.3800931
2247,Eatonville,FL,Florida ,1,0,28.6183331,-81.3859156
2248,El Portal,FL,Florida ,1,0,25.8553739,-80.193103
2249,Elfers,FL,Florida ,1,0,28.213023,-82.7232741536215
2250,Escambia,FL,Florida ,1,0,30.5476304,-87.21598080999809
2251,Escambia County,FL,Florida ,1,0,30.614269,-87.3260567554759
2252,Fort Lauderdale,FL,Florida ,9,2,26.1223084,-80.1433786
2253,Fort Myers,FL,Florida ,10,2,26.640628,-81.8723084
2254,Fort Pierce,FL,Florida ,8,1,27.4288232,-80.3413926148683
2255,Fort Walton Beach,FL,Florida ,2,0,30.4057552,-86.618842
2256,Frostproof,FL,Florida ,1,0,27.7458626,-81.5306313
2257,Gifford,FL,Florida ,1,0,27.672964,-80.417888715258
2258,Goldenrod,FL,Florida ,1,0,28.6102274,-81.2848946
2259,Graceville,FL,Florida ,1,1,30.9568503,-85.5165993
2260,Haines,FL,Florida ,1,0,28.1120191,-81.63119461298629
2261,Hallandale Beach,FL,Florida ,3,1,25.9856462,-80.1400017916097
2262,Hialeah,FL,Florida ,9,5,25.8670105,-80.29146268148291
2263,High Springs,FL,Florida ,2,0,29.8269064,-82.5967832
2264,Hillsborough,FL,Florida ,1,0,27.9442248,-82.4446839160248
2265,Holiday,FL,Florida ,1,0,28.18776335,-82.74159176827371
2266,Hollywood,FL,Florida ,13,0,26.04042985,-80.1841650783422
2267,Homosassa,FL,Florida ,1,1,28.7824245,-82.60652639624709
2268,Hudson,FL,Florida ,1,0,28.358244,-82.6920044041935
2269,Immokalee,FL,Florida ,3,1,26.4201555,-81.4222401906917
2270,Indialantic,FL,Florida ,1,0,28.0894599,-80.5656079
2271,Interlachen,FL,Florida ,1,0,29.6238574,-81.8903684
2272,Islamorada,FL,Florida ,1,0,24.9242995,-80.6278404
2273,Jasper,FL,Florida ,5,1,30.5182727,-82.94819
2274,Jupiter,FL,Florida ,1,1,26.9248374,-80.0870737360259
2275,Kenneth City,FL,Florida ,1,0,27.8155812,-82.7201004
2276,Key West,FL,Florida ,1,0,24.5801765,-81.7468701950965
2277,Kissimmee,FL,Florida ,3,0,28.2920249,-81.4078013
2278,Lake Butler,FL,Florida ,4,0,30.0227391,-82.3395574
2279,Lake Helen,FL,Florida ,1,0,28.9808195,-81.2333937
2280,Lake Nona,FL,Florida ,1,0,28.3927142,-81.2664155009129
2281,Lake Park,FL,Florida ,1,0,26.8002153,-80.0661631
2282,Lake Wales,FL,Florida ,1,1,27.9014133,-81.5859099
2283,Lake Worth,FL,Florida ,6,1,26.62014255,-80.0629414613509
2284,Lakeland,FL,Florida ,7,1,28.0394654,-81.9498042
2285,Lantana,FL,Florida ,1,0,26.58295435,-80.05594063777559
2286,Lauderdale Lakes,FL,Florida ,6,0,26.16839695,-80.2047222133163
2287,Lauderhill,FL,Florida ,1,2,26.1403635,-80.2133808
2288,Lealman,FL,Florida ,1,1,27.8211366,-82.6792661
2289,Leesburg,FL,Florida ,2,0,28.7891025,-81.87269846018899
2290,Lehigh Acres,FL,Florida ,3,2,26.6042355,-81.65823731518141
2291,Levy County,FL,Florida ,1,0,29.2529515,-82.8199580894927
2292,Liberty City,FL,Florida ,1,1,25.8317637,-80.2167149
2293,Longwood,FL,Florida ,1,0,28.7007349,-81.3493978064175
2294,Lynn Haven,FL,Florida ,1,0,30.2454776,-85.648261
2295,Margate,FL,Florida ,1,1,26.2424556,-80.2141414080379
2296,Marion County,FL,Florida ,1,1,29.240728,-82.02275744793059
2297,Mayport,FL,Florida ,1,0,30.3932957,-81.4306424
2298,Melbourne,FL,Florida ,8,1,28.0836269,-80.6081089
2299,Merritt Island,FL,Florida ,1,0,28.2714905,-80.66497696615059
2300,Miami,FL,Florida ,56,9,25.7742658,-80.1936589
2301,Miami Beach,FL,Florida ,2,0,25.7881436,-80.1272705
2302,Miami Gardens,FL,Florida ,14,2,25.9420978,-80.2397539620777
2303,Miami-Dade,FL,Florida ,16,1,25.7742658,-80.1936589
2304,Miami-Dade County,FL,Florida ,2,1,25.7889689,-80.2264393
2305,Miramar,FL,Florida ,1,1,25.97592075,-80.3347217406541
2306,Mount Dora,FL,Florida ,1,0,28.8188085,-81.6756844187741
2307,Naples,FL,Florida ,3,0,26.1420358,-81.7948103
2308,Navarre,FL,Florida ,1,0,30.4015879,-86.863571
2309,New Port Richey,FL,Florida ,1,0,28.247111,-82.71702407847529
2310,Newberry,FL,Florida ,1,0,29.6463535,-82.6065023
2311,North Fort Myers,FL,Florida ,1,0,26.71128665,-81.81290581352759
2312,North Lauderdale,FL,Florida ,1,0,26.217305,-80.2258811
2313,North Port,FL,Florida ,1,0,27.044224,-82.2359254
2314,Oakland Park,FL,Florida ,3,0,26.1802357,-80.1514141092668
2315,Ocala,FL,Florida ,13,3,29.1700175,-82.1391638702577
2316,Ocklawaha,FL,Florida ,1,0,29.0427592,-81.9292505
2317,Opa-Locka,FL,Florida ,5,0,25.89695285,-80.2595090142408
2318,Opa-locka,FL,Florida ,1,0,25.8969431,-80.25950845302641
2319,Opa-locka ,FL,Florida ,1,0,25.8969431,-80.25950845302641
2320,Orange City,FL,Florida ,3,1,28.9488761,-81.2986741
2321,Orange County,FL,Florida ,15,3,28.51,-81.32
2322,Orange Park,FL,Florida ,1,2,30.1660736,-81.706484
2323,Orlando,FL,Florida ,27,6,28.5421175,-81.3790462
2324,Overtown,FL,Florida ,1,0,25.7809311,-80.1963077
2325,Pahokee,FL,Florida ,1,1,26.8200607,-80.6653351
2326,Palatka,FL,Florida ,1,0,29.6487882,-81.6372111
2327,Palm Bay,FL,Florida ,3,1,28.0331886,-80.6429695
2328,Palm Beach,FL,Florida ,6,0,26.7056206,-80.0364297
2329,Palm Beach County,FL,Florida ,3,0,26.64580255,-80.4336062511564
2330,Palm Coast,FL,Florida ,3,1,29.5541432,-81.2207673
2331,Palmetto Bay,FL,Florida ,1,0,25.6220425,-80.32099604101491
2332,Panama City,FL,Florida ,3,3,30.1600827,-85.6545729
2333,Panama City Beach,FL,Florida ,3,0,30.1765914,-85.8054879
2334,Pasco County,FL,Florida ,1,0,28.32438455,-82.4253133903748
2335,Pembroke Pines,FL,Florida ,2,1,26.0236064,-80.3412536198487
2336,Pensacola,FL,Florida ,6,2,30.421309,-87.2169149
2337,Pensacola Beach,FL,Florida ,1,0,30.3335333,-87.1374676
2338,Pine Hills,FL,Florida ,6,0,28.5829077,-81.4618293703871
2339,Pine Manor,FL,Florida ,1,0,26.5739705,-81.8781102107837
2340,Pinellas Park,FL,Florida ,2,0,27.86002,-82.7043884502688
2341,Plantation,FL,Florida ,1,0,27.0643665,-82.36830710798921
2342,Plymouth,FL,Florida ,1,0,28.6922188,-81.547295
2343,Poinciana,FL,Florida ,1,0,28.1402939,-81.4584058
2344,Pompano Beach,FL,Florida ,6,0,26.2378597,-80.1247667
2345,Port Charlotte,FL,Florida ,2,0,26.9824735,-82.1068853736099
2346,Port Orange,FL,Florida ,1,0,29.101177,-81.01054670665191
2347,Port Richey,FL,Florida ,1,0,28.2716755,-82.7195451
2348,Port St. Lucie,FL,Florida ,1,0,27.2939333,-80.3503283
2349,Putnam County,FL,Florida ,1,0,29.582303,-81.7891201973961
2350,Reddick,FL,Florida ,1,0,29.3666393,-82.1973184
2351,Riverview,FL,Florida ,3,2,27.871197,-82.3269883
2352,Riviera Beach,FL,Florida ,6,2,26.78912185,-80.060764032452
2353,Riviera Beach ,FL,Florida ,1,0,26.7885659,-80.0607779211907
2354,Rosewood,FL,Florida ,1,0,29.2391314,-82.9320641
2355,Sanford,FL,Florida ,13,0,28.8117179,-81.2680328
2356,Sarasota,FL,Florida ,2,3,27.3364347,-82.5306527
2357,Sebastian,FL,Florida ,1,0,27.816415,-80.4706078
2358,South Daytona,FL,Florida ,1,0,29.1672435,-81.0057527286582
2359,South Miami,FL,Florida ,1,0,25.707688,-80.2956291826463
2360,South Pasadena,FL,Florida ,1,0,27.7550276,-82.7376009
2361,Spring Hill,FL,Florida ,6,0,28.4837566,-82.5337887655405
2362,St Petersburg,FL,Florida ,11,0,27.7708606,-82.6792661
2363,St. Augustine,FL,Florida ,1,0,29.894691,-81.314517
2364,St. Cloud,FL,Florida ,2,0,28.2498534,-81.2839038
2365,St. Petersburg,FL,Florida ,9,1,27.7708606,-82.6792661
2366,Stonecrest,FL,Florida ,1,1,27.976115,-81.929911
2367,Sulphur Springs,FL,Florida ,1,0,28.0252965,-82.4509276
2368,Summerfield,FL,Florida ,1,1,29.0085924,-82.0348092
2369,Sunrise,FL,Florida ,1,0,26.1477307,-80.32918199298841
2370,Suwannee County,FL,Florida ,2,0,30.1625336,-83.01330963393609
2371,Taft,FL,Florida ,2,1,28.42850805,-81.366551063798
2372,Tallahassee,FL,Florida ,6,2,30.4380832,-84.2809332
2373,Tampa,FL,Florida ,23,9,27.9477595,-82.458444
2374,Tarpon Springs,FL,Florida ,1,0,28.1480275,-82.77728239310461
2375,Tequesta,FL,Florida ,1,1,26.96085215,-80.0891926251699
2376,Titusville,FL,Florida ,2,0,28.6122187,-80.8075538
2377,Town 'n Country,FL,Florida ,1,1,28.0105745,-82.5773193
2378,Valrico,FL,Florida ,1,0,27.9487495,-82.23619951346359
2379,Vero Beach,FL,Florida ,2,0,27.6387163,-80.3975399
2380,Volusia County,FL,Florida ,2,0,29.0279842,-81.0754657
2381,Walnut Hill,FL,Florida ,1,0,30.8854631,-87.5099827
2382,Warrington,FL,Florida ,1,0,30.383306,-87.297666721556
2383,Washington County,FL,Florida ,4,0,30.6101045,-85.67223154063029
2384,Wesley Chapel,FL,Florida ,1,0,28.18651455,-82.3663866904499
2385,West Palm Beach,FL,Florida ,15,2,26.7153425,-80.0533746
2386,West Park,FL,Florida ,1,0,25.9786264,-80.18284702986338
2387,Westchase,FL,Florida ,1,0,28.0620403,-82.6124387674414
2388,Wildwood,FL,Florida ,1,1,28.865264,-82.0389743
2389,Winter Garden,FL,Florida ,3,0,28.550287,-81.59259764021981
2390,Winter Garden ,FL,Florida ,1,0,28.550287,-81.59259764021981
2391,Winter Park,FL,Florida ,1,0,28.600154,-81.34275672413159
2392,Ybor City,FL,Florida ,1,0,27.9600475,-82.4411596
2393,Broward,FL,Florida ,0,1,26.0572981,-80.2074402
2394,Cooper City,FL,Florida ,0,1,26.04722445,-80.27391179442441
2395,Dania Beach,FL,Florida ,0,1,26.05083015,-80.14612476252621
2396,Duette,FL,Florida ,0,1,27.5903135,-82.122866
2397,Floral City,FL,Florida ,0,1,28.7207785,-82.3080582924862
2398,Fort Lauderdale ,FL,Florida ,0,1,26.1223084,-80.1433786
2399,North Miami Beach,FL,Florida ,0,1,25.9288015,-80.15281204600781
2400,Pembroke Park,FL,Florida ,0,1,25.98453385,-80.1763941591887
2401,Royal Palm Beach,FL,Florida ,0,1,26.70094605,-80.2234199479195
2402,Tamarac,FL,Florida ,0,2,26.20468505,-80.2710612057127
2403,Winter Haven,FL,Florida ,0,1,28.0222435,-81.7328568
2404,Appleton,WI,Wisconsin ,2,0,44.2611337,-88.4067604
2405,Beloit,WI,Wisconsin ,3,0,42.5083272,-89.031784
2406,Big Flats,WI,Wisconsin ,1,0,44.1118573,-89.8078819
2407,Dodgeville,WI,Wisconsin ,1,0,42.9602743,-90.1301237
2408,Elkhorn,WI,Wisconsin ,1,0,42.6727927,-88.5445447
2409,Fond du Lac,WI,Wisconsin ,1,0,43.777669,-88.446951
2410,Gordon,WI,Wisconsin ,1,0,46.2468856,-91.7985218
2411,Grand Chute,WI,Wisconsin ,1,0,44.2659713,-88.4831357
2412,Green Bay,WI,Wisconsin ,2,0,44.5299412,-88.0248317
2413,Hamburg,WI,Wisconsin ,1,0,45.0905228,-89.8851301
2414,Howard,WI,Wisconsin ,1,0,44.5433355,-88.0880173
2415,Janesville,WI,Wisconsin ,1,0,42.7151854,-88.9907743
2416,Juneau Co,WI,Wisconsin ,1,0,43.9452035,-90.1310036576627
2417,Kenosha,WI,Wisconsin ,2,1,42.5846773,-87.8212263
2418,MIlwaukee,WI,Wisconsin ,1,0,43.0349931,-87.922497
2419,Madison,WI,Wisconsin ,8,3,43.074761,-89.3837613
2420,Manitowoc,WI,Wisconsin ,1,0,44.0886059,-87.6575841
2421,Milwaukee,WI,Wisconsin ,91,13,43.0349931,-87.922497
2422,Neenah,WI,Wisconsin ,1,0,44.1858193,-88.462609
2423,Neillsville,WI,Wisconsin ,1,0,44.559962,-90.5962498
2424,Newbold,WI,Wisconsin ,1,0,45.6980101,-89.5101368
2425,Oneida,WI,Wisconsin ,1,0,45.6879163,-89.4779558
2426,Oregon,WI,Wisconsin ,1,1,42.9259657,-89.3842779
2427,Oshkosh,WI,Wisconsin ,1,1,44.0177132,-88.5389798
2428,Pensaukee,WI,Wisconsin ,1,0,44.823047,-87.9131587
2429,Portage,WI,Wisconsin ,1,1,44.4604931,-89.5108818
2430,Pound,WI,Wisconsin ,2,0,45.0941494,-88.0339927
2431,Racine,WI,Wisconsin ,2,1,42.7261309,-87.7828523
2432,Sheboygan,WI,Wisconsin ,2,0,43.7508284,-87.71453
2433,Sparta,WI,Wisconsin ,2,0,43.9441328,-90.8129118
2434,Sugar Creek,WI,Wisconsin ,1,0,42.723047,-88.469036
2435,Town of Menasha,WI,Wisconsin ,1,0,44.2227678,-88.4913744
2436,Waukesha County,WI,Wisconsin ,1,0,43.0622536,-88.3123889
2437,Waupun,WI,Wisconsin ,1,0,43.6333219,-88.7295519
2438,West Allis,WI,Wisconsin ,1,0,43.0166806,-88.0070315
2439,Black River Falls,WI,Wisconsin ,0,1,44.2946834,-90.8515311
2440,Ladysmith,WI,Wisconsin ,0,1,45.4630231,-91.1040358
2441,Ledgeview,WI,Wisconsin ,0,1,43.782401,-88.436602
2442,Mauston,WI,Wisconsin ,0,1,43.7971946,-90.0773495
2443,Rock County,WI,Wisconsin ,0,1,42.6691512,-89.0710591096677
2444,Waukesha,WI,Wisconsin ,0,1,43.0116784,-88.2314813
2445,Wauwatosa,WI,Wisconsin ,0,1,43.0494122,-88.0079271
2446,Ardentown,DE,Delaware ,1,0,39.81542705,-75.4910163200517
2447,Bear,DE,Delaware ,1,1,39.6292788,-75.6582628
2448,Dover,DE,Delaware ,3,0,39.158168,-75.5243682
2449,Hampstead,DE,Delaware ,2,0,39.451929,-75.70054702110141
2450,Laurel,DE,Delaware ,2,2,38.5980535,-75.55826673882179
2451,Middletown,DE,Delaware ,2,0,39.44161,-75.7250471430871
2452,Milford,DE,Delaware ,5,0,38.9126129,-75.4279748
2453,Millsboro,DE,Delaware ,1,0,38.5915023,-75.2913018
2454,Talleyville,DE,Delaware ,1,1,39.8090011,-75.548813
2455,Wilmington,DE,Delaware ,28,4,39.7459468,-75.546589
2456,Wyoming,DE,Delaware ,1,1,39.1173355,-75.5587130100677
2457,New Castle County,DE,Delaware ,0,1,39.5649955,-75.6476707397205
2458,Asbury Park,NJ,New Jersey ,4,0,40.2203907,-74.0120817
2459,Atlantic City,NJ,New Jersey ,3,0,39.3642852,-74.4229351
2460,Atlantic County,NJ,New Jersey ,2,0,39.5103345,-74.68299546527501
2461,Beachwood,NJ,New Jersey ,2,0,39.939007,-74.1929188
2462,Belleville,NJ,New Jersey ,5,0,40.7937116,-74.1501438
2463,Bloomfield,NJ,New Jersey ,3,1,40.806767,-74.1854226
2464,Bridgeton,NJ,New Jersey ,2,0,39.427337,-75.2340768
2465,Burlington,NJ,New Jersey ,2,0,39.9325409,-74.7226665
2466,Camden,NJ,New Jersey ,42,4,39.9448436,-75.1198694
2467,Carneys Point,NJ,New Jersey ,1,0,39.710974,-75.46739113118339
2468,Clifton,NJ,New Jersey ,2,0,40.8584328,-74.1637553
2469,East Orange,NJ,New Jersey ,4,1,40.767323,-74.2048677
2470,East Rutherford,NJ,New Jersey ,1,0,40.833989,-74.0970865
2471,Elizabeth,NJ,New Jersey ,1,0,40.6639916,-74.2107006
2472,Ewing,NJ,New Jersey ,1,0,40.2698302,-74.7998848
2473,Flemington,NJ,New Jersey ,1,0,40.5123258,-74.8593318
2474,Galloway,NJ,New Jersey ,1,0,39.4916874,-74.50355405829279
2475,Gloucester,NJ,New Jersey ,1,1,39.8025,-75.0447222
2476,Gloucester Township,NJ,New Jersey ,1,0,39.7893,-75.04764215825618
2477,Irvington,NJ,New Jersey ,12,0,40.7323235,-74.2348684
2478,Jersey City,NJ,New Jersey ,16,0,40.7281575,-74.0776417
2479,Kinnelon,NJ,New Jersey ,1,1,41.0017644,-74.367096
2480,Lacey Township,NJ,New Jersey ,1,0,39.868223,-74.293966405056
2481,Lindenwold,NJ,New Jersey ,1,0,39.8181245,-74.9799632702931
2482,Long Branch,NJ,New Jersey ,1,0,40.3042778,-73.9923596
2483,Millburn,NJ,New Jersey ,1,0,40.7248234,-74.3040373
2484,Montclair,NJ,New Jersey ,3,1,40.8259332,-74.2090344
2485,New Brunswick,NJ,New Jersey ,1,0,40.4862174,-74.4518173
2486,New Milford,NJ,New Jersey ,1,0,40.9350986,-74.0190281
2487,Newark,NJ,New Jersey ,77,5,40.735657,-74.1723667
2488,Paramus,NJ,New Jersey ,2,0,40.9445428,-74.0754189
2489,Parsippany,NJ,New Jersey ,1,1,40.8578772,-74.4259866
2490,Passiac,NJ,New Jersey ,1,0,40.8567662,-74.1284764
2491,Paterson,NJ,New Jersey ,4,2,40.9167654,-74.171811
2492,Patterson,NJ,New Jersey ,6,1,40.8139896,-73.9234703
2493,Pemberton Twp,NJ,New Jersey ,1,0,39.9548175,-74.5932209495617
2494,Pennsauken,NJ,New Jersey ,1,1,39.9562238,-75.0579502
2495,Perth Amboy,NJ,New Jersey ,1,0,40.5067723,-74.2654234
2496,Point Pleasant Beach,NJ,New Jersey ,1,0,40.0916569,-74.048052
2497,Quinton,NJ,New Jersey ,1,0,39.5459466,-75.4124178
2498,Rahway,NJ,New Jersey ,1,0,40.6081591,-74.2776468
2499,South Brunswick,NJ,New Jersey ,1,0,40.384923,-74.5204753018018
2500,South River,NJ,New Jersey ,1,0,40.446495,-74.3859831
2501,Toms River,NJ,New Jersey ,1,0,39.999917,-74.1840221615951
2502,Trenton,NJ,New Jersey ,34,1,40.2170575,-74.7429463
2503,West New York,NJ,New Jersey ,1,1,40.7878788,-74.0143064
2504,Burlington County,NJ,New Jersey ,0,1,39.862536,-74.6812730607175
2505,Kearny,NJ,New Jersey ,0,1,40.7684342,-74.1454214
2506,Riverton,NJ,New Jersey ,0,1,40.0115009,-75.0148931
2507,Ashford,CT,Connecticut ,1,0,41.8731532,-72.1214653
2508,Bridgeport,CT,Connecticut ,8,0,41.1670412,-73.2048348
2509,Buford,CT,Connecticut ,2,2,41.820168,-73.256658
2510,Coventry,CT,Connecticut ,1,1,41.7700987,-72.3050803
2511,East Windsor,CT,Connecticut ,1,0,42.4778637,-72.9856541
2512,Fair Haven,CT,Connecticut ,1,0,41.3112082,-72.8956569
2513,Greenwich,CT,Connecticut ,1,0,41.0264862,-73.6284598
2514,Hartford,CT,Connecticut ,18,2,41.765599,-72.69058562930721
2515,New Britain,CT,Connecticut ,1,0,41.6804055,-72.78827613422091
2516,New Fairfield,CT,Connecticut ,1,0,41.4664832,-73.4856789
2517,New Haven,CT,Connecticut ,17,1,41.30729,-72.9257003
2518,New London,CT,Connecticut ,1,1,41.331748,-72.09655138870819
2519,Newtown,CT,Connecticut ,9,19,41.4123225,-73.3114235802945
2520,Norwalk,CT,Connecticut ,2,0,41.0958545,-73.4205389859629
2521,Norwich,CT,Connecticut ,2,0,41.549491,-72.0892280657633
2522,Preston,CT,Connecticut ,2,1,41.490374,-73.152056
2523,Ridgefield,CT,Connecticut ,1,0,41.2671885,-73.49350438532579
2524,Stamford,CT,Connecticut ,1,0,41.0716945,-73.54429712068959
2525,Stonington,CT,Connecticut ,1,0,41.332649,-71.90233628830191
2526,Waterbury,CT,Connecticut ,3,0,41.5647085,-73.0424816302171
2527,Waterford,CT,Connecticut ,3,0,41.3542395,-72.164816
2528,West Haven,CT,Connecticut ,2,0,41.2706527,-72.9470471
2529,Willimantic,CT,Connecticut ,2,0,41.71232,-72.2149800640803
2530,Attleborough,MA,Massachusetts ,1,0,41.9250996,-71.3494994
2531,Boston,MA,Massachusetts ,23,2,42.3604823,-71.0595678
2532,Brockton,MA,Massachusetts ,7,0,42.0834335,-71.0183787
2533,Charlestown,MA,Massachusetts ,1,0,42.3778749,-71.0619957
2534,Chelsea,MA,Massachusetts ,2,1,42.3917638,-71.0328284
2535,Chicopee,MA,Massachusetts ,1,0,42.1712518,-72.57335897342529
2536,Danvers,MA,Massachusetts ,1,0,42.5750946,-70.9300507
2537,Devens,MA,Massachusetts ,1,0,42.5389512,-71.6094356
2538,Dorchester,MA,Massachusetts ,3,0,42.2973205,-71.0744952
2539,East Bridgewater,MA,Massachusetts ,1,0,42.0334341,-70.9592096
2540,Fitchburg,MA,Massachusetts ,1,0,42.5834228,-71.8022956
2541,Framingham,MA,Massachusetts ,1,0,42.2792625,-71.416172
2542,Holyoke,MA,Massachusetts ,4,0,42.2241545,-72.64021752080099
2543,Lowell,MA,Massachusetts ,1,0,42.6334247,-71.3161718
2544,Lynn,MA,Massachusetts ,1,0,42.466763,-70.9494939
2545,Malden,MA,Massachusetts ,1,0,42.4250964,-71.066163
2546,Mattapan,MA,Massachusetts ,3,0,42.2723208,-71.0869953
2547,Peabody,MA,Massachusetts ,1,0,42.5278731,-70.9286609
2548,Roxbury,MA,Massachusetts ,7,1,42.3250978,-71.0953294
2549,Stoneham,MA,Massachusetts ,1,0,42.4800954,-71.0994976
2550,Swansea,MA,Massachusetts ,2,0,41.7481575,-71.1897684
2551,Watertown,MA,Massachusetts ,1,0,42.3709299,-71.1828321
2552,Worcester,MA,Massachusetts ,5,3,42.2625932,-71.8022934
2553,Middleboro,MA,Massachusetts ,0,1,41.8931576,-70.9111517
2554,Barboursville,WV,West Virginia ,1,1,38.4095298,-82.2945923
2555,Beckley,WV,West Virginia ,1,0,37.7781702,-81.1881557
2556,Bristol,WV,West Virginia ,3,1,39.2878659,-80.5239841
2557,Charleston,WV,West Virginia ,17,3,38.3498221,-81.6326301
2558,Circleville,WV,West Virginia ,1,0,38.6709481,-79.4911597
2559,Clarksburg,WV,West Virginia ,4,0,39.2806451,-80.3445341
2560,Cranesville,WV,West Virginia ,1,0,39.5531434,-79.4947668
2561,Cross Lanes,WV,West Virginia ,1,1,38.4203709,-81.7906847
2562,Davin,WV,West Virginia ,1,0,37.7317746,-81.829284
2563,East Lynn,WV,West Virginia ,1,0,38.1678662,-82.3779268
2564,Elkins,WV,West Virginia ,1,0,38.9259397,-79.8467349
2565,Fayette County,WV,West Virginia ,1,0,38.043516,-81.0951710039253
2566,Genteel Ridge,WV,West Virginia ,1,0,40.275272,-80.564772
2567,Grandview,WV,West Virginia ,3,0,37.8251153,-81.068708
2568,Greenbrier County,WV,West Virginia ,1,0,37.9771195,-80.4012615517689
2569,Harrison County,WV,West Virginia ,2,0,39.284252,-80.3911455597946
2570,Hartland,WV,West Virginia ,1,0,38.432046,-81.1126092
2571,Huntington,WV,West Virginia ,7,0,38.4192496,-82.445154
2572,Jonben,WV,West Virginia ,1,0,37.6562267,-81.1920434
2573,Lewisburg,WV,West Virginia ,1,0,37.8017879,-80.4456303
2574,Man,WV,West Virginia ,1,0,37.7398294,-81.8776191
2575,Martinsburg,WV,West Virginia ,2,1,39.4562099,-77.9638869
2576,Maysel,WV,West Virginia ,1,0,38.4859334,-81.1126102
2577,Montcalm,WV,West Virginia ,1,0,37.3540054,-81.2525994
2578,Nicholas County,WV,West Virginia ,1,0,38.3183215,-80.8252353045696
2579,Oak Hill,WV,West Virginia ,1,0,37.9723339,-81.1487136
2580,Pennsboro,WV,West Virginia ,1,0,39.2850799,-80.9684422
2581,Pinch,WV,West Virginia ,1,0,38.4087094,-81.4817876
2582,Raleigh County,WV,West Virginia ,1,0,37.7504405,-81.17391315400819
2583,Rand,WV,West Virginia ,1,0,38.2826001,-81.5623425
2584,St. Albans,WV,West Virginia ,1,0,38.3856488,-81.836241
2585,Stanaford,WV,West Virginia ,1,0,37.8159477,-81.1523219
2586,Weirton,WV,West Virginia ,1,0,40.4189566,-80.5895167
2587,Wellsburg,WV,West Virginia ,1,0,40.2720146,-80.6095187
2588,Williamson,WV,West Virginia ,1,0,37.6742682,-82.2773629
2589,Brushfork,WV,West Virginia ,0,1,37.282784,-81.252408
2590,Harper Heights,WV,West Virginia ,0,1,37.803169,-81.2448248
2591,Kanawha County,WV,West Virginia ,0,1,38.2972545,-81.5241903042285
2592,Quick,WV,West Virginia ,0,1,38.3726001,-81.4020624
2593,Basin City,WA,Washington ,1,0,46.5940274,-119.1522344
2594,Bellevue,WA,Washington ,3,0,47.5990002,-122.156399587582
2595,Bellingham,WA,Washington ,1,0,48.754402,-122.4788602
2596,Blanchard,WA,Washington ,2,0,48.5934411,-122.4165538
2597,Boulevard Park,WA,Washington ,2,0,47.4948791,-122.3103604
2598,Buckley,WA,Washington ,2,0,47.1622483,-122.027746
2599,Cheney,WA,Washington ,1,1,47.4873895,-117.5757622
2600,Chesaw,WA,Washington ,1,0,48.9460104,-119.0514316
2601,Connell,WA,Washington ,1,0,46.6634733,-118.8611117
2602,Duvall,WA,Washington ,1,0,47.7423219,-121.9856782
2603,Ellensburg,WA,Washington ,2,0,46.9970635,-120.5451223
2604,Enumclaw,WA,Washington ,1,0,47.2047793,-121.9916371
2605,Everett,WA,Washington ,2,0,47.9673056,-122.2013998
2606,Federal Way,WA,Washington ,5,1,47.3129607,-122.3393665
2607,Fife,WA,Washington ,1,0,47.2359524,-122.3626381
2608,Finley,WA,Washington ,1,0,46.1540232,-119.0338959
2609,Gig Harbor,WA,Washington ,1,0,47.3259697,-122.5878659
2610,Hoquiam,WA,Washington ,1,0,46.9809291,-123.8893352
2611,Index,WA,Washington ,1,0,47.8208311,-121.5538914
2612,Kelso,WA,Washington ,1,0,46.1420334,-122.9060318
2613,Kennewick,WA,Washington ,1,1,46.2112458,-119.1372338
2614,Kent,WA,Washington ,3,0,47.3826903,-122.2270272
2615,Kettle Falls,WA,Washington ,1,0,48.6105163,-118.0563379
2616,Key Peninsula,WA,Washington ,1,0,47.390888,-122.696646
2617,Lynnwood,WA,Washington ,1,0,47.8278656,-122.3053932
2618,Malott,WA,Washington ,2,0,48.2826495,-119.7067271
2619,Maple Valley,WA,Washington ,2,0,47.3661629,-122.0447038
2620,Moses Lake,WA,Washington ,1,0,47.1301417,-119.2780771
2621,Okanogan,WA,Washington ,1,0,48.0157092,-118.9471435
2622,Orondo,WA,Washington ,1,0,47.6259626,-120.2253534
2623,Orting,WA,Washington ,1,0,47.0978795,-122.2042824
2624,Othello,WA,Washington ,3,0,46.8259742,-119.1752913
2625,Pasco,WA,Washington ,1,0,46.2395793,-119.1005657
2626,Pend Oreille County,WA,Washington ,1,0,48.52299285,-117.26817857803499
2627,Pullman,WA,Washington ,1,0,46.7304625,-117.16456081256901
2628,Puyallup,WA,Washington ,1,1,47.1849009,-122.2921406
2629,Rattlesnake Mountain,WA,Washington ,1,0,47.4584358,-121.8062219
2630,Renton,WA,Washington ,2,1,47.481545,-122.189811416667
2631,Richland,WA,Washington ,1,0,46.2778406,-119.2769067
2632,SeaTac,WA,Washington ,1,0,47.442905,-122.2943872
2633,Seattle,WA,Washington ,17,1,47.6038321,-122.3300624
2634,Sedro-Woolley,WA,Washington ,2,0,48.5049158,-122.2349409
2635,Shelton,WA,Washington ,1,0,47.2127982,-123.1002535
2636,Spanaway,WA,Washington ,3,0,47.0979462,-122.4243422
2637,Spokane,WA,Washington ,16,2,47.6588603,-117.4247134
2638,Spokane County,WA,Washington ,1,0,47.2648989,-117.0603557
2639,Spokane Valley,WA,Washington ,1,0,47.6732281,-117.2393748
2640,Sumner,WA,Washington ,1,0,47.2061882,-122.2312383
2641,Tacoma,WA,Washington ,5,2,47.2495798,-122.4398746
2642,Toppenish,WA,Washington ,1,0,46.3773509,-120.3086667
2643,Tukwila,WA,Washington ,1,0,47.4630314,-122.2558378
2644,Union Gap,WA,Washington ,1,1,46.5573492,-120.4750638
2645,Vancouver,WA,Washington ,5,1,45.6306954,-122.6744557
2646,Waller,WA,Washington ,1,0,47.2006554,-122.3692883
2647,Wapato,WA,Washington ,2,0,46.4476278,-120.4203382
2648,Wenatchee,WA,Washington ,2,1,47.4234599,-120.3103494
2649,Wishram,WA,Washington ,1,0,45.6589437,-120.9654224
2650,Yacolt,WA,Washington ,1,0,45.8655044,-122.4070314
2651,Yakima,WA,Washington ,2,0,46.5967275,-120.5296561
2652,Lake Stevens,WA,Washington ,0,1,48.0197794,-122.0660914
2653,Marblemount,WA,Washington ,0,1,48.527619,-121.4495729
2654,Terrace Heights,WA,Washington ,0,1,46.6062383,-120.4397854
2655,Bassfield,MS,Mississippi ,1,0,31.4965591,-89.7395195
2656,Batesville,MS,Mississippi ,3,0,34.318041,-89.92790375492541
2657,Biloxi,MS,Mississippi ,1,0,30.4397885,-88.96396317711849
2658,Bolivar County,MS,Mississippi ,1,0,33.82507915,-90.85605374275758
2659,Boyle,MS,Mississippi ,1,1,33.7040028,-90.7264849
2660,Brookhaven,MS,Mississippi ,3,0,31.583597,-90.4418290285203
2661,Bude,MS,Mississippi ,1,0,31.4629491,-90.8501014
2662,Calhoun City,MS,Mississippi ,1,0,33.8553915,-89.3114613
2663,Claiborne County,MS,Mississippi ,1,0,32.00613495,-90.8992241005019
2664,Clarke County,MS,Mississippi ,1,0,32.02698755,-88.68383461679619
2665,Clarksdale,MS,Mississippi ,2,0,34.1956615,-90.57478177671179
2666,Coahoma County,MS,Mississippi ,1,0,34.25530945,-90.6435488659346
2667,Coffeeville,MS,Mississippi ,1,0,33.9767793,-89.675641
2668,Copiah County,MS,Mississippi ,4,1,31.8681405,-90.42632333053629
2669,Corinth,MS,Mississippi ,2,1,34.9433635,-88.5173238080124
2670,Forest,MS,Mississippi ,1,0,32.351075,-89.47154115687181
2671,Gulfport,MS,Mississippi ,3,2,30.3674198,-89.0928155
2672,Hancock County,MS,Mississippi ,1,0,30.4031063,-89.5112245527939
2673,Hattiesburg,MS,Mississippi ,5,0,31.3271189,-89.2903392
2674,Hickory Flat,MS,Mississippi ,1,1,34.6159327,-89.188404
2675,Hinds County,MS,Mississippi ,1,0,32.30025695,-90.18338795
2676,Holmes County,MS,Mississippi ,1,1,33.1257,-90.0739936365579
2677,Horn Lake,MS,Mississippi ,1,0,34.947983,-90.05203922122931
2678,Jackson,MS,Mississippi ,46,10,32.4104055,-90.1620936054217
2679,Lamar County,MS,Mississippi ,1,1,31.20824125,-89.5009568793223
2680,Leland,MS,Mississippi ,1,0,33.402026,-90.90105930987471
2681,Lowndes County,MS,Mississippi ,1,0,33.51709275,-88.42994902971981
2682,Lucedale,MS,Mississippi ,1,0,30.92853,-88.5979753091133
2683,Marks,MS,Mississippi ,1,0,34.251709,-90.27436896562979
2684,McComb,MS,Mississippi ,1,0,31.243444,-90.4729192957908
2685,Meridian,MS,Mississippi ,1,0,32.376081,-88.6897800234601
2686,Morton,MS,Mississippi ,1,1,32.3537557,-89.6545171
2687,Moss Point,MS,Mississippi ,1,0,30.430371,-88.51917015099741
2688,Natchez,MS,Mississippi ,1,0,31.5444215,-91.3892021484976
2689,Olive Branch,MS,Mississippi ,1,0,34.9617605,-89.8295315
2690,Panola County,MS,Mississippi ,2,0,34.3731623,-89.7319317
2691,Pascagoula,MS,Mississippi ,1,0,30.362517,-88.54910058452231
2692,Pass Christian,MS,Mississippi ,1,0,30.3137945,-89.2379214575445
2693,Pearl,MS,Mississippi ,1,0,32.2745912,-90.1320311
2694,Picayune,MS,Mississippi ,2,0,30.5266,-89.67922823576309
2695,Senatobia,MS,Mississippi ,1,0,34.6040125,-89.9738298588748
2696,Tallulah,MS,Mississippi ,1,0,32.396245,-91.189765
2697,Tunica,MS,Mississippi ,1,0,34.6399136,-90.3623833
2698,Tupelo,MS,Mississippi ,2,0,34.2633865,-88.7250375994862
2699,Vancleave,MS,Mississippi ,1,0,30.541838,-88.6713117483681
2700,Vicksburg,MS,Mississippi ,3,0,32.3257403,-90.87182033228149
2701,Waveland,MS,Mississippi ,1,0,30.294404,-89.3783004388644
2702,West Point,MS,Mississippi ,1,0,33.600082,-88.66143885143791
2703,Yazoo County,MS,Mississippi ,1,0,32.763338,-90.36056013048531
2704,Hazlehurst,MS,Mississippi ,0,1,31.8641545,-90.39617281412909
2705,Kiln,MS,Mississippi ,0,1,30.4189159,-89.4347254289102
2706,Leakesville,MS,Mississippi ,0,1,31.1542465,-88.55750754343298
2707,Mendenhall,MS,Mississippi ,0,1,31.960328,-89.8683621955324
2708,Warren County,MS,Mississippi ,0,2,32.3506845,-90.8396032657789
2709,Waynesboro,MS,Mississippi ,0,2,31.676052,-88.6343980151515
2710,Battle Creek,NE,Nebraska ,1,0,41.9994496,-97.5983892
2711,Grand Island,NE,Nebraska ,1,1,40.9250124,-98.342007
2712,Gretna,NE,Nebraska ,1,0,41.118705,-96.2565939775305
2713,Howard County,NE,Nebraska ,2,0,41.2208575,-98.51621127096772
2714,La Vista,NE,Nebraska ,1,0,41.1838878,-96.031127
2715,Lancaster County,NE,Nebraska ,2,1,40.7768326,-96.7111039
2716,Macy,NE,Nebraska ,1,0,42.1130467,-96.3564161
2717,North Platte,NE,Nebraska ,1,0,41.1238873,-100.7654232
2718,Omaha,NE,Nebraska ,29,4,41.2587317,-95.9378732
2719,Osmond,NE,Nebraska ,1,0,42.3600032,-97.5967282
2720,Sarpy County,NE,Nebraska ,1,0,41.0937285,-96.10062245200899
2721,Sidney,NE,Nebraska ,2,0,41.1438296,-102.9772835
2722,Stromsburg,NE,Nebraska ,1,0,41.1135884,-97.5977434
2723,Valentine,NE,Nebraska ,2,0,42.8727833,-100.5509669
2724,Wabash,NE,Nebraska ,1,0,40.886389,-96.2544559
2725,Ralston,NE,Nebraska ,0,1,41.2015541,-96.03343028410109
2726,Belcourt,ND,North Dakota ,1,0,48.8391769,-99.7448737
2727,Bismarck,ND,North Dakota ,1,0,46.8083268,-100.7837392
2728,Fargo,ND,North Dakota ,1,1,46.8171175,-96.8351055301007
2729,Grand Forks,ND,North Dakota ,1,0,47.9078244,-97.0592028
2730,Westhope,ND,North Dakota ,1,0,48.9094642,-101.0207117
2731,Williston,ND,North Dakota ,3,0,48.1469683,-103.6179745
2732,Beltrami County,MN,Minnesota ,1,0,47.976307,-94.84024332721279
2733,Bemidji,MN,Minnesota ,2,0,47.4786541,-94.890802
2734,Brainerd,MN,Minnesota ,1,0,46.3580221,-94.2008288
2735,Brooklyn Center,MN,Minnesota ,4,0,45.0748543,-93.3296296
2736,Brooklyn Park,MN,Minnesota ,2,0,45.1004807,-93.3443585
2737,Burnsville,MN,Minnesota ,3,0,44.7677424,-93.2777226
2738,Clear Lake,MN,Minnesota ,2,1,45.4449657,-93.9988708
2739,Detroit Lakes,MN,Minnesota ,1,0,46.8171809,-95.8453253
2740,Duluth,MN,Minnesota ,2,0,46.7729322,-92.1251218
2741,Eden Prairie,MN,Minnesota ,2,2,44.8546856,-93.470786
2742,Granite Falls,MN,Minnesota ,1,1,44.8099575,-95.5455752
2743,Hubbard County,MN,Minnesota ,1,0,47.1082495,-94.916707656901
2744,Kellogg,MN,Minnesota ,1,0,44.3085769,-91.9957204
2745,Little Falls,MN,Minnesota ,1,1,45.9763545,-94.3625024
2746,MInneapolis,MN,Minnesota ,2,0,44.9772995,-93.2654692
2747,Mankato,MN,Minnesota ,1,0,44.1634663,-93.9993505
2748,Minneapolis,MN,Minnesota ,29,1,44.9772995,-93.2654692
2749,Minnetonka,MN,Minnesota ,1,0,44.9127229,-93.499059
2750,New Hope,MN,Minnesota ,1,0,45.0380201,-93.3866185
2751,New York Mills,MN,Minnesota ,2,0,46.519128,-95.37394386688108
2752,North Mankato,MN,Minnesota ,1,0,44.1848485,-94.0395150375375
2753,Oakdale,MN,Minnesota ,2,0,44.9630216,-92.9649361
2754,Orono,MN,Minnesota ,2,0,44.9713519,-93.6044033
2755,Pine County,MN,Minnesota ,1,0,46.07482315,-92.6729118504013
2756,Ramsey,MN,Minnesota ,2,1,45.0165728,-93.0949501
2757,Red Wing,MN,Minnesota ,1,0,44.5624676,-92.5338013
2758,Richfield,MN,Minnesota ,1,0,44.8766431,-93.2877877
2759,Rosemount,MN,Minnesota ,1,1,44.7391873,-93.12611
2760,Roseville,MN,Minnesota ,3,0,45.0060767,-93.1566107
2761,Shakopee,MN,Minnesota ,2,0,44.7980186,-93.5268986
2762,Shoreview,MN,Minnesota ,2,1,45.0722056,-93.1282878
2763,St Paul,MN,Minnesota ,6,0,44.9504037,-93.1015026
2764,St Paul Park,MN,Minnesota ,1,0,44.8421887,-92.9913243
2765,St. Paul,MN,Minnesota ,5,1,44.9504037,-93.1015026
2766,St. Peter,MN,Minnesota ,1,1,44.3235774,-93.9580145
2767,Stillwater,MN,Minnesota ,1,0,45.0564041,-92.8134982
2768,Superior,MN,Minnesota ,1,0,44.0488548,-92.52468241089599
2769,West St. Paul,MN,Minnesota ,1,0,44.9160768,-93.1016074
2770,bagley,MN,Minnesota ,1,0,47.5216231,-95.3983491
2771,Andover,MN,Minnesota ,0,1,45.2332985,-93.2913405
2772,Bagley,MN,Minnesota ,0,1,47.5216231,-95.3983491
2773,Biddeford,ME,Maine ,3,1,43.4925843,-70.4533844
2774,Calais,ME,Maine ,1,0,45.1889633,-67.2786039
2775,Chapman,ME,Maine ,1,1,46.6480974,-68.1608669
2776,East Millinocket,ME,Maine ,1,0,45.6275528,-68.5744751
2777,Freeport,ME,Maine ,4,0,43.8570242,-70.1031057
2778,Hallowell,ME,Maine ,1,0,44.2859022,-69.7908786
2779,Hollis,ME,Maine ,1,0,43.6328705,-70.63229818980491
2780,Lamoine,ME,Maine ,1,0,44.4648001,-68.3164055
2781,Lincoln,ME,Maine ,6,1,44.1137571,-69.5351337
2782,Oakfield,ME,Maine ,1,1,46.0989408,-68.1500246
2783,Turner,ME,Maine ,1,1,44.2564588,-70.2561671
2784,Westbrook,ME,Maine ,2,0,43.6770252,-70.3711617
2785,Belfast,ME,Maine ,0,1,44.4259092,-69.0064234
2786,Falmouth,ME,Maine ,0,1,43.729525,-70.241993
2787,Big Island,HI,Hawaii ,1,0,19.3453191,-154.9804739
2788,Hilo,HI,Hawaii ,1,2,19.7067972,-155.0813821
2789,K?hei,HI,Hawaii ,1,0,20.785,-156.4655556
2790,Kauai,HI,Hawaii ,1,0,22.1019444,-159.3085111
2791,Maui,HI,Hawaii ,1,1,20.7873849,-156.38627
2792,Waikiki,HI,Hawaii ,1,0,21.2792788,-157.8285405
2793,Waipahu,HI,Hawaii ,1,0,21.3866667,-158.0091667
2794,Honolulu,HI,Hawaii ,0,2,21.3255125,-157.84730549367902
2795,Kawela,HI,Hawaii ,0,1,21.0675013,-156.9525933
2796,Boise,ID,Idaho ,2,0,43.615046,-116.2044429
2797,Burley,ID,Idaho ,1,0,42.5357428,-113.7927948
2798,Caldwell,ID,Idaho ,1,0,43.6678736,-116.6894156
2799,Chubbuck,ID,Idaho ,1,0,42.9207477,-112.4660912
2800,Coeur d'Alene,ID,Idaho ,1,0,47.6757384,-116.7960225
2801,Filer,ID,Idaho ,1,0,42.570186,-114.6078214
2802,Hayden,ID,Idaho ,1,1,47.7660161,-116.7865815
2803,Heyburn,ID,Idaho ,1,0,42.5585202,-113.7639048
2804,Holbrook,ID,Idaho ,2,1,42.1618627,-112.6538676
2805,Lapwai,ID,Idaho ,1,0,46.4048865,-116.8048733
2806,Meridan,ID,Idaho ,1,0,43.0028293,-115.2040913
2807,Moscow,ID,Idaho ,2,0,46.7323875,-117.0001651
2808,Mullan,ID,Idaho ,1,0,47.4702078,-115.8018253
2809,Nampa,ID,Idaho ,1,0,43.5737361,-116.559642
2810,Pocatello,ID,Idaho ,1,1,42.8688613,-112.4401098
2811,Rigby,ID,Idaho ,1,0,43.6752023,-111.9180019
2812,St. Maries,ID,Idaho ,1,0,47.3143542,-116.5626675
2813,Whitman County,ID,Idaho ,1,0,46.7284485,-117.166927
2814,Idaho Falls,ID,Idaho ,0,1,43.493873,-112.084615282543
2815,Bonner Springs,KS,Kansas ,1,1,39.059726,-94.8835754
2816,De Soto,KS,Kansas ,2,0,38.9791708,-94.9685784
2817,El Dorado,KS,Kansas ,1,0,37.81724,-96.8622524
2818,Fort Scott,KS,Kansas ,1,2,37.8397626,-94.7082951
2819,Garden City,KS,Kansas ,2,1,37.9716898,-100.8726618
2820,Hoisington,KS,Kansas ,1,1,38.5180672,-98.7781394
2821,Hutchinson,KS,Kansas ,1,0,38.0608444,-97.9297743
2822,Independence,KS,Kansas ,7,1,37.2242358,-95.7083131
2823,Junction City,KS,Kansas ,2,0,39.0286093,-96.8313978
2824,Kansas City ,KS,Kansas ,1,0,39.1078505,-94.7343196
2825,Leavenworth,KS,Kansas ,1,0,39.3111112,-94.9224637
2826,Mayetta,KS,Kansas ,1,0,39.3388851,-95.7224828
2827,McPherson Co,KS,Kansas ,1,0,38.391969,-97.6484366408573
2828,Nodaway County,KS,Kansas ,1,0,39.243731,-94.677846
2829,Olathe,KS,Kansas ,4,0,38.8843867,-94.8161127
2830,Overland Park,KS,Kansas ,2,0,38.9822282,-94.6707917
2831,Salina,KS,Kansas ,2,0,38.8402805,-97.6114237
2832,Shawnee,KS,Kansas ,2,4,39.0416718,-94.7202376
2833,Sumner County,KS,Kansas ,1,0,37.2375345,-97.4762564657403
2834,Topeka,KS,Kansas ,14,3,39.0490111,-95.6775557
2835,Wichita,KS,Kansas ,17,1,37.6922361,-97.3375448
2836,Bazine,KS,Kansas ,0,1,38.4444594,-99.692063
2837,Pratt,KS,Kansas ,0,1,37.6280602,-98.7485305
2838,Boulder City,NV,Nevada ,2,1,35.9785912,-114.8324851
2839,Carson City,NV,Nevada ,2,0,39.1637984,-119.7674034
2840,Fernley,NV,Nevada ,3,2,39.6079951,-119.2518245
2841,Gardnerville,NV,Nevada ,2,0,38.9412959,-119.7496216
2842,Golconda,NV,Nevada ,1,0,40.956712,-117.489402
2843,Las Vegas,NV,Nevada ,60,15,36.145204,-115.1611806
2844,Moapa,NV,Nevada ,1,0,36.675805,-114.6208232
2845,Mustang,NV,Nevada ,1,0,39.5218565,-119.6285169
2846,North Las Vegas,NV,Nevada ,2,0,36.1988597,-115.1175031
2847,Reno,NV,Nevada ,17,0,39.52927,-119.8136744
2848,Sparks,NV,Nevada ,2,0,39.5349169,-119.7526936
2849,Sun Valley,NV,Nevada ,2,0,39.6138205,-119.776797011495
2850,Winnemucca,NV,Nevada ,1,0,40.9729584,-117.7356849
2851,Carlin,NV,Nevada ,0,1,40.7138068,-116.1039662
2852,Caledonia,VT,Vermont ,2,0,44.4678493,-72.0897101
2853,Danby,VT,Vermont ,1,0,43.3461841,-72.9953817
2854,Fairlee,VT,Vermont ,1,1,43.9059156,-72.1474972
2855,Johnson,VT,Vermont ,1,0,44.6356063,-72.6803979
2856,Londonderry,VT,Vermont ,1,0,43.2264643,-72.8064866
2857,Newbury,VT,Vermont ,1,0,44.0792316,-72.0584234
2858,Richford,VT,Vermont ,1,0,44.9969898,-72.6712423
2859,Barton,VT,Vermont ,0,1,44.7481049,-72.1762128
2860,St Albans,VT,Vermont ,0,1,44.8108791,-73.0831924
2861,Winooski,VT,Vermont ,0,1,44.4949995,-73.1828073
2862,Casper,WY,Wyoming ,2,1,42.866632,-106.313081
2863,Cheyenne,WY,Wyoming ,1,1,41.1399814,-104.8202462
2864,Clark,WY,Wyoming ,1,2,44.8993923,-109.1509804
2865,Gillette,WY,Wyoming ,1,0,44.2911006,-105.5021381
2866,Green River,WY,Wyoming ,1,0,41.5290933,-109.4664738
2867,Jackson Hole,WY,Wyoming ,1,0,43.6841215,-110.44361664027399
2868,Natrona,WY,Wyoming ,1,0,43.0296874,-106.8092162
2869,Lander,WY,Wyoming ,0,1,42.8330755,-108.7307024
2870,Yellowstone,WY,Wyoming ,0,1,45.7780247,-108.5472998
2871,Cumberland,RI,Rhode Island ,2,1,41.9667656,-71.4328363
2872,New Bedford,RI,Rhode Island ,1,0,41.6362152,-70.934205
2873,Pawtucket,RI,Rhode Island ,3,0,41.878711,-71.3825558
2874,Providence,RI,Rhode Island ,10,1,41.8239891,-71.4128343
2875,Taunton,RI,Rhode Island ,1,0,41.900101,-71.0897675
2876,Johnston,RI,Rhode Island ,0,2,41.8310404,-71.5412101
2877,Hinsdale,NH,New Hampshire ,1,0,42.7861936,-72.4864773
2878,Manchester,NH,New Hampshire ,14,7,42.9956397,-71.4547891
2879,Mont Vernon,NH,New Hampshire ,1,0,42.8945294,-71.6742394
2880,Walpole,NH,New Hampshire ,1,0,43.0795232,-72.4259214
2881,Weare,NH,New Hampshire ,1,0,43.0948033,-71.7306314
2882,Washington,DC,Dist. of Columbia,101,9,38.8951148,-77.0363716
2883,Washington DC,DC,Dist. of Columbia,1,0,38.8951148,-77.0363716
